Zip,Place Name,State,State Short,County,,,,,,
17301,Abbottstown,Pennsylvania,PA,Adams,1,,,39.8881,-76.9931,4
17303,Arendtsville,Pennsylvania,PA,Adams,1,,,39.9236,-77.3001,4
17304,Aspers,Pennsylvania,PA,Adams,1,,,39.9765,-77.2287,4
17306,Bendersville,Pennsylvania,PA,Adams,1,,,39.9792,-77.2496,4
17307,Biglerville,Pennsylvania,PA,Adams,1,,,39.9281,-77.2885,4
17310,Cashtown,Pennsylvania,PA,Adams,1,,,39.8906,-77.3566,4
17316,East Berlin,Pennsylvania,PA,Adams,1,,,39.9645,-77.0073,4
17320,Fairfield,Pennsylvania,PA,Adams,1,,,39.7808,-77.3619,4
17324,Gardners,Pennsylvania,PA,Adams,1,,,40.0428,-77.1877,4
17325,Gettysburg,Pennsylvania,PA,Adams,1,,,39.832,-77.2223,4
17337,Idaville,Pennsylvania,PA,Adams,1,,,40.0157,-77.2001,4
17340,Littlestown,Pennsylvania,PA,Adams,1,,,39.7495,-77.1003,4
17343,Mc Knightstown,Pennsylvania,PA,Adams,1,,,39.8692,-77.3292,1
17344,Mc Sherrystown,Pennsylvania,PA,Adams,1,,,39.801,-77.0229,1
17350,New Oxford,Pennsylvania,PA,Adams,1,,,39.8775,-77.0643,4
17353,Orrtanna,Pennsylvania,PA,Adams,1,,,39.881,-77.3806,4
17372,York Springs,Pennsylvania,PA,Adams,1,,,40.0084,-77.1061,4
17375,Peach Glen,Pennsylvania,PA,Adams,1,,,39.8948,-77.2135,4
15006,Bairdford,Pennsylvania,PA,Allegheny,3,,,40.6312,-79.8814,4
15007,Bakerstown,Pennsylvania,PA,Allegheny,3,,,40.6478,-79.931,4
15014,Brackenridge,Pennsylvania,PA,Allegheny,3,,,40.6082,-79.7414,4
15015,Bradfordwoods,Pennsylvania,PA,Allegheny,3,,,40.6372,-80.0811,1
15017,Bridgeville,Pennsylvania,PA,Allegheny,3,,,40.3472,-80.1153,4
15018,Buena Vista,Pennsylvania,PA,Allegheny,3,,,40.2773,-79.7992,4
15020,Bunola,Pennsylvania,PA,Allegheny,3,,,40.2373,-79.9506,4
15024,Cheswick,Pennsylvania,PA,Allegheny,3,,,40.5681,-79.841,4
15025,Clairton,Pennsylvania,PA,Allegheny,3,,,40.3243,-79.9317,4
15026,Clinton,Pennsylvania,PA,Allegheny,3,,,40.5131,-80.3423,4
15028,Coulters,Pennsylvania,PA,Allegheny,3,,,40.4344,-80.0248,1
15030,Creighton,Pennsylvania,PA,Allegheny,3,,,40.5821,-79.7818,4
15031,Cuddy,Pennsylvania,PA,Allegheny,3,,,40.3547,-80.1669,4
15032,Curtisville,Pennsylvania,PA,Allegheny,3,,,40.6423,-79.8509,4
15034,Dravosburg,Pennsylvania,PA,Allegheny,3,,,40.3527,-79.8895,4
15035,East Mc Keesport,Pennsylvania,PA,Allegheny,3,,,40.3839,-79.8079,1
15037,Elizabeth,Pennsylvania,PA,Allegheny,3,,,40.2656,-79.8568,4
15044,Gibsonia,Pennsylvania,PA,Allegheny,3,,,40.6252,-79.9443,4
15045,Glassport,Pennsylvania,PA,Allegheny,3,,,40.326,-79.8883,4
15046,Crescent,Pennsylvania,PA,Allegheny,3,,,40.5563,-80.2286,4
15047,Greenock,Pennsylvania,PA,Allegheny,3,,,40.3123,-79.8067,4
15049,Harwick,Pennsylvania,PA,Allegheny,3,,,40.5574,-79.8051,4
15051,Indianola,Pennsylvania,PA,Allegheny,3,,,40.5695,-79.8637,4
15056,Leetsdale,Pennsylvania,PA,Allegheny,3,,,40.5662,-80.2099,4
15064,Morgan,Pennsylvania,PA,Allegheny,3,,,40.3542,-80.1398,4
15065,Natrona Heights,Pennsylvania,PA,Allegheny,3,,,40.6421,-79.7273,4
15071,Oakdale,Pennsylvania,PA,Allegheny,3,,,40.4033,-80.1842,4
15075,Rural Ridge,Pennsylvania,PA,Allegheny,3,,,40.5856,-79.8287,4
15076,Russellton,Pennsylvania,PA,Allegheny,3,,,40.6073,-79.8347,4
15082,Sturgeon,Pennsylvania,PA,Allegheny,3,,,40.3863,-80.2083,4
15084,Tarentum,Pennsylvania,PA,Allegheny,3,,,40.6187,-79.7852,4
15086,Warrendale,Pennsylvania,PA,Allegheny,3,,,40.6534,-80.0795,4
15088,West Elizabeth,Pennsylvania,PA,Allegheny,3,,,40.2716,-79.8966,4
15090,Wexford,Pennsylvania,PA,Allegheny,3,,,40.612,-80.0649,4
15091,Wildwood,Pennsylvania,PA,Allegheny,3,,,40.5942,-79.9701,4
15095,Warrendale,Pennsylvania,PA,Allegheny,3,,,40.6534,-80.0795,4
15096,Warrendale,Pennsylvania,PA,Allegheny,3,,,40.6534,-80.0795,4
15101,Allison Park,Pennsylvania,PA,Allegheny,3,,,40.57,-79.9665,4
15102,Bethel Park,Pennsylvania,PA,Allegheny,3,,,40.321,-80.0398,4
15104,Braddock,Pennsylvania,PA,Allegheny,3,,,40.4038,-79.8625,4
15106,Carnegie,Pennsylvania,PA,Allegheny,3,,,40.4029,-80.0915,4
15108,Coraopolis,Pennsylvania,PA,Allegheny,3,,,40.5,-80.1996,4
15110,Duquesne,Pennsylvania,PA,Allegheny,3,,,40.3704,-79.8522,4
15112,East Pittsburgh,Pennsylvania,PA,Allegheny,3,,,40.4036,-79.8389,4
15116,Glenshaw,Pennsylvania,PA,Allegheny,3,,,40.5375,-79.9644,4
15120,Homestead,Pennsylvania,PA,Allegheny,3,,,40.3926,-79.9052,4
15122,West Mifflin,Pennsylvania,PA,Allegheny,3,,,40.3634,-79.8664,4
15123,West Mifflin,Pennsylvania,PA,Allegheny,3,,,40.4344,-80.0248,4
15126,Imperial,Pennsylvania,PA,Allegheny,3,,,40.4584,-80.2649,4
15127,Ingomar,Pennsylvania,PA,Allegheny,3,,,40.5809,-80.0609,4
15129,South Park,Pennsylvania,PA,Allegheny,3,,,40.2932,-79.996,4
15131,Mckeesport,Pennsylvania,PA,Allegheny,3,,,40.3478,-79.8642,4
15132,Mckeesport,Pennsylvania,PA,Allegheny,3,,,40.3478,-79.8642,4
15133,Mckeesport,Pennsylvania,PA,Allegheny,3,,,40.3478,-79.8642,4
15134,Mckeesport,Pennsylvania,PA,Allegheny,3,,,40.3478,-79.8642,4
15135,Mckeesport,Pennsylvania,PA,Allegheny,3,,,40.3478,-79.8642,4
15136,Mc Kees Rocks,Pennsylvania,PA,Allegheny,3,,,40.4717,-80.0876,1
15137,North Versailles,Pennsylvania,PA,Allegheny,3,,,40.3762,-79.8124,4
15139,Oakmont,Pennsylvania,PA,Allegheny,3,,,40.5196,-79.8369,4
15140,Pitcairn,Pennsylvania,PA,Allegheny,3,,,40.4048,-79.777,4
15142,Presto,Pennsylvania,PA,Allegheny,3,,,40.3847,-80.1209,4
15143,Sewickley,Pennsylvania,PA,Allegheny,3,,,40.557,-80.1578,4
15144,Springdale,Pennsylvania,PA,Allegheny,3,,,40.544,-79.7844,4
15145,Turtle Creek,Pennsylvania,PA,Allegheny,3,,,40.4113,-79.822,4
15146,Monroeville,Pennsylvania,PA,Allegheny,3,,,40.429,-79.7623,4
15147,Verona,Pennsylvania,PA,Allegheny,3,,,40.4927,-79.8345,4
15148,Wilmerding,Pennsylvania,PA,Allegheny,3,,,40.3934,-79.7951,4
15201,Pittsburgh,Pennsylvania,PA,Allegheny,3,,,40.4752,-79.9528,4
15202,Pittsburgh,Pennsylvania,PA,Allegheny,3,,,40.5053,-80.0685,4
15203,Pittsburgh,Pennsylvania,PA,Allegheny,3,,,40.4254,-79.9799,4
15204,Pittsburgh,Pennsylvania,PA,Allegheny,3,,,40.4554,-80.0644,4
15205,Pittsburgh,Pennsylvania,PA,Allegheny,3,,,40.4322,-80.1021,4
15206,Pittsburgh,Pennsylvania,PA,Allegheny,3,,,40.4723,-79.9132,4
15207,Pittsburgh,Pennsylvania,PA,Allegheny,3,,,40.4003,-79.9338,4
15208,Pittsburgh,Pennsylvania,PA,Allegheny,3,,,40.4532,-79.8995,4
15209,Pittsburgh,Pennsylvania,PA,Allegheny,3,,,40.4999,-79.9739,4
15210,Pittsburgh,Pennsylvania,PA,Allegheny,3,,,40.4072,-79.9839,4
15211,Pittsburgh,Pennsylvania,PA,Allegheny,3,,,40.4295,-80.0144,4
15212,Pittsburgh,Pennsylvania,PA,Allegheny,3,,,40.4406,-79.9959,4
15213,Pittsburgh,Pennsylvania,PA,Allegheny,3,,,40.444,-79.9552,4
15214,Pittsburgh,Pennsylvania,PA,Allegheny,3,,,40.4865,-80.014,4
15215,Pittsburgh,Pennsylvania,PA,Allegheny,3,,,40.5048,-79.9138,4
15216,Pittsburgh,Pennsylvania,PA,Allegheny,3,,,40.4001,-80.0462,4
15217,Pittsburgh,Pennsylvania,PA,Allegheny,3,,,40.4308,-79.9205,4
15218,Pittsburgh,Pennsylvania,PA,Allegheny,3,,,40.4237,-79.89,4
15219,Pittsburgh,Pennsylvania,PA,Allegheny,3,,,40.4423,-79.983,4
15220,Pittsburgh,Pennsylvania,PA,Allegheny,3,,,40.4181,-80.0526,4
15221,Pittsburgh,Pennsylvania,PA,Allegheny,3,,,40.4346,-79.8655,4
15222,Pittsburgh,Pennsylvania,PA,Allegheny,3,,,40.4477,-79.9933,4
15223,Pittsburgh,Pennsylvania,PA,Allegheny,3,,,40.5051,-79.9528,4
15224,Pittsburgh,Pennsylvania,PA,Allegheny,3,,,40.4642,-79.9448,4
15225,Pittsburgh,Pennsylvania,PA,Allegheny,3,,,40.5051,-80.1155,4
15226,Pittsburgh,Pennsylvania,PA,Allegheny,3,,,40.4001,-80.0161,4
15227,Pittsburgh,Pennsylvania,PA,Allegheny,3,,,40.3805,-79.9667,4
15228,Pittsburgh,Pennsylvania,PA,Allegheny,3,,,40.3696,-80.0439,4
15229,Pittsburgh,Pennsylvania,PA,Allegheny,3,,,40.5203,-80.037,4
15230,Pittsburgh,Pennsylvania,PA,Allegheny,3,,,40.4344,-80.0248,4
15231,Pittsburgh,Pennsylvania,PA,Allegheny,3,,,40.4961,-80.2466,4
15232,Pittsburgh,Pennsylvania,PA,Allegheny,3,,,40.4525,-79.9319,4
15233,Pittsburgh,Pennsylvania,PA,Allegheny,3,,,40.4608,-80.0348,4
15234,Pittsburgh,Pennsylvania,PA,Allegheny,3,,,40.3688,-80.0224,4
15235,Pittsburgh,Pennsylvania,PA,Allegheny,3,,,40.4598,-79.8224,4
15236,Pittsburgh,Pennsylvania,PA,Allegheny,3,,,40.3351,-79.9832,4
15237,Pittsburgh,Pennsylvania,PA,Allegheny,3,,,40.5488,-80.0474,4
15238,Pittsburgh,Pennsylvania,PA,Allegheny,3,,,40.5346,-79.8805,4
15239,Pittsburgh,Pennsylvania,PA,Allegheny,3,,,40.4837,-79.7381,4
15240,Pittsburgh,Pennsylvania,PA,Allegheny,3,,,40.4344,-80.0248,4
15241,Pittsburgh,Pennsylvania,PA,Allegheny,3,,,40.3323,-80.081,4
15242,Pittsburgh,Pennsylvania,PA,Allegheny,3,,,40.4344,-80.0248,4
15243,Pittsburgh,Pennsylvania,PA,Allegheny,3,,,40.3748,-80.0731,4
15244,Pittsburgh,Pennsylvania,PA,Allegheny,3,,,40.4344,-80.0248,4
15250,Pittsburgh,Pennsylvania,PA,Allegheny,3,,,40.4344,-80.0248,4
15251,Pittsburgh,Pennsylvania,PA,Allegheny,3,,,40.4344,-80.0248,4
15252,Pittsburgh,Pennsylvania,PA,Allegheny,3,,,40.4344,-80.0248,4
15253,Pittsburgh,Pennsylvania,PA,Allegheny,3,,,40.4344,-80.0248,4
15254,Pittsburgh,Pennsylvania,PA,Allegheny,3,,,40.4344,-80.0248,4
15255,Pittsburgh,Pennsylvania,PA,Allegheny,3,,,40.4344,-80.0248,4
15257,Pittsburgh,Pennsylvania,PA,Allegheny,3,,,40.4344,-80.0248,4
15258,Pittsburgh,Pennsylvania,PA,Allegheny,3,,,40.4344,-80.0248,4
15259,Pittsburgh,Pennsylvania,PA,Allegheny,3,,,40.4344,-80.0248,4
15260,Pittsburgh,Pennsylvania,PA,Allegheny,3,,,40.4432,-79.9531,4
15261,Pittsburgh,Pennsylvania,PA,Allegheny,3,,,40.4344,-80.0248,4
15262,Pittsburgh,Pennsylvania,PA,Allegheny,3,,,40.4344,-80.0248,4
15264,Pittsburgh,Pennsylvania,PA,Allegheny,3,,,40.4344,-80.0248,4
15265,Pittsburgh,Pennsylvania,PA,Allegheny,3,,,40.4344,-80.0248,4
15267,Pittsburgh,Pennsylvania,PA,Allegheny,3,,,40.4344,-80.0248,4
15268,Pittsburgh,Pennsylvania,PA,Allegheny,3,,,40.4344,-80.0248,4
15270,Pittsburgh,Pennsylvania,PA,Allegheny,3,,,40.4344,-80.0248,4
15272,Pittsburgh,Pennsylvania,PA,Allegheny,3,,,40.4344,-80.0248,4
15274,Pittsburgh,Pennsylvania,PA,Allegheny,3,,,40.4344,-80.0248,4
15275,Pittsburgh,Pennsylvania,PA,Allegheny,3,,,40.4495,-80.1795,4
15276,Pittsburgh,Pennsylvania,PA,Allegheny,3,,,40.4344,-80.0248,4
15277,Pittsburgh,Pennsylvania,PA,Allegheny,3,,,40.4344,-80.0248,4
15278,Pittsburgh,Pennsylvania,PA,Allegheny,3,,,40.4344,-80.0248,4
15279,Pittsburgh,Pennsylvania,PA,Allegheny,3,,,40.4344,-80.0248,4
15281,Pittsburgh,Pennsylvania,PA,Allegheny,3,,,40.4344,-80.0248,4
15282,Pittsburgh,Pennsylvania,PA,Allegheny,3,,,40.4406,-79.9959,4
15283,Pittsburgh,Pennsylvania,PA,Allegheny,3,,,40.4344,-80.0248,4
15286,Pittsburgh,Pennsylvania,PA,Allegheny,3,,,40.4344,-80.0248,4
15289,Pittsburgh,Pennsylvania,PA,Allegheny,3,,,40.4446,-79.9451,4
15290,Pittsburgh,Pennsylvania,PA,Allegheny,3,,,40.4344,-80.0248,4
15295,Pittsburgh,Pennsylvania,PA,Allegheny,3,,,40.463,-80.0108,4
15656,Leechburg,Pennsylvania,PA,Armstrong,5,,,40.6344,-79.6201,4
15673,North Apollo,Pennsylvania,PA,Armstrong,5,,,40.593,-79.5581,4
15682,Schenley,Pennsylvania,PA,Armstrong,5,,,40.6845,-79.6617,4
15686,Spring Church,Pennsylvania,PA,Armstrong,5,,,40.6153,-79.4545,4
15736,Elderton,Pennsylvania,PA,Armstrong,5,,,40.6922,-79.3422,4
15774,Shelocta,Pennsylvania,PA,Armstrong,5,,,40.6388,-79.3191,4
16049,Parker,Pennsylvania,PA,Armstrong,5,,,41.1009,-79.6889,4
16201,Kittanning,Pennsylvania,PA,Armstrong,5,,,40.8155,-79.5107,4
16210,Adrian,Pennsylvania,PA,Armstrong,5,,,40.9049,-79.5074,4
16212,Cadogan,Pennsylvania,PA,Armstrong,5,,,40.7539,-79.5798,4
16218,Cowansville,Pennsylvania,PA,Armstrong,5,,,40.923,-79.5946,4
16222,Dayton,Pennsylvania,PA,Armstrong,5,,,40.8741,-79.2686,4
16223,Distant,Pennsylvania,PA,Armstrong,5,,,40.9695,-79.3567,4
16226,Ford City,Pennsylvania,PA,Armstrong,5,,,40.7384,-79.5122,4
16228,Ford Cliff,Pennsylvania,PA,Armstrong,5,,,40.7608,-79.5358,4
16229,Freeport,Pennsylvania,PA,Armstrong,5,,,40.7033,-79.663,4
16236,Mc Grann,Pennsylvania,PA,Armstrong,5,,,40.7818,-79.5218,1
16238,Manorville,Pennsylvania,PA,Armstrong,5,,,40.7863,-79.5213,4
16244,Nu Mine,Pennsylvania,PA,Armstrong,5,,,40.8478,-79.4516,1
16245,Oak Ridge,Pennsylvania,PA,Armstrong,5,,,41.0076,-79.2959,4
16249,Rural Valley,Pennsylvania,PA,Armstrong,5,,,40.7885,-79.2991,4
16250,Sagamore,Pennsylvania,PA,Armstrong,5,,,40.7774,-79.2336,4
16253,Seminole,Pennsylvania,PA,Armstrong,5,,,40.9548,-79.3428,4
16259,Templeton,Pennsylvania,PA,Armstrong,5,,,40.9419,-79.4499,4
16261,Widnoon,Pennsylvania,PA,Armstrong,5,,,40.9612,-79.4673,4
16262,Worthington,Pennsylvania,PA,Armstrong,5,,,40.8378,-79.6298,4
16263,Yatesboro,Pennsylvania,PA,Armstrong,5,,,40.8001,-79.3342,4
15001,Aliquippa,Pennsylvania,PA,Beaver,7,,,40.5921,-80.3197,4
15003,Ambridge,Pennsylvania,PA,Beaver,7,,,40.6005,-80.2105,4
15005,Baden,Pennsylvania,PA,Beaver,7,,,40.6416,-80.1985,4
15009,Beaver,Pennsylvania,PA,Beaver,7,,,40.6972,-80.3365,4
15010,Beaver Falls,Pennsylvania,PA,Beaver,7,,,40.7687,-80.3592,4
15027,Conway,Pennsylvania,PA,Beaver,7,,,40.6649,-80.2349,4
15042,Freedom,Pennsylvania,PA,Beaver,7,,,40.683,-80.2147,4
15043,Georgetown,Pennsylvania,PA,Beaver,7,,,40.5743,-80.49,4
15050,Hookstown,Pennsylvania,PA,Beaver,7,,,40.5622,-80.4388,4
15052,Industry,Pennsylvania,PA,Beaver,7,,,40.6671,-80.4151,4
15059,Midland,Pennsylvania,PA,Beaver,7,,,40.6793,-80.4908,4
15061,Monaca,Pennsylvania,PA,Beaver,7,,,40.6718,-80.2917,4
15066,New Brighton,Pennsylvania,PA,Beaver,7,,,40.7393,-80.2972,4
15074,Rochester,Pennsylvania,PA,Beaver,7,,,40.7157,-80.2603,4
15077,Shippingport,Pennsylvania,PA,Beaver,7,,,40.632,-80.414,4
15081,South Heights,Pennsylvania,PA,Beaver,7,,,40.5763,-80.2383,4
16115,Darlington,Pennsylvania,PA,Beaver,7,,,40.7968,-80.4556,4
16123,Fombell,Pennsylvania,PA,Beaver,7,,,40.8125,-80.2073,4
16136,Koppel,Pennsylvania,PA,Beaver,7,,,40.8348,-80.328,4
16141,New Galilee,Pennsylvania,PA,Beaver,7,,,40.8569,-80.3939,4
15521,Alum Bank,Pennsylvania,PA,Bedford,9,,,40.1858,-78.6206,4
15522,Bedford,Pennsylvania,PA,Bedford,9,,,39.9908,-78.5261,4
15533,Breezewood,Pennsylvania,PA,Bedford,9,,,39.9905,-78.2453,4
15534,Buffalo Mills,Pennsylvania,PA,Bedford,9,,,39.922,-78.6996,4
15535,Clearville,Pennsylvania,PA,Bedford,9,,,39.8533,-78.4392,4
15537,Everett,Pennsylvania,PA,Bedford,9,,,40.0098,-78.3713,4
15539,Fishertown,Pennsylvania,PA,Bedford,9,,,40.1217,-78.5856,4
15545,Hyndman,Pennsylvania,PA,Bedford,9,,,39.8049,-78.7335,4
15550,Manns Choice,Pennsylvania,PA,Bedford,9,,,39.9808,-78.6423,4
15554,New Paris,Pennsylvania,PA,Bedford,9,,,40.1254,-78.6184,4
15559,Schellsburg,Pennsylvania,PA,Bedford,9,,,40.0487,-78.6482,4
16633,Defiance,Pennsylvania,PA,Bedford,9,,,40.1601,-78.2346,4
16650,Hopewell,Pennsylvania,PA,Bedford,9,,,40.1192,-78.3129,4
16655,Imler,Pennsylvania,PA,Bedford,9,,,40.2067,-78.5228,4
16659,Loysburg,Pennsylvania,PA,Bedford,9,,,40.1609,-78.375,4
16664,New Enterprise,Pennsylvania,PA,Bedford,9,,,40.2,-78.4259,4
16667,Osterburg,Pennsylvania,PA,Bedford,9,,,40.1695,-78.5203,4
16670,Queen,Pennsylvania,PA,Bedford,9,,,40.2592,-78.5075,4
16672,Riddlesburg,Pennsylvania,PA,Bedford,9,,,40.162,-78.2545,4
16678,Saxton,Pennsylvania,PA,Bedford,9,,,40.2233,-78.2471,4
16679,Six Mile Run,Pennsylvania,PA,Bedford,9,,,40.1576,-78.2108,1
16694,Wood,Pennsylvania,PA,Bedford,9,,,40.166,-78.1381,4
16695,Woodbury,Pennsylvania,PA,Bedford,9,,,40.2185,-78.3666,4
17211,Artemas,Pennsylvania,PA,Bedford,9,,,39.7575,-78.4031,4
18056,Hereford,Pennsylvania,PA,Berks,11,,,40.4491,-75.5491,4
19503,Bally,Pennsylvania,PA,Berks,11,,,40.405,-75.5769,4
19504,Barto,Pennsylvania,PA,Berks,11,,,40.3815,-75.5749,4
19505,Bechtelsville,Pennsylvania,PA,Berks,11,,,40.3795,-75.6257,4
19506,Bernville,Pennsylvania,PA,Berks,11,,,40.4551,-76.1247,4
19507,Bethel,Pennsylvania,PA,Berks,11,,,40.4808,-76.2742,4
19508,Birdsboro,Pennsylvania,PA,Berks,11,,,40.2563,-75.8344,4
19510,Blandon,Pennsylvania,PA,Berks,11,,,40.4435,-75.8837,4
19511,Bowers,Pennsylvania,PA,Berks,11,,,40.4821,-75.7435,4
19512,Boyertown,Pennsylvania,PA,Berks,11,,,40.3339,-75.6604,4
19516,Centerport,Pennsylvania,PA,Berks,11,,,40.4858,-76.006,4
19518,Douglassville,Pennsylvania,PA,Berks,11,,,40.2709,-75.7397,4
19519,Earlville,Pennsylvania,PA,Berks,11,,,40.319,-75.7334,4
19522,Fleetwood,Pennsylvania,PA,Berks,11,,,40.4473,-75.8185,4
19523,Geigertown,Pennsylvania,PA,Berks,11,,,40.2026,-75.8363,4
19526,Hamburg,Pennsylvania,PA,Berks,11,,,40.5488,-75.9874,4
19529,Kempton,Pennsylvania,PA,Berks,11,,,40.6328,-75.8513,4
19530,Kutztown,Pennsylvania,PA,Berks,11,,,40.5214,-75.7774,4
19533,Leesport,Pennsylvania,PA,Berks,11,,,40.4152,-75.9944,4
19534,Lenhartsville,Pennsylvania,PA,Berks,11,,,40.5736,-75.865,4
19535,Limekiln,Pennsylvania,PA,Berks,11,,,40.3356,-75.801,4
19536,Lyon Station,Pennsylvania,PA,Berks,11,,,40.5218,-75.7419,1
19538,Maxatawny,Pennsylvania,PA,Berks,11,,,40.5426,-75.6888,4
19539,Mertztown,Pennsylvania,PA,Berks,11,,,40.4992,-75.6872,4
19540,Mohnton,Pennsylvania,PA,Berks,11,,,40.2584,-75.9833,4
19541,Mohrsville,Pennsylvania,PA,Berks,11,,,40.4783,-76.0125,4
19543,Morgantown,Pennsylvania,PA,Berks,11,,,40.1552,-75.8998,4
19544,Mount Aetna,Pennsylvania,PA,Berks,11,,,40.4187,-76.2944,4
19545,New Berlinville,Pennsylvania,PA,Berks,11,,,40.3397,-75.6302,4
19547,Oley,Pennsylvania,PA,Berks,11,,,40.3833,-75.7706,4
19548,Pine Forge,Pennsylvania,PA,Berks,11,,,40.2829,-75.6907,4
19550,Rehrersburg,Pennsylvania,PA,Berks,11,,,40.4553,-76.2453,4
19551,Robesonia,Pennsylvania,PA,Berks,11,,,40.3553,-76.1366,4
19554,Shartlesville,Pennsylvania,PA,Berks,11,,,40.5129,-76.1044,4
19555,Shoemakersville,Pennsylvania,PA,Berks,11,,,40.4955,-75.9603,4
19559,Strausstown,Pennsylvania,PA,Berks,11,,,40.4945,-76.1825,4
19560,Temple,Pennsylvania,PA,Berks,11,,,40.4025,-75.9046,4
19562,Topton,Pennsylvania,PA,Berks,11,,,40.5029,-75.7015,4
19564,Virginville,Pennsylvania,PA,Berks,11,,,40.524,-75.873,4
19565,Wernersville,Pennsylvania,PA,Berks,11,,,40.3293,-76.0901,4
19567,Womelsdorf,Pennsylvania,PA,Berks,11,,,40.3743,-76.1985,4
19601,Reading,Pennsylvania,PA,Berks,11,,,40.3466,-75.9351,4
19602,Reading,Pennsylvania,PA,Berks,11,,,40.3306,-75.9192,4
19603,Reading,Pennsylvania,PA,Berks,11,,,40.3884,-75.9631,4
19604,Reading,Pennsylvania,PA,Berks,11,,,40.3507,-75.9143,4
19605,Reading,Pennsylvania,PA,Berks,11,,,40.3886,-75.9328,4
19606,Reading,Pennsylvania,PA,Berks,11,,,40.3351,-75.875,4
19607,Reading,Pennsylvania,PA,Berks,11,,,40.2995,-75.9876,4
19608,Reading,Pennsylvania,PA,Berks,11,,,40.3113,-76.0345,4
19609,Reading,Pennsylvania,PA,Berks,11,,,40.328,-75.9908,4
19610,Reading,Pennsylvania,PA,Berks,11,,,40.338,-75.978,4
19611,Reading,Pennsylvania,PA,Berks,11,,,40.325,-75.9442,4
19612,Reading,Pennsylvania,PA,Berks,11,,,40.4389,-75.8853,4
16601,Altoona,Pennsylvania,PA,Blair,13,,,40.5209,-78.4089,4
16602,Altoona,Pennsylvania,PA,Blair,13,,,40.5052,-78.3905,4
16603,Altoona,Pennsylvania,PA,Blair,13,,,40.5018,-78.41,4
16617,Bellwood,Pennsylvania,PA,Blair,13,,,40.6039,-78.3372,4
16625,Claysburg,Pennsylvania,PA,Blair,13,,,40.2821,-78.5083,4
16631,Curryville,Pennsylvania,PA,Blair,13,,,40.2759,-78.3383,4
16635,Duncansville,Pennsylvania,PA,Blair,13,,,40.4262,-78.4383,4
16637,East Freedom,Pennsylvania,PA,Blair,13,,,40.3282,-78.4475,4
16648,Hollidaysburg,Pennsylvania,PA,Blair,13,,,40.4387,-78.3686,4
16662,Martinsburg,Pennsylvania,PA,Blair,13,,,40.2951,-78.3244,4
16665,Newry,Pennsylvania,PA,Blair,13,,,40.3937,-78.4356,4
16673,Roaring Spring,Pennsylvania,PA,Blair,13,,,40.3277,-78.3928,4
16682,Sproul,Pennsylvania,PA,Blair,13,,,40.2711,-78.4588,4
16684,Tipton,Pennsylvania,PA,Blair,13,,,40.6367,-78.3036,4
16686,Tyrone,Pennsylvania,PA,Blair,13,,,40.6619,-78.2419,4
16693,Williamsburg,Pennsylvania,PA,Blair,13,,,40.4025,-78.2558,4
16910,Alba,Pennsylvania,PA,Bradford,15,,,41.7051,-76.8283,4
16914,Columbia Cross Roads,Pennsylvania,PA,Bradford,15,,,41.8638,-76.7825,4
16925,Gillett,Pennsylvania,PA,Bradford,15,,,41.9568,-76.7713,4
16926,Granville Summit,Pennsylvania,PA,Bradford,15,,,41.6973,-76.7218,4
16945,Sylvania,Pennsylvania,PA,Bradford,15,,,41.8051,-76.8569,4
16947,Troy,Pennsylvania,PA,Bradford,15,,,41.7781,-76.7711,4
17724,Canton,Pennsylvania,PA,Bradford,15,,,41.6538,-76.8582,4
17735,Grover,Pennsylvania,PA,Bradford,15,,,41.6145,-76.8672,4
18810,Athens,Pennsylvania,PA,Bradford,15,,,41.949,-76.4889,4
18814,Burlington,Pennsylvania,PA,Bradford,15,,,41.7817,-76.6056,4
18815,Camptown,Pennsylvania,PA,Bradford,15,,,41.7312,-76.2347,4
18817,East Smithfield,Pennsylvania,PA,Bradford,15,,,41.8645,-76.6255,4
18829,Le Raysville,Pennsylvania,PA,Bradford,15,,,41.8434,-76.1796,4
18831,Milan,Pennsylvania,PA,Bradford,15,,,41.8966,-76.5328,4
18832,Monroeton,Pennsylvania,PA,Bradford,15,,,41.7135,-76.4872,4
18833,New Albany,Pennsylvania,PA,Bradford,15,,,41.5987,-76.4398,4
18837,Rome,Pennsylvania,PA,Bradford,15,,,41.8634,-76.3015,4
18840,Sayre,Pennsylvania,PA,Bradford,15,,,41.9842,-76.5218,4
18845,Stevensville,Pennsylvania,PA,Bradford,15,,,41.7718,-76.1717,4
18846,Sugar Run,Pennsylvania,PA,Bradford,15,,,41.6041,-76.2598,4
18848,Towanda,Pennsylvania,PA,Bradford,15,,,41.7638,-76.4645,4
18850,Ulster,Pennsylvania,PA,Bradford,15,,,41.8408,-76.4876,4
18851,Warren Center,Pennsylvania,PA,Bradford,15,,,41.9394,-76.1964,4
18853,Wyalusing,Pennsylvania,PA,Bradford,15,,,41.7015,-76.2754,4
18854,Wysox,Pennsylvania,PA,Bradford,15,,,41.7826,-76.3834,4
18039,Durham,Pennsylvania,PA,Bucks,17,,,40.5757,-75.2232,4
18077,Riegelsville,Pennsylvania,PA,Bucks,17,,,40.5782,-75.2191,4
18081,Springtown,Pennsylvania,PA,Bucks,17,,,40.5565,-75.2893,4
18901,Doylestown,Pennsylvania,PA,Bucks,17,,,40.3054,-75.1489,4
18902,Doylestown,Pennsylvania,PA,Bucks,17,,,40.3477,-75.0968,4
18910,Bedminster,Pennsylvania,PA,Bucks,17,,,40.4259,-75.1791,4
18911,Blooming Glen,Pennsylvania,PA,Bucks,17,,,40.3695,-75.2482,4
18912,Buckingham,Pennsylvania,PA,Bucks,17,,,40.3237,-75.0599,4
18913,Carversville,Pennsylvania,PA,Bucks,17,,,40.3865,-75.0627,4
18914,Chalfont,Pennsylvania,PA,Bucks,17,,,40.2892,-75.2149,4
18916,Danboro,Pennsylvania,PA,Bucks,17,,,40.3545,-75.1327,4
18917,Dublin,Pennsylvania,PA,Bucks,17,,,40.375,-75.2045,4
18920,Erwinna,Pennsylvania,PA,Bucks,17,,,40.5087,-75.0804,4
18921,Ferndale,Pennsylvania,PA,Bucks,17,,,40.5337,-75.1788,4
18922,Forest Grove,Pennsylvania,PA,Bucks,17,,,40.2923,-75.0591,4
18923,Fountainville,Pennsylvania,PA,Bucks,17,,,40.3578,-75.1711,4
18925,Furlong,Pennsylvania,PA,Bucks,17,,,40.2945,-75.0649,4
18927,Hilltown,Pennsylvania,PA,Bucks,17,,,40.3235,-75.2548,4
18928,Holicong,Pennsylvania,PA,Bucks,17,,,40.336,-75.0429,4
18929,Jamison,Pennsylvania,PA,Bucks,17,,,40.2566,-75.0961,4
18930,Kintnersville,Pennsylvania,PA,Bucks,17,,,40.531,-75.2117,4
18931,Lahaska,Pennsylvania,PA,Bucks,17,,,40.3286,-75.1028,4
18932,Line Lexington,Pennsylvania,PA,Bucks,17,,,40.2888,-75.2555,4
18933,Lumberville,Pennsylvania,PA,Bucks,17,,,40.3286,-75.1028,4
18934,Mechanicsville,Pennsylvania,PA,Bucks,17,,,40.3494,-75.0676,4
18935,Milford Square,Pennsylvania,PA,Bucks,17,,,40.437,-75.3988,4
18938,New Hope,Pennsylvania,PA,Bucks,17,,,40.3556,-74.9839,4
18940,Newtown,Pennsylvania,PA,Bucks,17,,,40.263,-74.9555,4
18942,Ottsville,Pennsylvania,PA,Bucks,17,,,40.4592,-75.157,4
18943,Penns Park,Pennsylvania,PA,Bucks,17,,,40.269,-75.0094,4
18944,Perkasie,Pennsylvania,PA,Bucks,17,,,40.3765,-75.2648,4
18946,Pineville,Pennsylvania,PA,Bucks,17,,,40.2962,-75.0057,4
18947,Pipersville,Pennsylvania,PA,Bucks,17,,,40.4262,-75.1074,4
18949,Plumsteadville,Pennsylvania,PA,Bucks,17,,,40.388,-75.1425,4
18950,Point Pleasant,Pennsylvania,PA,Bucks,17,,,40.4226,-75.0663,4
18951,Quakertown,Pennsylvania,PA,Bucks,17,,,40.4411,-75.3507,4
18953,Revere,Pennsylvania,PA,Bucks,17,,,40.5154,-75.161,4
18954,Richboro,Pennsylvania,PA,Bucks,17,,,40.2167,-75.0029,4
18955,Richlandtown,Pennsylvania,PA,Bucks,17,,,40.4796,-75.3146,4
18956,Rushland,Pennsylvania,PA,Bucks,17,,,40.2628,-75.0157,4
18960,Sellersville,Pennsylvania,PA,Bucks,17,,,40.362,-75.319,4
18962,Silverdale,Pennsylvania,PA,Bucks,17,,,40.3445,-75.2687,4
18963,Solebury,Pennsylvania,PA,Bucks,17,,,40.3807,-75.0082,4
18966,Southampton,Pennsylvania,PA,Bucks,17,,,40.1868,-75.0071,4
18968,Spinnerstown,Pennsylvania,PA,Bucks,17,,,40.439,-75.4371,4
18970,Trumbauersville,Pennsylvania,PA,Bucks,17,,,40.4107,-75.3782,4
18972,Upper Black Eddy,Pennsylvania,PA,Bucks,17,,,40.5411,-75.1259,4
18974,Warminster,Pennsylvania,PA,Bucks,17,,,40.2067,-75.0905,4
18976,Warrington,Pennsylvania,PA,Bucks,17,,,40.2464,-75.1354,4
18977,Washington Crossing,Pennsylvania,PA,Bucks,17,,,40.2849,-74.8778,4
18980,Wycombe,Pennsylvania,PA,Bucks,17,,,40.2742,-75.0205,4
18981,Zionhill,Pennsylvania,PA,Bucks,17,,,40.4843,-75.3938,4
18991,Warminster,Pennsylvania,PA,Bucks,17,,,40.3286,-75.1028,4
19007,Bristol,Pennsylvania,PA,Bucks,17,,,40.1159,-74.8536,4
19020,Bensalem,Pennsylvania,PA,Bucks,17,,,40.1109,-74.9378,4
19021,Croydon,Pennsylvania,PA,Bucks,17,,,40.0933,-74.8991,4
19030,Fairless Hills,Pennsylvania,PA,Bucks,17,,,40.1748,-74.8519,4
19047,Langhorne,Pennsylvania,PA,Bucks,17,,,40.1813,-74.9104,4
19048,Langhorne,Pennsylvania,PA,Bucks,17,,,40.1735,-74.9246,4
19049,Langhorne,Pennsylvania,PA,Bucks,17,,,40.1746,-74.9227,4
19053,Feasterville Trevose,Pennsylvania,PA,Bucks,17,,,40.1547,-74.9904,4
19054,Levittown,Pennsylvania,PA,Bucks,17,,,40.1681,-74.8231,4
19055,Levittown,Pennsylvania,PA,Bucks,17,,,40.1483,-74.8371,4
19056,Levittown,Pennsylvania,PA,Bucks,17,,,40.1519,-74.8826,4
19057,Levittown,Pennsylvania,PA,Bucks,17,,,40.1434,-74.8614,4
19058,Levittown,Pennsylvania,PA,Bucks,17,,,40.1551,-74.8288,4
19067,Morrisville,Pennsylvania,PA,Bucks,17,,,40.2084,-74.8291,4
16001,Butler,Pennsylvania,PA,Butler,19,,,40.8859,-79.934,4
16002,Butler,Pennsylvania,PA,Butler,19,,,40.8409,-79.8592,4
16003,Butler,Pennsylvania,PA,Butler,19,,,40.8612,-79.8953,4
16016,Boyers,Pennsylvania,PA,Butler,19,,,41.1084,-79.8989,4
16017,Boyers,Pennsylvania,PA,Butler,19,,,40.9211,-79.9276,4
16018,Boyers,Pennsylvania,PA,Butler,19,,,40.9211,-79.9276,4
16020,Boyers,Pennsylvania,PA,Butler,19,,,41.1092,-79.9047,4
16021,Branchton,Pennsylvania,PA,Butler,19,,,41.0726,-79.9856,4
16022,Bruin,Pennsylvania,PA,Butler,19,,,41.0571,-79.7291,4
16023,Cabot,Pennsylvania,PA,Butler,19,,,40.7924,-79.76,4
16024,Callery,Pennsylvania,PA,Butler,19,,,40.7406,-80.0364,4
16025,Chicora,Pennsylvania,PA,Butler,19,,,40.9458,-79.7462,4
16027,Connoquenessing,Pennsylvania,PA,Butler,19,,,40.8178,-80.0142,4
16029,East Butler,Pennsylvania,PA,Butler,19,,,40.8778,-79.8464,4
16030,Eau Claire,Pennsylvania,PA,Butler,19,,,41.1348,-79.7981,4
16033,Evans City,Pennsylvania,PA,Butler,19,,,40.7808,-80.0592,4
16034,Fenelton,Pennsylvania,PA,Butler,19,,,40.8555,-79.7372,4
16035,Forestville,Pennsylvania,PA,Butler,19,,,41.1068,-80.007,4
16037,Harmony,Pennsylvania,PA,Butler,19,,,40.8496,-80.1381,4
16038,Harrisville,Pennsylvania,PA,Butler,19,,,41.1631,-79.9796,4
16039,Herman,Pennsylvania,PA,Butler,19,,,40.8301,-79.8112,4
16040,Hilliards,Pennsylvania,PA,Butler,19,,,41.1009,-79.8215,4
16041,Karns City,Pennsylvania,PA,Butler,19,,,41.0022,-79.716,4
16045,Lyndora,Pennsylvania,PA,Butler,19,,,40.8528,-79.9167,4
16046,Mars,Pennsylvania,PA,Butler,19,,,40.7005,-80.0358,4
16048,North Washington,Pennsylvania,PA,Butler,19,,,41.0472,-79.8089,4
16050,Petrolia,Pennsylvania,PA,Butler,19,,,41.0442,-79.7711,4
16051,Portersville,Pennsylvania,PA,Butler,19,,,40.9468,-80.139,4
16052,Prospect,Pennsylvania,PA,Butler,19,,,40.9049,-80.0679,4
16053,Renfrew,Pennsylvania,PA,Butler,19,,,40.81,-79.977,4
16055,Sarver,Pennsylvania,PA,Butler,19,,,40.7143,-79.7424,4
16056,Saxonburg,Pennsylvania,PA,Butler,19,,,40.7361,-79.8352,4
16057,Slippery Rock,Pennsylvania,PA,Butler,19,,,41.0454,-80.0468,4
16059,Valencia,Pennsylvania,PA,Butler,19,,,40.7018,-79.9235,4
16061,West Sunbury,Pennsylvania,PA,Butler,19,,,41.0026,-79.8751,4
16063,Zelienople,Pennsylvania,PA,Butler,19,,,40.7609,-80.1094,4
16066,Cranberry Township,Pennsylvania,PA,Butler,19,,,40.685,-80.1071,4
15714,Northern Cambria,Pennsylvania,PA,Cambria,21,,,40.6661,-78.792,4
15722,Carrolltown,Pennsylvania,PA,Cambria,21,,,40.5891,-78.7037,4
15737,Elmora,Pennsylvania,PA,Cambria,21,,,40.6076,-78.7524,4
15738,Emeigh,Pennsylvania,PA,Cambria,21,,,40.6948,-78.787,4
15760,Marsteller,Pennsylvania,PA,Cambria,21,,,40.6522,-78.8054,4
15762,Nicktown,Pennsylvania,PA,Cambria,21,,,40.6016,-78.8114,4
15773,Saint Benedict,Pennsylvania,PA,Cambria,21,,,40.6298,-78.7329,4
15775,Spangler,Pennsylvania,PA,Cambria,21,,,40.6351,-78.7692,4
15901,Johnstown,Pennsylvania,PA,Cambria,21,,,40.326,-78.9141,4
15902,Johnstown,Pennsylvania,PA,Cambria,21,,,40.3078,-78.8969,4
15904,Johnstown,Pennsylvania,PA,Cambria,21,,,40.285,-78.8654,4
15905,Johnstown,Pennsylvania,PA,Cambria,21,,,40.3072,-78.943,4
15906,Johnstown,Pennsylvania,PA,Cambria,21,,,40.3522,-78.9383,4
15907,Johnstown,Pennsylvania,PA,Cambria,21,,,40.3254,-78.9151,4
15909,Johnstown,Pennsylvania,PA,Cambria,21,,,40.4096,-78.8712,4
15915,Johnstown,Pennsylvania,PA,Cambria,21,,,40.3267,-78.922,4
15921,Beaverdale,Pennsylvania,PA,Cambria,21,,,40.3173,-78.7009,4
15922,Belsano,Pennsylvania,PA,Cambria,21,,,40.5176,-78.8767,4
15925,Cassandra,Pennsylvania,PA,Cambria,21,,,40.4085,-78.6407,4
15927,Colver,Pennsylvania,PA,Cambria,21,,,40.5383,-78.7865,4
15930,Dunlo,Pennsylvania,PA,Cambria,21,,,40.2939,-78.7192,4
15931,Ebensburg,Pennsylvania,PA,Cambria,21,,,40.4801,-78.7263,4
15934,Elton,Pennsylvania,PA,Cambria,21,,,40.2799,-78.8032,4
15938,Lilly,Pennsylvania,PA,Cambria,21,,,40.4238,-78.6231,4
15940,Loretto,Pennsylvania,PA,Cambria,21,,,40.5105,-78.6294,4
15942,Mineral Point,Pennsylvania,PA,Cambria,21,,,40.3793,-78.8352,4
15943,Nanty Glo,Pennsylvania,PA,Cambria,21,,,40.4704,-78.8375,4
15945,Parkhill,Pennsylvania,PA,Cambria,21,,,40.3612,-78.8709,4
15946,Portage,Pennsylvania,PA,Cambria,21,,,40.3724,-78.6328,4
15948,Revloc,Pennsylvania,PA,Cambria,21,,,40.49,-78.7646,4
15951,Saint Michael,Pennsylvania,PA,Cambria,21,,,40.337,-78.7709,4
15952,Salix,Pennsylvania,PA,Cambria,21,,,40.2986,-78.7816,4
15955,Sidman,Pennsylvania,PA,Cambria,21,,,40.3299,-78.746,4
15956,South Fork,Pennsylvania,PA,Cambria,21,,,40.3629,-78.7887,4
15958,Summerhill,Pennsylvania,PA,Cambria,21,,,40.389,-78.756,4
15960,Twin Rocks,Pennsylvania,PA,Cambria,21,,,40.4967,-78.8659,4
15961,Vintondale,Pennsylvania,PA,Cambria,21,,,40.4939,-78.9427,4
15962,Wilmore,Pennsylvania,PA,Cambria,21,,,40.3887,-78.7186,4
16613,Ashville,Pennsylvania,PA,Cambria,21,,,40.5513,-78.5346,4
16619,Blandburg,Pennsylvania,PA,Cambria,21,,,40.6847,-78.4137,4
16624,Chest Springs,Pennsylvania,PA,Cambria,21,,,40.5702,-78.5991,4
16629,Coupon,Pennsylvania,PA,Cambria,21,,,40.5218,-78.5263,4
16630,Cresson,Pennsylvania,PA,Cambria,21,,,40.4608,-78.5861,4
16636,Dysart,Pennsylvania,PA,Cambria,21,,,40.6088,-78.5271,4
16639,Fallentimber,Pennsylvania,PA,Cambria,21,,,40.6867,-78.4992,4
16640,Flinton,Pennsylvania,PA,Cambria,21,,,40.6876,-78.5523,4
16641,Gallitzin,Pennsylvania,PA,Cambria,21,,,40.4823,-78.5517,4
16644,Glasgow,Pennsylvania,PA,Cambria,21,,,40.7178,-78.4637,4
16646,Hastings,Pennsylvania,PA,Cambria,21,,,40.6659,-78.7029,4
16668,Patton,Pennsylvania,PA,Cambria,21,,,40.623,-78.635,4
16675,Saint Boniface,Pennsylvania,PA,Cambria,21,,,40.6712,-78.6755,4
16699,Cresson,Pennsylvania,PA,Cambria,21,,,40.4845,-78.7022,4
15832,Driftwood,Pennsylvania,PA,Cameron,23,,,41.3764,-78.1632,4
15834,Emporium,Pennsylvania,PA,Cameron,23,,,41.5177,-78.2536,4
15861,Sinnamahoning,Pennsylvania,PA,Cameron,23,,,41.3762,-78.0661,1
18012,Aquashicola,Pennsylvania,PA,Carbon,25,,,40.8133,-75.592,4
18030,Bowmanstown,Pennsylvania,PA,Carbon,25,,,40.8011,-75.6614,4
18071,Palmerton,Pennsylvania,PA,Carbon,25,,,40.817,-75.6011,4
18210,Albrightsville,Pennsylvania,PA,Carbon,25,,,40.9748,-75.5842,4
18212,Ashfield,Pennsylvania,PA,Carbon,25,,,40.7841,-75.7083,4
18216,Beaver Meadows,Pennsylvania,PA,Carbon,25,,,40.9281,-75.9146,4
18229,Jim Thorpe,Pennsylvania,PA,Carbon,25,,,40.87,-75.7397,4
18230,Junedale,Pennsylvania,PA,Carbon,25,,,40.9234,-75.9416,4
18232,Lansford,Pennsylvania,PA,Carbon,25,,,40.8314,-75.8828,4
18235,Lehighton,Pennsylvania,PA,Carbon,25,,,40.8299,-75.6974,4
18240,Nesquehoning,Pennsylvania,PA,Carbon,25,,,40.8626,-75.8239,4
18244,Parryville,Pennsylvania,PA,Carbon,25,,,40.8181,-75.6727,4
18250,Summit Hill,Pennsylvania,PA,Carbon,25,,,40.8255,-75.8693,4
18254,Tresckow,Pennsylvania,PA,Carbon,25,,,40.9159,-75.9657,4
18255,Weatherly,Pennsylvania,PA,Carbon,25,,,40.9411,-75.8306,4
18624,Lake Harmony,Pennsylvania,PA,Carbon,25,,,41.0542,-75.6331,4
16677,Sandy Ridge,Pennsylvania,PA,Centre,27,,,40.8136,-78.239,4
16801,State College,Pennsylvania,PA,Centre,27,,,40.7925,-77.8523,4
16802,University Park,Pennsylvania,PA,Centre,27,,,40.7997,-77.8623,4
16803,State College,Pennsylvania,PA,Centre,27,,,40.8082,-77.8926,4
16804,State College,Pennsylvania,PA,Centre,27,,,40.7934,-77.86,4
16805,State College,Pennsylvania,PA,Centre,27,,,40.7934,-77.86,4
16820,Aaronsburg,Pennsylvania,PA,Centre,27,,,40.8987,-77.4562,4
16823,Bellefonte,Pennsylvania,PA,Centre,27,,,40.8978,-77.7732,4
16826,Blanchard,Pennsylvania,PA,Centre,27,,,41.0642,-77.5978,4
16827,Boalsburg,Pennsylvania,PA,Centre,27,,,40.7793,-77.7822,4
16828,Centre Hall,Pennsylvania,PA,Centre,27,,,40.8254,-77.6742,4
16829,Clarence,Pennsylvania,PA,Centre,27,,,41.0585,-77.9312,4
16832,Coburn,Pennsylvania,PA,Centre,27,,,40.8383,-77.4509,4
16835,Fleming,Pennsylvania,PA,Centre,27,,,40.9046,-77.8752,4
16841,Howard,Pennsylvania,PA,Centre,27,,,41.0203,-77.6702,4
16844,Julian,Pennsylvania,PA,Centre,27,,,40.8917,-77.9332,4
16851,Lemont,Pennsylvania,PA,Centre,27,,,40.8082,-77.8125,4
16852,Madisonburg,Pennsylvania,PA,Centre,27,,,40.9334,-77.495,4
16853,Milesburg,Pennsylvania,PA,Centre,27,,,40.9417,-77.785,4
16854,Millheim,Pennsylvania,PA,Centre,27,,,40.8935,-77.4733,4
16856,Mingoville,Pennsylvania,PA,Centre,27,,,40.9299,-77.6389,4
16859,Moshannon,Pennsylvania,PA,Centre,27,,,41.0342,-78.0095,4
16864,Orviston,Pennsylvania,PA,Centre,27,,,40.9722,-77.7602,4
16865,Pennsylvania Furnace,Pennsylvania,PA,Centre,27,,,40.71,-77.996,4
16866,Philipsburg,Pennsylvania,PA,Centre,27,,,40.8863,-78.219,4
16868,Pine Grove Mills,Pennsylvania,PA,Centre,27,,,40.7337,-77.8856,4
16870,Port Matilda,Pennsylvania,PA,Centre,27,,,40.8018,-78.0788,4
16872,Rebersburg,Pennsylvania,PA,Centre,27,,,40.9549,-77.4053,4
16874,Snow Shoe,Pennsylvania,PA,Centre,27,,,41.0376,-77.9523,4
16875,Spring Mills,Pennsylvania,PA,Centre,27,,,40.8578,-77.574,4
16882,Woodward,Pennsylvania,PA,Centre,27,,,40.9116,-77.3483,4
19301,Paoli,Pennsylvania,PA,Chester,29,,,40.0426,-75.4827,4
19310,Atglen,Pennsylvania,PA,Chester,29,,,39.9458,-75.9703,4
19311,Avondale,Pennsylvania,PA,Chester,29,,,39.8219,-75.7687,4
19312,Berwyn,Pennsylvania,PA,Chester,29,,,40.0412,-75.4475,4
19316,Brandamore,Pennsylvania,PA,Chester,29,,,40.055,-75.8378,4
19318,Chatham,Pennsylvania,PA,Chester,29,,,39.8524,-75.8118,4
19320,Coatesville,Pennsylvania,PA,Chester,29,,,39.9843,-75.8253,4
19330,Cochranville,Pennsylvania,PA,Chester,29,,,39.8757,-75.9214,4
19333,Devon,Pennsylvania,PA,Chester,29,,,40.0452,-75.4227,4
19335,Downingtown,Pennsylvania,PA,Chester,29,,,40.0161,-75.7183,4
19341,Exton,Pennsylvania,PA,Chester,29,,,40.0468,-75.6432,4
19343,Glenmoore,Pennsylvania,PA,Chester,29,,,40.0846,-75.7711,4
19344,Honey Brook,Pennsylvania,PA,Chester,29,,,40.0832,-75.8843,4
19345,Immaculata,Pennsylvania,PA,Chester,29,,,39.8478,-75.7193,1
19346,Kelton,Pennsylvania,PA,Chester,29,,,39.8087,-75.878,4
19347,Kemblesville,Pennsylvania,PA,Chester,29,,,39.749,-75.8241,4
19348,Kennett Square,Pennsylvania,PA,Chester,29,,,39.855,-75.7,4
19350,Landenberg,Pennsylvania,PA,Chester,29,,,39.7696,-75.7807,4
19351,Lewisville,Pennsylvania,PA,Chester,29,,,39.7226,-75.8749,4
19352,Lincoln University,Pennsylvania,PA,Chester,29,,,39.7787,-75.8876,1
19353,Lionville,Pennsylvania,PA,Chester,29,,,40.0132,-75.499,4
19354,Lyndell,Pennsylvania,PA,Chester,29,,,40.0582,-75.7433,4
19355,Malvern,Pennsylvania,PA,Chester,29,,,40.0468,-75.531,4
19357,Mendenhall,Pennsylvania,PA,Chester,29,,,39.854,-75.6413,4
19358,Modena,Pennsylvania,PA,Chester,29,,,39.9621,-75.8025,4
19360,New London,Pennsylvania,PA,Chester,29,,,39.7261,-75.7857,4
19362,Nottingham,Pennsylvania,PA,Chester,29,,,39.7441,-76.0356,4
19363,Oxford,Pennsylvania,PA,Chester,29,,,39.7827,-75.9815,4
19365,Parkesburg,Pennsylvania,PA,Chester,29,,,39.9654,-75.926,4
19366,Pocopson,Pennsylvania,PA,Chester,29,,,39.9004,-75.6258,4
19367,Pomeroy,Pennsylvania,PA,Chester,29,,,39.9643,-75.8866,4
19369,Sadsburyville,Pennsylvania,PA,Chester,29,,,39.9903,-75.8936,4
19371,Suplee,Pennsylvania,PA,Chester,29,,,40.0995,-75.8791,4
19372,Thorndale,Pennsylvania,PA,Chester,29,,,39.9984,-75.759,4
19374,Toughkenamon,Pennsylvania,PA,Chester,29,,,39.8315,-75.7574,4
19375,Unionville,Pennsylvania,PA,Chester,29,,,39.8954,-75.7344,4
19376,Wagontown,Pennsylvania,PA,Chester,29,,,39.9832,-75.7481,4
19380,West Chester,Pennsylvania,PA,Chester,29,,,39.9845,-75.5962,4
19381,West Chester,Pennsylvania,PA,Chester,29,,,39.961,-75.608,4
19382,West Chester,Pennsylvania,PA,Chester,29,,,39.9441,-75.5882,4
19383,West Chester,Pennsylvania,PA,Chester,29,,,39.961,-75.608,4
19390,West Grove,Pennsylvania,PA,Chester,29,,,39.8253,-75.8374,4
19395,Westtown,Pennsylvania,PA,Chester,29,,,39.9328,-75.5448,4
19397,Southeastern,Pennsylvania,PA,Chester,29,,,39.9832,-75.7481,1
19398,Southeastern,Pennsylvania,PA,Chester,29,,,39.9832,-75.7481,1
19399,Southeastern,Pennsylvania,PA,Chester,29,,,39.9832,-75.7481,1
19421,Birchrunville,Pennsylvania,PA,Chester,29,,,39.9832,-75.7481,4
19425,Chester Springs,Pennsylvania,PA,Chester,29,,,40.0978,-75.6398,4
19432,Devault,Pennsylvania,PA,Chester,29,,,40.0796,-75.56,4
19442,Kimberton,Pennsylvania,PA,Chester,29,,,40.1307,-75.5721,4
19457,Parker Ford,Pennsylvania,PA,Chester,29,,,40.1995,-75.5838,4
19460,Phoenixville,Pennsylvania,PA,Chester,29,,,40.1267,-75.5272,4
19465,Pottstown,Pennsylvania,PA,Chester,29,,,40.1919,-75.6653,1
19470,Saint Peters,Pennsylvania,PA,Chester,29,,,40.1867,-75.7288,4
19475,Spring City,Pennsylvania,PA,Chester,29,,,40.1765,-75.5697,4
19480,Uwchland,Pennsylvania,PA,Chester,29,,,40.098,-75.688,1
19481,Valley Forge,Pennsylvania,PA,Chester,29,,,40.0923,-75.4537,4
19482,Valley Forge,Pennsylvania,PA,Chester,29,,,40.0803,-75.4554,4
19493,Valley Forge,Pennsylvania,PA,Chester,29,,,40.0971,-75.4696,4
19494,Valley Forge,Pennsylvania,PA,Chester,29,,,40.0971,-75.4696,4
19495,Valley Forge,Pennsylvania,PA,Chester,29,,,40.0971,-75.4696,4
19496,Valley Forge,Pennsylvania,PA,Chester,29,,,40.0971,-75.4696,4
19520,Elverson,Pennsylvania,PA,Chester,29,,,40.1568,-75.7866,4
16028,East Brady,Pennsylvania,PA,Clarion,31,,,40.9744,-79.6302,4
16036,Foxburg,Pennsylvania,PA,Clarion,31,,,41.1431,-79.6798,4
16054,Saint Petersburg,Pennsylvania,PA,Clarion,31,,,41.1617,-79.6528,4
16058,Turkey City,Pennsylvania,PA,Clarion,31,,,41.1853,-79.6134,4
16213,Callensburg,Pennsylvania,PA,Clarion,31,,,41.1259,-79.5584,4
16214,Clarion,Pennsylvania,PA,Clarion,31,,,41.2123,-79.3773,4
16220,Crown,Pennsylvania,PA,Clarion,31,,,41.3898,-79.2709,4
16221,Curllsville,Pennsylvania,PA,Clarion,31,,,41.2023,-79.4538,4
16224,Fairmount City,Pennsylvania,PA,Clarion,31,,,41.0429,-79.2784,1
16225,Fisher,Pennsylvania,PA,Clarion,31,,,41.2665,-79.2425,4
16230,Hawthorn,Pennsylvania,PA,Clarion,31,,,41.0178,-79.2799,4
16232,Knox,Pennsylvania,PA,Clarion,31,,,41.2245,-79.5194,4
16233,Leeper,Pennsylvania,PA,Clarion,31,,,41.3671,-79.3022,4
16234,Limestone,Pennsylvania,PA,Clarion,31,,,41.2023,-79.4538,4
16235,Lucinda,Pennsylvania,PA,Clarion,31,,,41.3124,-79.3754,4
16240,Mayport,Pennsylvania,PA,Clarion,31,,,40.9906,-79.2617,4
16242,New Bethlehem,Pennsylvania,PA,Clarion,31,,,40.9999,-79.3527,4
16248,Rimersburg,Pennsylvania,PA,Clarion,31,,,41.0411,-79.5017,4
16254,Shippenville,Pennsylvania,PA,Clarion,31,,,41.2475,-79.4332,4
16255,Sligo,Pennsylvania,PA,Clarion,31,,,41.1139,-79.4805,4
16257,Snydersburg,Pennsylvania,PA,Clarion,31,,,41.3328,-79.3556,4
16258,Strattanville,Pennsylvania,PA,Clarion,31,,,41.1955,-79.3082,4
16260,Vowinckel,Pennsylvania,PA,Clarion,31,,,41.3957,-79.2266,4
16326,Fryburg,Pennsylvania,PA,Clarion,31,,,41.3717,-79.4134,4
16331,Kossuth,Pennsylvania,PA,Clarion,31,,,41.2926,-79.5655,4
16332,Lickingville,Pennsylvania,PA,Clarion,31,,,41.3789,-79.3715,4
16334,Marble,Pennsylvania,PA,Clarion,31,,,41.3261,-79.4459,4
16361,Tylersburg,Pennsylvania,PA,Clarion,31,,,41.3848,-79.3223,4
16375,Lamartine,Pennsylvania,PA,Clarion,31,,,41.2226,-79.6339,4
15721,Burnside,Pennsylvania,PA,Clearfield,33,,,40.8134,-78.7865,4
15753,La Jose,Pennsylvania,PA,Clearfield,33,,,40.7876,-78.6514,1
15757,Mahaffey,Pennsylvania,PA,Clearfield,33,,,40.8875,-78.7353,4
15801,Du Bois,Pennsylvania,PA,Clearfield,33,,,41.126,-78.7527,1
15848,Luthersburg,Pennsylvania,PA,Clearfield,33,,,41.0532,-78.7428,4
15849,Penfield,Pennsylvania,PA,Clearfield,33,,,41.2085,-78.5791,4
15856,Rockton,Pennsylvania,PA,Clearfield,33,,,41.0806,-78.6577,4
15866,Troutville,Pennsylvania,PA,Clearfield,33,,,41.0256,-78.7853,4
16616,Beccaria,Pennsylvania,PA,Clearfield,33,,,40.7683,-78.4455,4
16620,Brisbin,Pennsylvania,PA,Clearfield,33,,,40.8387,-78.3526,4
16627,Coalport,Pennsylvania,PA,Clearfield,33,,,40.7503,-78.5352,4
16645,Glen Hope,Pennsylvania,PA,Clearfield,33,,,40.7984,-78.4999,4
16651,Houtzdale,Pennsylvania,PA,Clearfield,33,,,40.8305,-78.3618,4
16656,Irvona,Pennsylvania,PA,Clearfield,33,,,40.8017,-78.5602,4
16661,Madera,Pennsylvania,PA,Clearfield,33,,,40.8271,-78.4275,4
16663,Morann,Pennsylvania,PA,Clearfield,33,,,40.7864,-78.367,4
16666,Osceola Mills,Pennsylvania,PA,Clearfield,33,,,40.8722,-78.2757,4
16671,Ramey,Pennsylvania,PA,Clearfield,33,,,40.8015,-78.3998,4
16680,Smithmill,Pennsylvania,PA,Clearfield,33,,,40.7507,-78.4012,1
16681,Smokerun,Pennsylvania,PA,Clearfield,33,,,40.9891,-78.4224,1
16692,Westover,Pennsylvania,PA,Clearfield,33,,,40.7615,-78.7355,4
16698,Houtzdale,Pennsylvania,PA,Clearfield,33,,,40.8251,-78.3511,4
16821,Allport,Pennsylvania,PA,Clearfield,33,,,40.967,-78.2014,4
16825,Bigler,Pennsylvania,PA,Clearfield,33,,,40.9848,-78.3064,4
16830,Clearfield,Pennsylvania,PA,Clearfield,33,,,41.021,-78.4435,4
16833,Curwensville,Pennsylvania,PA,Clearfield,33,,,40.966,-78.5272,4
16834,Drifting,Pennsylvania,PA,Clearfield,33,,,41.0242,-78.1083,4
16836,Frenchville,Pennsylvania,PA,Clearfield,33,,,41.1038,-78.2345,4
16837,Glen Richey,Pennsylvania,PA,Clearfield,33,,,40.9458,-78.475,4
16838,Grampian,Pennsylvania,PA,Clearfield,33,,,40.9818,-78.5949,4
16839,Grassflat,Pennsylvania,PA,Clearfield,33,,,41.0036,-78.1104,4
16840,Hawk Run,Pennsylvania,PA,Clearfield,33,,,40.923,-78.2037,4
16843,Hyde,Pennsylvania,PA,Clearfield,33,,,41.003,-78.4642,4
16845,Karthaus,Pennsylvania,PA,Clearfield,33,,,41.1136,-78.0875,4
16847,Kylertown,Pennsylvania,PA,Clearfield,33,,,40.9934,-78.1672,4
16849,Lanse,Pennsylvania,PA,Clearfield,33,,,40.9605,-78.1144,4
16850,Lecontes Mills,Pennsylvania,PA,Clearfield,33,,,41.0831,-78.2833,4
16855,Mineral Springs,Pennsylvania,PA,Clearfield,33,,,40.9981,-78.3636,4
16858,Morrisdale,Pennsylvania,PA,Clearfield,33,,,41.0001,-78.2357,4
16860,Munson,Pennsylvania,PA,Clearfield,33,,,40.9468,-78.1718,4
16861,New Millport,Pennsylvania,PA,Clearfield,33,,,40.8652,-78.5237,4
16863,Olanta,Pennsylvania,PA,Clearfield,33,,,40.9056,-78.5001,4
16871,Pottersdale,Pennsylvania,PA,Clearfield,33,,,41.1868,-78.0341,4
16873,Shawville,Pennsylvania,PA,Clearfield,33,,,41.0692,-78.3581,4
16876,Wallaceton,Pennsylvania,PA,Clearfield,33,,,40.9616,-78.2926,4
16878,West Decatur,Pennsylvania,PA,Clearfield,33,,,40.9493,-78.3129,4
16879,Winburne,Pennsylvania,PA,Clearfield,33,,,40.9696,-78.1508,4
16881,Woodland,Pennsylvania,PA,Clearfield,33,,,41.0098,-78.3214,4
16822,Beech Creek,Pennsylvania,PA,Clinton,35,,,41.0845,-77.5851,4
16848,Lamar,Pennsylvania,PA,Clinton,35,,,41.0162,-77.5311,4
17721,Avis,Pennsylvania,PA,Clinton,35,,,41.186,-77.3162,4
17726,Castanea,Pennsylvania,PA,Clinton,35,,,41.1227,-77.4317,4
17745,Lock Haven,Pennsylvania,PA,Clinton,35,,,41.1425,-77.4436,4
17747,Loganton,Pennsylvania,PA,Clinton,35,,,41.0283,-77.3204,4
17748,Mc Elhattan,Pennsylvania,PA,Clinton,35,,,41.1355,-77.37,1
17750,Mackeyville,Pennsylvania,PA,Clinton,35,,,41.0545,-77.4614,4
17751,Mill Hall,Pennsylvania,PA,Clinton,35,,,41.0867,-77.4836,4
17760,North Bend,Pennsylvania,PA,Clinton,35,,,41.4083,-77.6641,4
17764,Renovo,Pennsylvania,PA,Clinton,35,,,41.3334,-77.7448,4
17778,Westport,Pennsylvania,PA,Clinton,35,,,41.2745,-77.9315,4
17779,Woolrich,Pennsylvania,PA,Clinton,35,,,41.1948,-77.3764,4
17814,Benton,Pennsylvania,PA,Columbia,37,,,41.2231,-76.3406,4
17815,Bloomsburg,Pennsylvania,PA,Columbia,37,,,41.0115,-76.4384,4
17820,Catawissa,Pennsylvania,PA,Columbia,37,,,40.918,-76.4416,4
17846,Millville,Pennsylvania,PA,Columbia,37,,,41.1261,-76.5208,4
17858,Numidia,Pennsylvania,PA,Columbia,37,,,40.8806,-76.4022,4
17859,Orangeville,Pennsylvania,PA,Columbia,37,,,41.1016,-76.381,4
17878,Stillwater,Pennsylvania,PA,Columbia,37,,,41.1515,-76.3696,4
17888,Wilburton,Pennsylvania,PA,Columbia,37,,,40.8121,-76.3929,4
17920,Aristes,Pennsylvania,PA,Columbia,37,,,40.8167,-76.3503,4
18603,Berwick,Pennsylvania,PA,Columbia,37,,,41.0665,-76.2443,4
18631,Mifflinville,Pennsylvania,PA,Columbia,37,,,41.0323,-76.308,4
16110,Adamsville,Pennsylvania,PA,Crawford,39,,,41.5067,-80.3765,4
16111,Atlantic,Pennsylvania,PA,Crawford,39,,,41.5333,-80.2863,4
16131,Hartstown,Pennsylvania,PA,Crawford,39,,,41.5509,-80.3813,4
16314,Cochranton,Pennsylvania,PA,Crawford,39,,,41.5205,-80.0573,4
16316,Conneaut Lake,Pennsylvania,PA,Crawford,39,,,41.6189,-80.3086,4
16327,Guys Mills,Pennsylvania,PA,Crawford,39,,,41.6333,-79.9714,4
16328,Hydetown,Pennsylvania,PA,Crawford,39,,,41.6526,-79.727,4
16335,Meadville,Pennsylvania,PA,Crawford,39,,,41.6338,-80.1488,4
16354,Titusville,Pennsylvania,PA,Crawford,39,,,41.6382,-79.6855,4
16360,Townville,Pennsylvania,PA,Crawford,39,,,41.6856,-79.8767,4
16388,Meadville,Pennsylvania,PA,Crawford,39,,,41.6596,-80.1576,4
16403,Cambridge Springs,Pennsylvania,PA,Crawford,39,,,41.8034,-80.0594,4
16404,Centerville,Pennsylvania,PA,Crawford,39,,,41.7243,-79.79,4
16406,Conneautville,Pennsylvania,PA,Crawford,39,,,41.7455,-80.3445,4
16422,Harmonsburg,Pennsylvania,PA,Crawford,39,,,41.6609,-80.3178,4
16424,Linesville,Pennsylvania,PA,Crawford,39,,,41.6244,-80.4523,4
16432,Riceville,Pennsylvania,PA,Crawford,39,,,41.7776,-79.8028,4
16433,Saegertown,Pennsylvania,PA,Crawford,39,,,41.7268,-80.1479,4
16434,Spartansburg,Pennsylvania,PA,Crawford,39,,,41.7936,-79.6849,4
16435,Springboro,Pennsylvania,PA,Crawford,39,,,41.8113,-80.3753,4
16440,Venango,Pennsylvania,PA,Crawford,39,,,41.764,-80.0982,4
17001,Camp Hill,Pennsylvania,PA,Cumberland,41,,,40.216,-76.925,4
17007,Boiling Springs,Pennsylvania,PA,Cumberland,41,,,40.1449,-77.1195,4
17011,Camp Hill,Pennsylvania,PA,Cumberland,41,,,40.2352,-76.9291,4
17012,Camp Hill,Pennsylvania,PA,Cumberland,41,,,40.2398,-76.92,4
17013,Carlisle,Pennsylvania,PA,Cumberland,41,,,40.2417,-77.1983,4
17015,Carlisle,Pennsylvania,PA,Cumberland,41,,,40.1772,-77.2312,4
17025,Enola,Pennsylvania,PA,Cumberland,41,,,40.2922,-76.9432,4
17027,Grantham,Pennsylvania,PA,Cumberland,41,,,40.158,-76.9964,4
17043,Lemoyne,Pennsylvania,PA,Cumberland,41,,,40.2469,-76.9001,4
17050,Mechanicsburg,Pennsylvania,PA,Cumberland,41,,,40.2122,-77.0265,4
17055,Mechanicsburg,Pennsylvania,PA,Cumberland,41,,,40.179,-77.0036,4
17065,Mount Holly Springs,Pennsylvania,PA,Cumberland,41,,,40.1115,-77.1902,4
17070,New Cumberland,Pennsylvania,PA,Cumberland,41,,,40.2151,-76.8689,4
17072,New Kingstown,Pennsylvania,PA,Cumberland,41,,,40.2306,-77.0794,4
17081,Plainfield,Pennsylvania,PA,Cumberland,41,,,40.203,-77.2848,4
17089,Camp Hill,Pennsylvania,PA,Cumberland,41,,,40.2697,-76.936,4
17093,Summerdale,Pennsylvania,PA,Cumberland,41,,,40.3078,-76.9312,4
17240,Newburg,Pennsylvania,PA,Cumberland,41,,,40.1333,-77.5669,4
17241,Newville,Pennsylvania,PA,Cumberland,41,,,40.1855,-77.4114,4
17257,Shippensburg,Pennsylvania,PA,Cumberland,41,,,40.0514,-77.5195,4
17266,Walnut Bottom,Pennsylvania,PA,Cumberland,41,,,40.086,-77.409,4
17005,Berrysburg,Pennsylvania,PA,Dauphin,43,,,40.601,-76.8117,4
17018,Dauphin,Pennsylvania,PA,Dauphin,43,,,40.3846,-76.9283,4
17023,Elizabethville,Pennsylvania,PA,Dauphin,43,,,40.555,-76.8355,4
17028,Grantville,Pennsylvania,PA,Dauphin,43,,,40.3606,-76.6713,4
17030,Gratz,Pennsylvania,PA,Dauphin,43,,,40.6082,-76.7375,4
17032,Halifax,Pennsylvania,PA,Dauphin,43,,,40.476,-76.894,4
17033,Hershey,Pennsylvania,PA,Dauphin,43,,,40.2638,-76.6545,4
17034,Highspire,Pennsylvania,PA,Dauphin,43,,,40.2083,-76.7853,4
17036,Hummelstown,Pennsylvania,PA,Dauphin,43,,,40.2782,-76.7094,4
17048,Lykens,Pennsylvania,PA,Dauphin,43,,,40.5909,-76.7074,4
17057,Middletown,Pennsylvania,PA,Dauphin,43,,,40.2041,-76.7331,4
17061,Millersburg,Pennsylvania,PA,Dauphin,43,,,40.5587,-76.9305,4
17080,Pillow,Pennsylvania,PA,Dauphin,43,,,40.6392,-76.8029,4
17097,Wiconisco,Pennsylvania,PA,Dauphin,43,,,40.5734,-76.6914,4
17098,Williamstown,Pennsylvania,PA,Dauphin,43,,,40.5808,-76.6223,4
17101,Harrisburg,Pennsylvania,PA,Dauphin,43,,,40.2618,-76.8831,4
17102,Harrisburg,Pennsylvania,PA,Dauphin,43,,,40.2728,-76.891,4
17103,Harrisburg,Pennsylvania,PA,Dauphin,43,,,40.2724,-76.861,4
17104,Harrisburg,Pennsylvania,PA,Dauphin,43,,,40.2597,-76.8594,4
17105,Harrisburg,Pennsylvania,PA,Dauphin,43,,,40.2785,-76.8752,4
17106,Harrisburg,Pennsylvania,PA,Dauphin,43,,,40.2927,-76.8501,4
17107,Harrisburg,Pennsylvania,PA,Dauphin,43,,,40.297,-76.8764,4
17108,Harrisburg,Pennsylvania,PA,Dauphin,43,,,40.3086,-76.8017,4
17109,Harrisburg,Pennsylvania,PA,Dauphin,43,,,40.291,-76.8203,4
17110,Harrisburg,Pennsylvania,PA,Dauphin,43,,,40.303,-76.8862,4
17111,Harrisburg,Pennsylvania,PA,Dauphin,43,,,40.2721,-76.8017,4
17112,Harrisburg,Pennsylvania,PA,Dauphin,43,,,40.3352,-76.7914,4
17113,Harrisburg,Pennsylvania,PA,Dauphin,43,,,40.239,-76.8416,4
17120,Harrisburg,Pennsylvania,PA,Dauphin,43,,,40.2657,-76.8827,4
17121,Harrisburg,Pennsylvania,PA,Dauphin,43,,,40.2944,-76.8938,4
17122,Harrisburg,Pennsylvania,PA,Dauphin,43,,,40.2498,-76.8712,4
17123,Harrisburg,Pennsylvania,PA,Dauphin,43,,,40.2675,-76.8837,4
17124,Harrisburg,Pennsylvania,PA,Dauphin,43,,,40.2675,-76.886,4
17125,Harrisburg,Pennsylvania,PA,Dauphin,43,,,40.2662,-76.8829,4
17126,Harrisburg,Pennsylvania,PA,Dauphin,43,,,40.2618,-76.88,4
17127,Harrisburg,Pennsylvania,PA,Dauphin,43,,,40.2615,-76.8809,4
17128,Harrisburg,Pennsylvania,PA,Dauphin,43,,,40.2737,-76.8844,4
17129,Harrisburg,Pennsylvania,PA,Dauphin,43,,,40.2615,-76.8809,4
17130,Harrisburg,Pennsylvania,PA,Dauphin,43,,,40.2702,-76.8829,4
17140,Harrisburg,Pennsylvania,PA,Dauphin,43,,,40.3086,-76.8464,4
17177,Harrisburg,Pennsylvania,PA,Dauphin,43,,,40.299,-76.8472,4
19003,Ardmore,Pennsylvania,PA,Delaware,45,,,40.002,-75.2966,4
19008,Broomall,Pennsylvania,PA,Delaware,45,,,39.9747,-75.3602,4
19010,Bryn Mawr,Pennsylvania,PA,Delaware,45,,,40.0236,-75.3295,4
19013,Chester,Pennsylvania,PA,Delaware,45,,,39.8498,-75.3747,4
19014,Aston,Pennsylvania,PA,Delaware,45,,,39.8643,-75.4332,1
19015,Brookhaven,Pennsylvania,PA,Delaware,45,,,39.8654,-75.3885,4
19016,Chester,Pennsylvania,PA,Delaware,45,,,39.934,-75.406,4
19017,Chester Heights,Pennsylvania,PA,Delaware,45,,,39.8901,-75.4755,4
19018,Clifton Heights,Pennsylvania,PA,Delaware,45,,,39.9218,-75.2876,4
19022,Crum Lynne,Pennsylvania,PA,Delaware,45,,,39.8685,-75.3374,4
19023,Darby,Pennsylvania,PA,Delaware,45,,,39.9176,-75.2696,4
19026,Drexel Hill,Pennsylvania,PA,Delaware,45,,,39.9503,-75.304,4
19028,Edgemont,Pennsylvania,PA,Delaware,45,,,39.9748,-75.4505,4
19029,Essington,Pennsylvania,PA,Delaware,45,,,39.8621,-75.2971,4
19032,Folcroft,Pennsylvania,PA,Delaware,45,,,39.8905,-75.2821,4
19033,Folsom,Pennsylvania,PA,Delaware,45,,,39.8901,-75.3296,4
19036,Glenolden,Pennsylvania,PA,Delaware,45,,,39.9048,-75.2946,4
19037,Glen Riddle Lima,Pennsylvania,PA,Delaware,45,,,39.934,-75.406,1
19039,Gradyville,Pennsylvania,PA,Delaware,45,,,39.9432,-75.4694,4
19041,Haverford,Pennsylvania,PA,Delaware,45,,,40.0097,-75.3121,4
19043,Holmes,Pennsylvania,PA,Delaware,45,,,39.9003,-75.3087,4
19050,Lansdowne,Pennsylvania,PA,Delaware,45,,,39.9375,-75.2637,4
19052,Lenni,Pennsylvania,PA,Delaware,45,,,39.8942,-75.4456,4
19060,Garnet Valley,Pennsylvania,PA,Delaware,45,,,39.852,-75.5007,4
19061,Marcus Hook,Pennsylvania,PA,Delaware,45,,,39.8295,-75.4354,4
19063,Media,Pennsylvania,PA,Delaware,45,,,39.9188,-75.3991,4
19064,Springfield,Pennsylvania,PA,Delaware,45,,,39.9296,-75.3338,4
19065,Media,Pennsylvania,PA,Delaware,45,,,39.9211,-75.3861,4
19070,Morton,Pennsylvania,PA,Delaware,45,,,39.9063,-75.3238,4
19073,Newtown Square,Pennsylvania,PA,Delaware,45,,,39.9863,-75.407,4
19074,Norwood,Pennsylvania,PA,Delaware,45,,,39.887,-75.2972,4
19076,Prospect Park,Pennsylvania,PA,Delaware,45,,,39.8857,-75.3082,4
19078,Ridley Park,Pennsylvania,PA,Delaware,45,,,39.8784,-75.3215,4
19079,Sharon Hill,Pennsylvania,PA,Delaware,45,,,39.9035,-75.2695,4
19080,Wayne,Pennsylvania,PA,Delaware,45,,,40.044,-75.3877,4
19081,Swarthmore,Pennsylvania,PA,Delaware,45,,,39.8967,-75.3474,4
19082,Upper Darby,Pennsylvania,PA,Delaware,45,,,39.9579,-75.2681,4
19083,Havertown,Pennsylvania,PA,Delaware,45,,,39.9774,-75.3106,4
19085,Villanova,Pennsylvania,PA,Delaware,45,,,40.0399,-75.3459,4
19086,Wallingford,Pennsylvania,PA,Delaware,45,,,39.8871,-75.3721,4
19087,Wayne,Pennsylvania,PA,Delaware,45,,,40.0612,-75.3999,4
19088,Wayne,Pennsylvania,PA,Delaware,45,,,39.934,-75.406,4
19089,Wayne,Pennsylvania,PA,Delaware,45,,,40.044,-75.3877,4
19091,Media,Pennsylvania,PA,Delaware,45,,,39.934,-75.406,4
19094,Woodlyn,Pennsylvania,PA,Delaware,45,,,39.876,-75.3463,4
19098,Holmes,Pennsylvania,PA,Delaware,45,,,39.8954,-75.3107,4
19113,Philadelphia,Pennsylvania,PA,Delaware,45,,,39.865,-75.2752,4
19317,Chadds Ford,Pennsylvania,PA,Delaware,45,,,39.8648,-75.5885,4
19319,Cheyney,Pennsylvania,PA,Delaware,45,,,39.9209,-75.5222,4
19331,Concordville,Pennsylvania,PA,Delaware,45,,,39.8823,-75.5165,4
19339,Concordville,Pennsylvania,PA,Delaware,45,,,39.934,-75.406,4
19340,Concordville,Pennsylvania,PA,Delaware,45,,,39.8851,-75.5202,4
19342,Glen Mills,Pennsylvania,PA,Delaware,45,,,39.9015,-75.5049,4
19373,Thornton,Pennsylvania,PA,Delaware,45,,,39.9041,-75.5313,4
15821,Benezett,Pennsylvania,PA,Elk,47,,,41.3253,-78.3576,1
15822,Brandy Camp,Pennsylvania,PA,Elk,47,,,41.3209,-78.6875,4
15823,Brockport,Pennsylvania,PA,Elk,47,,,41.2822,-78.7128,4
15827,Byrnedale,Pennsylvania,PA,Elk,47,,,41.2865,-78.5051,4
15831,Dagus Mines,Pennsylvania,PA,Elk,47,,,41.3539,-78.6056,4
15841,Force,Pennsylvania,PA,Elk,47,,,41.2629,-78.5298,4
15845,Johnsonburg,Pennsylvania,PA,Elk,47,,,41.4928,-78.6783,4
15846,Kersey,Pennsylvania,PA,Elk,47,,,41.3563,-78.6015,4
15853,Ridgway,Pennsylvania,PA,Elk,47,,,41.3621,-78.7262,4
15857,Saint Marys,Pennsylvania,PA,Elk,47,,,41.4289,-78.5505,4
15868,Weedville,Pennsylvania,PA,Elk,47,,,41.2685,-78.4952,4
15870,Wilcox,Pennsylvania,PA,Elk,47,,,41.5735,-78.6823,4
16728,De Young,Pennsylvania,PA,Elk,47,,,41.4159,-78.6651,1
16734,James City,Pennsylvania,PA,Elk,47,,,41.6192,-78.8394,4
16401,Albion,Pennsylvania,PA,Erie,49,,,41.8947,-80.3111,4
16407,Corry,Pennsylvania,PA,Erie,49,,,41.9226,-79.6567,4
16410,Cranesville,Pennsylvania,PA,Erie,49,,,41.9162,-80.3085,4
16411,East Springfield,Pennsylvania,PA,Erie,49,,,41.9794,-80.4303,4
16412,Edinboro,Pennsylvania,PA,Erie,49,,,41.8756,-80.1356,4
16413,Elgin,Pennsylvania,PA,Erie,49,,,41.9031,-79.7437,4
16415,Fairview,Pennsylvania,PA,Erie,49,,,42.0407,-80.2395,4
16417,Girard,Pennsylvania,PA,Erie,49,,,41.9896,-80.3178,4
16421,Harborcreek,Pennsylvania,PA,Erie,49,,,42.1767,-79.9416,4
16423,Lake City,Pennsylvania,PA,Erie,49,,,42.0204,-80.3388,4
16426,Mc Kean,Pennsylvania,PA,Erie,49,,,41.999,-80.1473,1
16427,Mill Village,Pennsylvania,PA,Erie,49,,,41.8773,-79.9692,4
16428,North East,Pennsylvania,PA,Erie,49,,,42.2008,-79.8332,4
16430,North Springfield,Pennsylvania,PA,Erie,49,,,41.9999,-80.4258,4
16438,Union City,Pennsylvania,PA,Erie,49,,,41.8939,-79.8455,4
16441,Waterford,Pennsylvania,PA,Erie,49,,,41.9603,-79.9996,4
16442,Wattsburg,Pennsylvania,PA,Erie,49,,,42.0391,-79.8363,4
16443,West Springfield,Pennsylvania,PA,Erie,49,,,41.9465,-80.465,4
16444,Edinboro,Pennsylvania,PA,Erie,49,,,41.8707,-80.1218,4
16475,Albion,Pennsylvania,PA,Erie,49,,,41.8906,-80.3665,4
16501,Erie,Pennsylvania,PA,Erie,49,,,42.126,-80.086,4
16502,Erie,Pennsylvania,PA,Erie,49,,,42.1133,-80.0976,4
16503,Erie,Pennsylvania,PA,Erie,49,,,42.1265,-80.064,4
16504,Erie,Pennsylvania,PA,Erie,49,,,42.1108,-80.0521,4
16505,Erie,Pennsylvania,PA,Erie,49,,,42.1109,-80.1534,4
16506,Erie,Pennsylvania,PA,Erie,49,,,42.0738,-80.1484,4
16507,Erie,Pennsylvania,PA,Erie,49,,,42.1316,-80.0864,4
16508,Erie,Pennsylvania,PA,Erie,49,,,42.0976,-80.0935,4
16509,Erie,Pennsylvania,PA,Erie,49,,,42.0763,-80.0668,4
16510,Erie,Pennsylvania,PA,Erie,49,,,42.1087,-79.9535,4
16511,Erie,Pennsylvania,PA,Erie,49,,,42.1553,-80.0177,4
16512,Erie,Pennsylvania,PA,Erie,49,,,42.1292,-80.0851,4
16514,Erie,Pennsylvania,PA,Erie,49,,,42.1827,-80.0649,4
16515,Erie,Pennsylvania,PA,Erie,49,,,42.1827,-80.0649,4
16522,Erie,Pennsylvania,PA,Erie,49,,,42.1292,-80.0851,4
16530,Erie,Pennsylvania,PA,Erie,49,,,42.1292,-80.0851,4
16531,Erie,Pennsylvania,PA,Erie,49,,,42.1827,-80.0649,4
16534,Erie,Pennsylvania,PA,Erie,49,,,42.1292,-80.0851,4
16538,Erie,Pennsylvania,PA,Erie,49,,,42.1292,-80.0851,4
16541,Erie,Pennsylvania,PA,Erie,49,,,42.1292,-80.0851,4
16544,Erie,Pennsylvania,PA,Erie,49,,,42.1827,-80.0649,4
16546,Erie,Pennsylvania,PA,Erie,49,,,42.1827,-80.0649,4
16550,Erie,Pennsylvania,PA,Erie,49,,,42.1292,-80.0851,4
16553,Erie,Pennsylvania,PA,Erie,49,,,42.1292,-80.0851,4
16563,Erie,Pennsylvania,PA,Erie,49,,,42.1192,-79.9865,4
16565,Erie,Pennsylvania,PA,Erie,49,,,42.1827,-80.0649,4
15012,Belle Vernon,Pennsylvania,PA,Fayette,51,,,40.1588,-79.8122,4
15401,Uniontown,Pennsylvania,PA,Fayette,51,,,39.8897,-79.7282,4
15410,Adah,Pennsylvania,PA,Fayette,51,,,39.8965,-79.922,4
15413,Allison,Pennsylvania,PA,Fayette,51,,,39.9868,-79.8637,4
15415,Brier Hill,Pennsylvania,PA,Fayette,51,,,39.9808,-79.8504,4
15416,Brownfield,Pennsylvania,PA,Fayette,51,,,39.857,-79.712,4
15417,Brownsville,Pennsylvania,PA,Fayette,51,,,40.0237,-79.8839,4
15420,Cardale,Pennsylvania,PA,Fayette,51,,,39.9567,-79.8662,4
15421,Chalk Hill,Pennsylvania,PA,Fayette,51,,,39.8451,-79.5991,1
15422,Chestnut Ridge,Pennsylvania,PA,Fayette,51,,,39.9812,-79.8116,4
15425,Connellsville,Pennsylvania,PA,Fayette,51,,,40.0265,-79.5566,4
15428,Dawson,Pennsylvania,PA,Fayette,51,,,40.0638,-79.6602,4
15430,Dickerson Run,Pennsylvania,PA,Fayette,51,,,40.0418,-79.66,4
15431,Dunbar,Pennsylvania,PA,Fayette,51,,,39.9722,-79.6431,4
15433,East Millsboro,Pennsylvania,PA,Fayette,51,,,39.9822,-79.9664,4
15435,Fairbank,Pennsylvania,PA,Fayette,51,,,39.9434,-79.8495,4
15436,Fairchance,Pennsylvania,PA,Fayette,51,,,39.8229,-79.7551,4
15437,Farmington,Pennsylvania,PA,Fayette,51,,,39.807,-79.5832,4
15438,Fayette City,Pennsylvania,PA,Fayette,51,,,40.0988,-79.8366,4
15439,Gans,Pennsylvania,PA,Fayette,51,,,39.7429,-79.8242,4
15440,Gibbon Glade,Pennsylvania,PA,Fayette,51,,,39.7364,-79.5736,4
15442,Grindstone,Pennsylvania,PA,Fayette,51,,,40.0084,-79.8404,4
15443,Hibbs,Pennsylvania,PA,Fayette,51,,,39.9317,-79.8825,4
15444,Hiller,Pennsylvania,PA,Fayette,51,,,40.012,-79.9088,4
15445,Hopwood,Pennsylvania,PA,Fayette,51,,,39.8728,-79.6568,4
15446,Indian Head,Pennsylvania,PA,Fayette,51,,,40.0248,-79.395,4
15447,Isabella,Pennsylvania,PA,Fayette,51,,,39.946,-79.9393,4
15449,Keisterville,Pennsylvania,PA,Fayette,51,,,39.9636,-79.7853,4
15450,La Belle,Pennsylvania,PA,Fayette,51,,,39.9983,-79.9754,4
15451,Lake Lynn,Pennsylvania,PA,Fayette,51,,,39.7501,-79.8618,4
15454,Leckrone,Pennsylvania,PA,Fayette,51,,,39.8615,-79.8701,4
15455,Leisenring,Pennsylvania,PA,Fayette,51,,,39.9985,-79.6435,4
15456,Lemont Furnace,Pennsylvania,PA,Fayette,51,,,39.9311,-79.6477,4
15458,Mc Clellandtown,Pennsylvania,PA,Fayette,51,,,39.8882,-79.8694,1
15459,Markleysburg,Pennsylvania,PA,Fayette,51,,,39.7597,-79.46,4
15460,Martin,Pennsylvania,PA,Fayette,51,,,39.8065,-79.9098,4
15461,Masontown,Pennsylvania,PA,Fayette,51,,,39.8424,-79.9003,4
15462,Melcroft,Pennsylvania,PA,Fayette,51,,,40.052,-79.3892,4
15463,Merrittstown,Pennsylvania,PA,Fayette,51,,,39.8825,-79.8336,4
15464,Mill Run,Pennsylvania,PA,Fayette,51,,,39.968,-79.4622,4
15465,Mount Braddock,Pennsylvania,PA,Fayette,51,,,39.9321,-79.6522,4
15466,Newell,Pennsylvania,PA,Fayette,51,,,40.0751,-79.8943,4
15467,New Geneva,Pennsylvania,PA,Fayette,51,,,39.7884,-79.9092,4
15468,New Salem,Pennsylvania,PA,Fayette,51,,,39.9242,-79.8356,4
15469,Normalville,Pennsylvania,PA,Fayette,51,,,40.0418,-79.4151,4
15470,Ohiopyle,Pennsylvania,PA,Fayette,51,,,39.8507,-79.523,4
15472,Oliver,Pennsylvania,PA,Fayette,51,,,39.9183,-79.7158,4
15473,Perryopolis,Pennsylvania,PA,Fayette,51,,,40.0646,-79.7756,4
15474,Point Marion,Pennsylvania,PA,Fayette,51,,,39.7351,-79.899,4
15475,Republic,Pennsylvania,PA,Fayette,51,,,39.9626,-79.8767,4
15476,Ronco,Pennsylvania,PA,Fayette,51,,,39.8697,-79.9206,4
15478,Smithfield,Pennsylvania,PA,Fayette,51,,,39.7923,-79.8127,4
15480,Smock,Pennsylvania,PA,Fayette,51,,,39.9961,-79.7678,4
15482,Star Junction,Pennsylvania,PA,Fayette,51,,,40.0651,-79.769,4
15484,Uledi,Pennsylvania,PA,Fayette,51,,,39.8936,-79.7856,4
15486,Vanderbilt,Pennsylvania,PA,Fayette,51,,,40.0246,-79.6955,4
15488,Waltersburg,Pennsylvania,PA,Fayette,51,,,39.9763,-79.7689,4
15489,West Leisenring,Pennsylvania,PA,Fayette,51,,,39.9561,-79.7007,4
15490,White,Pennsylvania,PA,Fayette,51,,,40.0726,-79.4251,4
15492,Wickhaven,Pennsylvania,PA,Fayette,51,,,40.1194,-79.7623,4
15631,Everson,Pennsylvania,PA,Fayette,51,,,40.0911,-79.5873,4
15828,Clarington,Pennsylvania,PA,Forest,53,,,41.3233,-79.1466,4
16217,Cooksburg,Pennsylvania,PA,Forest,53,,,41.3384,-79.1971,4
16239,Marienville,Pennsylvania,PA,Forest,53,,,41.4622,-79.1306,4
16321,East Hickory,Pennsylvania,PA,Forest,53,,,41.584,-79.4017,4
16322,Endeavor,Pennsylvania,PA,Forest,53,,,41.5895,-79.385,4
16353,Tionesta,Pennsylvania,PA,Forest,53,,,41.5116,-79.3663,4
16370,West Hickory,Pennsylvania,PA,Forest,53,,,41.5687,-79.4081,4
17201,Chambersburg,Pennsylvania,PA,Franklin,55,,,39.9313,-77.6579,4
17202,Chambersburg,Pennsylvania,PA,Franklin,55,,,39.9072,-77.636,4
17210,Amberson,Pennsylvania,PA,Franklin,55,,,40.1704,-77.6772,4
17214,Blue Ridge Summit,Pennsylvania,PA,Franklin,55,,,39.7399,-77.4707,4
17217,Concord,Pennsylvania,PA,Franklin,55,,,40.2252,-77.725,4
17219,Doylesburg,Pennsylvania,PA,Franklin,55,,,40.2184,-77.6797,4
17220,Dry Run,Pennsylvania,PA,Franklin,55,,,40.1781,-77.7353,4
17221,Fannettsburg,Pennsylvania,PA,Franklin,55,,,40.0717,-77.821,4
17222,Fayetteville,Pennsylvania,PA,Franklin,55,,,39.9065,-77.531,4
17224,Fort Loudon,Pennsylvania,PA,Franklin,55,,,39.9547,-77.8984,4
17225,Greencastle,Pennsylvania,PA,Franklin,55,,,39.7818,-77.747,4
17231,Lemasters,Pennsylvania,PA,Franklin,55,,,39.8594,-77.8579,4
17232,Lurgan,Pennsylvania,PA,Franklin,55,,,40.1055,-77.6405,4
17235,Marion,Pennsylvania,PA,Franklin,55,,,39.8587,-77.6981,4
17236,Mercersburg,Pennsylvania,PA,Franklin,55,,,39.8195,-77.9073,4
17237,Mont Alto,Pennsylvania,PA,Franklin,55,,,39.8417,-77.5537,4
17244,Orrstown,Pennsylvania,PA,Franklin,55,,,40.0731,-77.6398,4
17246,Pleasant Hall,Pennsylvania,PA,Franklin,55,,,40.0531,-77.6539,4
17247,Quincy,Pennsylvania,PA,Franklin,55,,,39.7995,-77.5811,4
17250,Rouzerville,Pennsylvania,PA,Franklin,55,,,39.7364,-77.5247,4
17251,Roxbury,Pennsylvania,PA,Franklin,55,,,40.1104,-77.6619,4
17252,Saint Thomas,Pennsylvania,PA,Franklin,55,,,39.9241,-77.7908,4
17254,Scotland,Pennsylvania,PA,Franklin,55,,,39.9696,-77.5848,4
17256,Shady Grove,Pennsylvania,PA,Franklin,55,,,39.7834,-77.6749,4
17261,South Mountain,Pennsylvania,PA,Franklin,55,,,39.8465,-77.4878,4
17262,Spring Run,Pennsylvania,PA,Franklin,55,,,40.1734,-77.7092,4
17263,State Line,Pennsylvania,PA,Franklin,55,,,39.7248,-77.7186,4
17265,Upperstrasburg,Pennsylvania,PA,Franklin,55,,,40.058,-77.7368,1
17268,Waynesboro,Pennsylvania,PA,Franklin,55,,,39.7635,-77.5674,4
17271,Willow Hill,Pennsylvania,PA,Franklin,55,,,40.1137,-77.7969,4
17272,Zullinger,Pennsylvania,PA,Franklin,55,,,39.7714,-77.627,4
15536,Crystal Spring,Pennsylvania,PA,Fulton,57,,,39.92,-78.2258,4
16689,Waterfall,Pennsylvania,PA,Fulton,57,,,40.1276,-78.0628,4
16691,Wells Tannery,Pennsylvania,PA,Fulton,57,,,40.101,-78.1403,4
17212,Big Cove Tannery,Pennsylvania,PA,Fulton,57,,,39.8127,-78.0645,4
17215,Burnt Cabins,Pennsylvania,PA,Fulton,57,,,40.0753,-77.9017,4
17223,Fort Littleton,Pennsylvania,PA,Fulton,57,,,40.078,-77.9532,4
17228,Harrisonville,Pennsylvania,PA,Fulton,57,,,39.9761,-78.0841,4
17229,Hustontown,Pennsylvania,PA,Fulton,57,,,40.0441,-78.0148,4
17233,Mc Connellsburg,Pennsylvania,PA,Fulton,57,,,39.9443,-77.9901,1
17238,Needmore,Pennsylvania,PA,Fulton,57,,,39.8713,-78.1439,4
17267,Warfordsburg,Pennsylvania,PA,Fulton,57,,,39.7698,-78.1986,4
15310,Aleppo,Pennsylvania,PA,Greene,59,,,39.8246,-80.4579,4
15315,Bobtown,Pennsylvania,PA,Greene,59,,,39.7612,-79.9814,4
15316,Brave,Pennsylvania,PA,Greene,59,,,39.7245,-80.2537,4
15320,Carmichaels,Pennsylvania,PA,Greene,59,,,39.8825,-79.971,4
15322,Clarksville,Pennsylvania,PA,Greene,59,,,39.9667,-80.0452,4
15325,Crucible,Pennsylvania,PA,Greene,59,,,39.9502,-79.9676,4
15327,Dilliner,Pennsylvania,PA,Greene,59,,,39.7555,-79.9771,4
15334,Garards Fort,Pennsylvania,PA,Greene,59,,,39.8083,-79.9679,4
15337,Graysville,Pennsylvania,PA,Greene,59,,,39.9092,-80.3952,4
15338,Greensboro,Pennsylvania,PA,Greene,59,,,39.8045,-79.9399,4
15341,Holbrook,Pennsylvania,PA,Greene,59,,,39.8489,-80.3385,4
15344,Jefferson,Pennsylvania,PA,Greene,59,,,39.9334,-80.0503,4
15346,Mather,Pennsylvania,PA,Greene,59,,,39.9354,-80.0753,4
15349,Mount Morris,Pennsylvania,PA,Greene,59,,,39.774,-80.0246,4
15351,Nemacolin,Pennsylvania,PA,Greene,59,,,39.8779,-79.9258,4
15352,New Freeport,Pennsylvania,PA,Greene,59,,,39.7507,-80.4542,4
15353,Nineveh,Pennsylvania,PA,Greene,59,,,39.9615,-80.3078,4
15357,Rices Landing,Pennsylvania,PA,Greene,59,,,39.944,-79.9857,4
15359,Rogersville,Pennsylvania,PA,Greene,59,,,39.8765,-80.2758,4
15362,Spraggs,Pennsylvania,PA,Greene,59,,,39.7447,-80.2145,4
15364,Sycamore,Pennsylvania,PA,Greene,59,,,39.9415,-80.2906,4
15370,Waynesburg,Pennsylvania,PA,Greene,59,,,39.8917,-80.1795,4
15380,Wind Ridge,Pennsylvania,PA,Greene,59,,,39.8971,-80.4647,4
16611,Alexandria,Pennsylvania,PA,Huntingdon,61,,,40.5485,-78.0951,4
16621,Broad Top,Pennsylvania,PA,Huntingdon,61,,,40.2019,-78.1406,4
16622,Calvin,Pennsylvania,PA,Huntingdon,61,,,40.3367,-78.0272,4
16623,Cassville,Pennsylvania,PA,Huntingdon,61,,,40.294,-78.0272,4
16634,Dudley,Pennsylvania,PA,Huntingdon,61,,,40.2054,-78.1814,4
16638,Entriken,Pennsylvania,PA,Huntingdon,61,,,40.334,-78.1989,4
16647,Hesston,Pennsylvania,PA,Huntingdon,61,,,40.4121,-78.1281,4
16652,Huntingdon,Pennsylvania,PA,Huntingdon,61,,,40.5023,-78.005,4
16654,Huntingdon,Pennsylvania,PA,Huntingdon,61,,,40.4848,-78.0103,4
16657,James Creek,Pennsylvania,PA,Huntingdon,61,,,40.3567,-78.1887,1
16660,Mc Connellstown,Pennsylvania,PA,Huntingdon,61,,,40.4025,-77.967,1
16669,Petersburg,Pennsylvania,PA,Huntingdon,61,,,40.603,-77.9984,4
16674,Robertsdale,Pennsylvania,PA,Huntingdon,61,,,40.1787,-78.1117,4
16683,Spruce Creek,Pennsylvania,PA,Huntingdon,61,,,40.6218,-78.1361,4
16685,Todd,Pennsylvania,PA,Huntingdon,61,,,40.271,-78.0772,4
16877,Warriors Mark,Pennsylvania,PA,Huntingdon,61,,,40.7414,-78.0775,4
17052,Mapleton Depot,Pennsylvania,PA,Huntingdon,61,,,40.3864,-77.9604,1
17060,Mill Creek,Pennsylvania,PA,Huntingdon,61,,,40.4679,-77.8967,4
17066,Mount Union,Pennsylvania,PA,Huntingdon,61,,,40.3901,-77.8637,4
17213,Blairs Mills,Pennsylvania,PA,Huntingdon,61,,,40.2548,-77.7695,4
17239,Neelyton,Pennsylvania,PA,Huntingdon,61,,,40.1371,-77.858,4
17243,Orbisonia,Pennsylvania,PA,Huntingdon,61,,,40.2389,-77.9069,4
17249,Rockhill Furnace,Pennsylvania,PA,Huntingdon,61,,,40.2414,-77.8995,1
17253,Saltillo,Pennsylvania,PA,Huntingdon,61,,,40.2133,-78.0069,4
17255,Shade Gap,Pennsylvania,PA,Huntingdon,61,,,40.173,-77.868,4
17260,Shirleysburg,Pennsylvania,PA,Huntingdon,61,,,40.2979,-77.8742,4
17264,Three Springs,Pennsylvania,PA,Huntingdon,61,,,40.1834,-77.9941,4
15681,Saltsburg,Pennsylvania,PA,Indiana,63,,,40.5429,-79.3978,4
15701,Indiana,Pennsylvania,PA,Indiana,63,,,40.6196,-79.1596,4
15705,Indiana,Pennsylvania,PA,Indiana,63,,,40.6215,-79.1525,4
15710,Alverda,Pennsylvania,PA,Indiana,63,,,40.6303,-78.857,4
15712,Arcadia,Pennsylvania,PA,Indiana,63,,,40.7817,-78.8536,4
15713,Aultman,Pennsylvania,PA,Indiana,63,,,40.5698,-79.2617,4
15716,Black Lick,Pennsylvania,PA,Indiana,63,,,40.4725,-79.1869,4
15717,Blairsville,Pennsylvania,PA,Indiana,63,,,40.4413,-79.2533,4
15720,Brush Valley,Pennsylvania,PA,Indiana,63,,,40.5292,-79.0846,4
15723,Chambersville,Pennsylvania,PA,Indiana,63,,,40.7056,-79.1615,4
15724,Cherry Tree,Pennsylvania,PA,Indiana,63,,,40.7554,-78.8474,4
15725,Clarksburg,Pennsylvania,PA,Indiana,63,,,40.5039,-79.3677,4
15727,Clune,Pennsylvania,PA,Indiana,63,,,40.5503,-79.3237,1
15728,Clymer,Pennsylvania,PA,Indiana,63,,,40.6688,-79.0119,4
15729,Commodore,Pennsylvania,PA,Indiana,63,,,40.7016,-78.9134,4
15731,Coral,Pennsylvania,PA,Indiana,63,,,40.4992,-79.1739,4
15732,Creekside,Pennsylvania,PA,Indiana,63,,,40.7199,-79.2014,4
15734,Dixonville,Pennsylvania,PA,Indiana,63,,,40.7165,-79.007,4
15739,Ernest,Pennsylvania,PA,Indiana,63,,,40.678,-79.1657,4
15741,Gipsy,Pennsylvania,PA,Indiana,63,,,40.8073,-78.8764,4
15742,Glen Campbell,Pennsylvania,PA,Indiana,63,,,40.8508,-78.8555,4
15745,Heilwood,Pennsylvania,PA,Indiana,63,,,40.6207,-78.9186,4
15746,Hillsdale,Pennsylvania,PA,Indiana,63,,,40.7517,-78.885,4
15747,Home,Pennsylvania,PA,Indiana,63,,,40.7834,-79.1641,4
15748,Homer City,Pennsylvania,PA,Indiana,63,,,40.5245,-79.0843,4
15750,Josephine,Pennsylvania,PA,Indiana,63,,,40.4828,-79.185,4
15752,Kent,Pennsylvania,PA,Indiana,63,,,40.5412,-79.282,1
15754,Lucernemines,Pennsylvania,PA,Indiana,63,,,40.5567,-79.1515,1
15756,Mc Intyre,Pennsylvania,PA,Indiana,63,,,40.5684,-79.2999,1
15758,Marchand,Pennsylvania,PA,Indiana,63,,,40.8576,-79.0228,4
15759,Marion Center,Pennsylvania,PA,Indiana,63,,,40.7814,-79.0252,4
15761,Mentcle,Pennsylvania,PA,Indiana,63,,,40.6373,-78.8823,4
15763,Northpoint,Pennsylvania,PA,Indiana,63,,,40.9037,-79.1257,1
15765,Penn Run,Pennsylvania,PA,Indiana,63,,,40.6213,-78.9943,4
15771,Rochester Mills,Pennsylvania,PA,Indiana,63,,,40.8308,-78.9892,4
15772,Rossiter,Pennsylvania,PA,Indiana,63,,,40.8846,-78.9414,4
15777,Starford,Pennsylvania,PA,Indiana,63,,,40.7027,-78.9588,4
15783,West Lebanon,Pennsylvania,PA,Indiana,63,,,40.6026,-79.3537,4
15920,Armagh,Pennsylvania,PA,Indiana,63,,,40.4603,-79.0097,4
15929,Dilltown,Pennsylvania,PA,Indiana,63,,,40.4665,-79.0025,4
15949,Robinson,Pennsylvania,PA,Indiana,63,,,40.4042,-79.1395,4
15957,Strongstown,Pennsylvania,PA,Indiana,63,,,40.5727,-78.9,4
16211,Beyer,Pennsylvania,PA,Indiana,63,,,40.7865,-79.2011,4
16246,Plumville,Pennsylvania,PA,Indiana,63,,,40.7931,-79.1806,4
16256,Smicksburg,Pennsylvania,PA,Indiana,63,,,40.8372,-79.1614,4
15711,Anita,Pennsylvania,PA,Jefferson,65,,,41.0018,-78.9666,4
15715,Big Run,Pennsylvania,PA,Jefferson,65,,,40.9704,-78.8758,4
15730,Coolspring,Pennsylvania,PA,Jefferson,65,,,41.0431,-79.0836,4
15733,De Lancey,Pennsylvania,PA,Jefferson,65,,,41.1411,-78.9629,1
15744,Hamilton,Pennsylvania,PA,Jefferson,65,,,40.9233,-79.0831,4
15764,Oliveburg,Pennsylvania,PA,Jefferson,65,,,40.9926,-79.0291,4
15767,Punxsutawney,Pennsylvania,PA,Jefferson,65,,,40.9479,-78.9681,4
15770,Ringgold,Pennsylvania,PA,Jefferson,65,,,40.9997,-79.1766,4
15776,Sprankle Mills,Pennsylvania,PA,Jefferson,65,,,41.0133,-79.114,4
15778,Timblin,Pennsylvania,PA,Jefferson,65,,,40.9684,-79.2014,4
15780,Valier,Pennsylvania,PA,Jefferson,65,,,40.9159,-79.0448,4
15781,Walston,Pennsylvania,PA,Jefferson,65,,,40.9651,-78.9948,4
15784,Worthville,Pennsylvania,PA,Jefferson,65,,,41.0238,-79.1387,4
15824,Brockway,Pennsylvania,PA,Jefferson,65,,,41.2406,-78.8116,4
15825,Brookville,Pennsylvania,PA,Jefferson,65,,,41.1627,-79.0816,4
15829,Corsica,Pennsylvania,PA,Jefferson,65,,,41.1762,-79.1976,4
15840,Falls Creek,Pennsylvania,PA,Jefferson,65,,,41.1455,-78.8128,4
15847,Knox Dale,Pennsylvania,PA,Jefferson,65,,,41.0862,-79.0264,4
15851,Reynoldsville,Pennsylvania,PA,Jefferson,65,,,41.097,-78.8886,4
15860,Sigel,Pennsylvania,PA,Jefferson,65,,,41.3099,-79.054,4
15863,Stump Creek,Pennsylvania,PA,Jefferson,65,,,41.0126,-78.8373,4
15864,Summerville,Pennsylvania,PA,Jefferson,65,,,41.1058,-79.1726,4
15865,Sykesville,Pennsylvania,PA,Jefferson,65,,,41.0514,-78.8195,4
17014,Cocolamus,Pennsylvania,PA,Juniata,67,,,40.6479,-77.2125,4
17021,East Waterford,Pennsylvania,PA,Juniata,67,,,40.3542,-77.6528,4
17035,Honey Grove,Pennsylvania,PA,Juniata,67,,,40.4309,-77.5761,4
17049,Mc Alisterville,Pennsylvania,PA,Juniata,67,,,40.6469,-77.2602,1
17056,Mexico,Pennsylvania,PA,Juniata,67,,,40.5373,-77.3543,4
17058,Mifflin,Pennsylvania,PA,Juniata,67,,,40.5695,-77.4028,4
17059,Mifflintown,Pennsylvania,PA,Juniata,67,,,40.5727,-77.3761,4
17076,Oakland Mills,Pennsylvania,PA,Juniata,67,,,40.6147,-77.3192,4
17082,Port Royal,Pennsylvania,PA,Juniata,67,,,40.5107,-77.431,4
17086,Richfield,Pennsylvania,PA,Juniata,67,,,40.6884,-77.1223,4
17094,Thompsontown,Pennsylvania,PA,Juniata,67,,,40.5908,-77.2076,4
18403,Archbald,Pennsylvania,PA,Lackawanna,69,,,41.4876,-75.5334,4
18407,Carbondale,Pennsylvania,PA,Lackawanna,69,,,41.5831,-75.5056,4
18410,Chinchilla,Pennsylvania,PA,Lackawanna,69,,,41.4865,-75.6933,4
18411,Clarks Summit,Pennsylvania,PA,Lackawanna,69,,,41.4878,-75.7057,4
18414,Dalton,Pennsylvania,PA,Lackawanna,69,,,41.5395,-75.7037,4
18416,Elmhurst,Pennsylvania,PA,Lackawanna,69,,,41.3756,-75.548,4
18420,Fleetville,Pennsylvania,PA,Lackawanna,69,,,41.5981,-75.7146,4
18433,Jermyn,Pennsylvania,PA,Lackawanna,69,,,41.5744,-75.5881,4
18434,Jessup,Pennsylvania,PA,Lackawanna,69,,,41.4724,-75.5689,4
18440,La Plume,Pennsylvania,PA,Lackawanna,69,,,41.5516,-75.7676,4
18444,Moscow,Pennsylvania,PA,Lackawanna,69,,,41.3432,-75.5301,4
18447,Olyphant,Pennsylvania,PA,Lackawanna,69,,,41.4677,-75.6015,4
18448,Olyphant,Pennsylvania,PA,Lackawanna,69,,,41.4649,-75.5962,4
18452,Peckville,Pennsylvania,PA,Lackawanna,69,,,41.4821,-75.5899,4
18471,Waverly,Pennsylvania,PA,Lackawanna,69,,,41.5238,-75.6906,4
18501,Scranton,Pennsylvania,PA,Lackawanna,69,,,41.4019,-75.6376,4
18502,Scranton,Pennsylvania,PA,Lackawanna,69,,,41.4092,-75.6649,4
18503,Scranton,Pennsylvania,PA,Lackawanna,69,,,41.4095,-75.6642,4
18504,Scranton,Pennsylvania,PA,Lackawanna,69,,,41.4128,-75.6861,4
18505,Scranton,Pennsylvania,PA,Lackawanna,69,,,41.3914,-75.6657,4
18507,Moosic,Pennsylvania,PA,Lackawanna,69,,,41.3554,-75.6805,4
18508,Scranton,Pennsylvania,PA,Lackawanna,69,,,41.4389,-75.6625,4
18509,Scranton,Pennsylvania,PA,Lackawanna,69,,,41.4274,-75.6465,4
18510,Scranton,Pennsylvania,PA,Lackawanna,69,,,41.408,-75.6484,4
18512,Scranton,Pennsylvania,PA,Lackawanna,69,,,41.435,-75.6103,4
18515,Scranton,Pennsylvania,PA,Lackawanna,69,,,41.4035,-75.7065,4
18517,Taylor,Pennsylvania,PA,Lackawanna,69,,,41.3904,-75.7158,4
18518,Old Forge,Pennsylvania,PA,Lackawanna,69,,,41.3701,-75.7391,4
18519,Scranton,Pennsylvania,PA,Lackawanna,69,,,41.4092,-75.6649,4
18540,Scranton,Pennsylvania,PA,Lackawanna,69,,,41.4019,-75.6376,4
18577,Scranton,Pennsylvania,PA,Lackawanna,69,,,41.4019,-75.6376,4
18653,Ransom,Pennsylvania,PA,Lackawanna,69,,,41.3945,-75.8242,4
17022,Elizabethtown,Pennsylvania,PA,Lancaster,71,,,40.1553,-76.6025,4
17501,Akron,Pennsylvania,PA,Lancaster,71,,,40.1573,-76.2042,4
17502,Bainbridge,Pennsylvania,PA,Lancaster,71,,,40.1086,-76.6726,4
17503,Bart,Pennsylvania,PA,Lancaster,71,,,40.0185,-76.2976,1
17504,Bausman,Pennsylvania,PA,Lancaster,71,,,40.024,-76.3281,4
17505,Bird In Hand,Pennsylvania,PA,Lancaster,71,,,40.0561,-76.183,4
17506,Blue Ball,Pennsylvania,PA,Lancaster,71,,,40.1173,-76.0524,4
17507,Bowmansville,Pennsylvania,PA,Lancaster,71,,,40.1966,-76.016,4
17508,Brownstown,Pennsylvania,PA,Lancaster,71,,,40.124,-76.2176,4
17509,Christiana,Pennsylvania,PA,Lancaster,71,,,39.904,-76.0401,4
17512,Columbia,Pennsylvania,PA,Lancaster,71,,,40.0391,-76.4862,4
17516,Conestoga,Pennsylvania,PA,Lancaster,71,,,39.9403,-76.3575,4
17517,Denver,Pennsylvania,PA,Lancaster,71,,,40.2297,-76.1157,4
17518,Drumore,Pennsylvania,PA,Lancaster,71,,,39.8183,-76.2499,4
17519,East Earl,Pennsylvania,PA,Lancaster,71,,,40.1395,-76.0276,4
17520,East Petersburg,Pennsylvania,PA,Lancaster,71,,,40.1008,-76.3512,4
17521,Elm,Pennsylvania,PA,Lancaster,71,,,40.2044,-76.3464,4
17522,Ephrata,Pennsylvania,PA,Lancaster,71,,,40.1756,-76.1821,4
17527,Gap,Pennsylvania,PA,Lancaster,71,,,40.002,-75.9978,4
17528,Goodville,Pennsylvania,PA,Lancaster,71,,,40.1257,-76.0033,4
17529,Gordonville,Pennsylvania,PA,Lancaster,71,,,40.0353,-76.1106,4
17532,Holtwood,Pennsylvania,PA,Lancaster,71,,,39.8631,-76.3008,4
17533,Hopeland,Pennsylvania,PA,Lancaster,71,,,40.2339,-76.2607,4
17534,Intercourse,Pennsylvania,PA,Lancaster,71,,,40.0367,-76.1069,4
17535,Kinzers,Pennsylvania,PA,Lancaster,71,,,40.0053,-76.0493,4
17536,Kirkwood,Pennsylvania,PA,Lancaster,71,,,39.8257,-76.0933,4
17537,Lampeter,Pennsylvania,PA,Lancaster,71,,,39.9885,-76.2387,4
17538,Landisville,Pennsylvania,PA,Lancaster,71,,,40.0892,-76.4156,4
17540,Leola,Pennsylvania,PA,Lancaster,71,,,40.0964,-76.1921,4
17543,Lititz,Pennsylvania,PA,Lancaster,71,,,40.1846,-76.3015,4
17545,Manheim,Pennsylvania,PA,Lancaster,71,,,40.1702,-76.4168,4
17547,Marietta,Pennsylvania,PA,Lancaster,71,,,40.0664,-76.5645,4
17549,Martindale,Pennsylvania,PA,Lancaster,71,,,40.1545,-76.0876,4
17550,Maytown,Pennsylvania,PA,Lancaster,71,,,40.0754,-76.5822,4
17551,Millersville,Pennsylvania,PA,Lancaster,71,,,39.9982,-76.3566,4
17552,Mount Joy,Pennsylvania,PA,Lancaster,71,,,40.1083,-76.5103,4
17554,Mountville,Pennsylvania,PA,Lancaster,71,,,40.0427,-76.4277,4
17555,Narvon,Pennsylvania,PA,Lancaster,71,,,40.1252,-75.9756,4
17557,New Holland,Pennsylvania,PA,Lancaster,71,,,40.1005,-76.0801,4
17560,New Providence,Pennsylvania,PA,Lancaster,71,,,39.9098,-76.2243,4
17562,Paradise,Pennsylvania,PA,Lancaster,71,,,39.9852,-76.1081,4
17563,Peach Bottom,Pennsylvania,PA,Lancaster,71,,,39.7705,-76.1791,4
17564,Penryn,Pennsylvania,PA,Lancaster,71,,,40.0185,-76.2976,4
17565,Pequea,Pennsylvania,PA,Lancaster,71,,,39.9058,-76.3209,4
17566,Quarryville,Pennsylvania,PA,Lancaster,71,,,39.8949,-76.1465,4
17567,Reamstown,Pennsylvania,PA,Lancaster,71,,,40.2099,-76.1164,4
17568,Refton,Pennsylvania,PA,Lancaster,71,,,39.9469,-76.2322,4
17569,Reinholds,Pennsylvania,PA,Lancaster,71,,,40.2688,-76.1013,4
17570,Rheems,Pennsylvania,PA,Lancaster,71,,,40.1301,-76.5705,4
17572,Ronks,Pennsylvania,PA,Lancaster,71,,,40.0208,-76.1661,4
17573,Ronks,Pennsylvania,PA,Lancaster,71,,,40.0262,-76.1686,4
17575,Silver Spring,Pennsylvania,PA,Lancaster,71,,,40.0647,-76.4343,4
17576,Smoketown,Pennsylvania,PA,Lancaster,71,,,40.0376,-76.1969,4
17578,Stevens,Pennsylvania,PA,Lancaster,71,,,40.2194,-76.1626,4
17579,Strasburg,Pennsylvania,PA,Lancaster,71,,,39.9701,-76.1848,4
17580,Talmage,Pennsylvania,PA,Lancaster,71,,,40.1168,-76.2131,4
17581,Terre Hill,Pennsylvania,PA,Lancaster,71,,,40.1585,-76.0511,4
17582,Washington Boro,Pennsylvania,PA,Lancaster,71,,,39.9881,-76.4402,4
17583,West Willow,Pennsylvania,PA,Lancaster,71,,,39.9723,-76.2873,4
17584,Willow Street,Pennsylvania,PA,Lancaster,71,,,39.967,-76.2752,4
17585,Witmer,Pennsylvania,PA,Lancaster,71,,,40.0484,-76.2114,4
17601,Lancaster,Pennsylvania,PA,Lancaster,71,,,40.0766,-76.3107,4
17602,Lancaster,Pennsylvania,PA,Lancaster,71,,,40.0335,-76.2844,4
17603,Lancaster,Pennsylvania,PA,Lancaster,71,,,40.0091,-76.3671,4
17604,Lancaster,Pennsylvania,PA,Lancaster,71,,,40.0651,-76.3356,4
17605,Lancaster,Pennsylvania,PA,Lancaster,71,,,40.0185,-76.2976,4
17606,Lancaster,Pennsylvania,PA,Lancaster,71,,,40.1102,-76.3054,4
17607,Lancaster,Pennsylvania,PA,Lancaster,71,,,40.0185,-76.2976,4
17608,Lancaster,Pennsylvania,PA,Lancaster,71,,,40.0185,-76.2976,4
17611,Lancaster,Pennsylvania,PA,Lancaster,71,,,40.0379,-76.3055,4
17622,Lancaster,Pennsylvania,PA,Lancaster,71,,,40.0418,-76.3012,4
17699,Lancaster,Pennsylvania,PA,Lancaster,71,,,40.0185,-76.2976,4
19501,Adamstown,Pennsylvania,PA,Lancaster,71,,,40.2423,-76.0577,4
16101,New Castle,Pennsylvania,PA,Lawrence,73,,,40.9922,-80.3284,4
16102,New Castle,Pennsylvania,PA,Lawrence,73,,,40.9677,-80.3907,4
16103,New Castle,Pennsylvania,PA,Lawrence,73,,,40.9897,-80.3084,4
16105,New Castle,Pennsylvania,PA,Lawrence,73,,,41.0241,-80.3454,4
16107,New Castle,Pennsylvania,PA,Lawrence,73,,,40.9897,-80.3084,4
16108,New Castle,Pennsylvania,PA,Lawrence,73,,,40.9897,-80.3084,4
16112,Bessemer,Pennsylvania,PA,Lawrence,73,,,40.9755,-80.4937,4
16116,Edinburg,Pennsylvania,PA,Lawrence,73,,,41.0276,-80.4632,4
16117,Ellwood City,Pennsylvania,PA,Lawrence,73,,,40.8729,-80.2559,4
16120,Enon Valley,Pennsylvania,PA,Lawrence,73,,,40.8721,-80.4612,4
16132,Hillsville,Pennsylvania,PA,Lawrence,73,,,41.0113,-80.4975,4
16140,New Bedford,Pennsylvania,PA,Lawrence,73,,,41.0973,-80.5048,4
16142,New Wilmington,Pennsylvania,PA,Lawrence,73,,,41.1382,-80.3245,4
16143,Pulaski,Pennsylvania,PA,Lawrence,73,,,41.0942,-80.4685,4
16155,Villa Maria,Pennsylvania,PA,Lawrence,73,,,41.0737,-80.5073,4
16156,Volant,Pennsylvania,PA,Lawrence,73,,,41.0938,-80.2441,4
16157,Wampum,Pennsylvania,PA,Lawrence,73,,,40.8819,-80.3392,4
16160,West Pittsburg,Pennsylvania,PA,Lawrence,73,,,40.9301,-80.3611,4
16172,New Wilmington,Pennsylvania,PA,Lawrence,73,,,41.12,-80.3332,4
17003,Annville,Pennsylvania,PA,Lebanon,75,,,40.3456,-76.5447,4
17010,Campbelltown,Pennsylvania,PA,Lebanon,75,,,40.2776,-76.5852,4
17016,Cornwall,Pennsylvania,PA,Lebanon,75,,,40.2755,-76.4053,4
17026,Fredericksburg,Pennsylvania,PA,Lebanon,75,,,40.4524,-76.4267,4
17038,Jonestown,Pennsylvania,PA,Lebanon,75,,,40.4361,-76.5038,4
17039,Kleinfeltersville,Pennsylvania,PA,Lebanon,75,,,40.3005,-76.2584,4
17041,Lawn,Pennsylvania,PA,Lebanon,75,,,40.2236,-76.538,4
17042,Lebanon,Pennsylvania,PA,Lebanon,75,,,40.3316,-76.3976,4
17046,Lebanon,Pennsylvania,PA,Lebanon,75,,,40.3812,-76.4368,4
17064,Mount Gretna,Pennsylvania,PA,Lebanon,75,,,40.2476,-76.4711,4
17067,Myerstown,Pennsylvania,PA,Lebanon,75,,,40.3789,-76.3143,4
17073,Newmanstown,Pennsylvania,PA,Lebanon,75,,,40.3495,-76.2133,4
17077,Ono,Pennsylvania,PA,Lebanon,75,,,40.4029,-76.5347,4
17078,Palmyra,Pennsylvania,PA,Lebanon,75,,,40.3011,-76.5886,4
17083,Quentin,Pennsylvania,PA,Lebanon,75,,,40.2796,-76.4397,4
17085,Rexmont,Pennsylvania,PA,Lebanon,75,,,40.2771,-76.3857,4
17087,Richland,Pennsylvania,PA,Lebanon,75,,,40.3806,-76.2654,4
17088,Schaefferstown,Pennsylvania,PA,Lebanon,75,,,40.2984,-76.2944,4
18011,Alburtis,Pennsylvania,PA,Lehigh,77,,,40.5145,-75.6029,4
18025,Bethlehem,Pennsylvania,PA,Lehigh,77,,,40.6259,-75.3705,1
18031,Breinigsville,Pennsylvania,PA,Lehigh,77,,,40.5526,-75.6553,4
18032,Catasauqua,Pennsylvania,PA,Lehigh,77,,,40.6557,-75.4693,4
18034,Center Valley,Pennsylvania,PA,Lehigh,77,,,40.5396,-75.4242,4
18036,Coopersburg,Pennsylvania,PA,Lehigh,77,,,40.5076,-75.3888,4
18037,Coplay,Pennsylvania,PA,Lehigh,77,,,40.6701,-75.4955,4
18046,East Texas,Pennsylvania,PA,Lehigh,77,,,40.5476,-75.5613,4
18049,Emmaus,Pennsylvania,PA,Lehigh,77,,,40.5293,-75.501,4
18051,Fogelsville,Pennsylvania,PA,Lehigh,77,,,40.593,-75.6568,4
18052,Whitehall,Pennsylvania,PA,Lehigh,77,,,40.6567,-75.5041,4
18053,Germansville,Pennsylvania,PA,Lehigh,77,,,40.7118,-75.7147,4
18059,Laurys Station,Pennsylvania,PA,Lehigh,77,,,40.7177,-75.5335,4
18060,Limeport,Pennsylvania,PA,Lehigh,77,,,40.509,-75.4471,4
18062,Macungie,Pennsylvania,PA,Lehigh,77,,,40.5285,-75.5666,4
18065,Neffs,Pennsylvania,PA,Lehigh,77,,,40.6967,-75.6116,4
18066,New Tripoli,Pennsylvania,PA,Lehigh,77,,,40.6545,-75.7417,4
18068,Old Zionsville,Pennsylvania,PA,Lehigh,77,,,40.4865,-75.5202,4
18069,Orefield,Pennsylvania,PA,Lehigh,77,,,40.6248,-75.5974,4
18078,Schnecksville,Pennsylvania,PA,Lehigh,77,,,40.6819,-75.6239,4
18079,Slatedale,Pennsylvania,PA,Lehigh,77,,,40.7455,-75.6592,4
18080,Slatington,Pennsylvania,PA,Lehigh,77,,,40.7345,-75.6186,4
18087,Trexlertown,Pennsylvania,PA,Lehigh,77,,,40.5482,-75.5961,4
18092,Zionsville,Pennsylvania,PA,Lehigh,77,,,40.4734,-75.5261,4
18098,Emmaus,Pennsylvania,PA,Lehigh,77,,,40.5395,-75.4969,4
18099,Emmaus,Pennsylvania,PA,Lehigh,77,,,40.5395,-75.4969,4
18101,Allentown,Pennsylvania,PA,Lehigh,77,,,40.6026,-75.4691,4
18102,Allentown,Pennsylvania,PA,Lehigh,77,,,40.6068,-75.4781,4
18103,Allentown,Pennsylvania,PA,Lehigh,77,,,40.5891,-75.4645,4
18104,Allentown,Pennsylvania,PA,Lehigh,77,,,40.6018,-75.5225,4
18105,Allentown,Pennsylvania,PA,Lehigh,77,,,40.6084,-75.4902,4
18106,Allentown,Pennsylvania,PA,Lehigh,77,,,40.5824,-75.5911,4
18109,Allentown,Pennsylvania,PA,Lehigh,77,,,40.6366,-75.4405,4
18195,Allentown,Pennsylvania,PA,Lehigh,77,,,40.5843,-75.6248,4
18201,Hazleton,Pennsylvania,PA,Luzerne,79,,,40.9488,-75.9563,4
18202,Hazleton,Pennsylvania,PA,Luzerne,79,,,40.9506,-76.0487,4
18219,Conyngham,Pennsylvania,PA,Luzerne,79,,,40.9907,-76.0564,4
18221,Drifton,Pennsylvania,PA,Luzerne,79,,,41.0016,-75.9057,4
18222,Drums,Pennsylvania,PA,Luzerne,79,,,41.0255,-75.9768,4
18223,Ebervale,Pennsylvania,PA,Luzerne,79,,,40.9862,-75.9413,4
18224,Freeland,Pennsylvania,PA,Luzerne,79,,,41.0196,-75.888,4
18225,Harleigh,Pennsylvania,PA,Luzerne,79,,,40.9806,-75.9713,4
18234,Lattimer Mines,Pennsylvania,PA,Luzerne,79,,,40.9925,-75.9626,1
18239,Milnesville,Pennsylvania,PA,Luzerne,79,,,40.9961,-75.9815,4
18246,Rock Glen,Pennsylvania,PA,Luzerne,79,,,40.9654,-76.1844,4
18247,Saint Johns,Pennsylvania,PA,Luzerne,79,,,41.0281,-76.006,4
18249,Sugarloaf,Pennsylvania,PA,Luzerne,79,,,40.9971,-76.0717,1
18251,Sybertsville,Pennsylvania,PA,Luzerne,79,,,41.0015,-76.0763,4
18256,Weston,Pennsylvania,PA,Luzerne,79,,,40.9448,-76.1452,4
18601,Beach Haven,Pennsylvania,PA,Luzerne,79,,,41.0684,-76.1758,4
18602,Bear Creek,Pennsylvania,PA,Luzerne,79,,,41.1922,-75.7161,1
18611,Cambra,Pennsylvania,PA,Luzerne,79,,,41.1981,-76.3058,4
18612,Dallas,Pennsylvania,PA,Luzerne,79,,,41.3494,-75.9834,4
18617,Glen Lyon,Pennsylvania,PA,Luzerne,79,,,41.1746,-76.0746,4
18618,Harveys Lake,Pennsylvania,PA,Luzerne,79,,,41.3592,-76.0451,4
18621,Hunlock Creek,Pennsylvania,PA,Luzerne,79,,,41.2459,-76.0879,4
18622,Huntington Mills,Pennsylvania,PA,Luzerne,79,,,41.1906,-76.2335,4
18627,Lehman,Pennsylvania,PA,Luzerne,79,,,41.3166,-76.021,4
18634,Nanticoke,Pennsylvania,PA,Luzerne,79,,,41.1963,-76.0044,4
18635,Nescopeck,Pennsylvania,PA,Luzerne,79,,,41.0469,-76.1981,4
18640,Pittston,Pennsylvania,PA,Luzerne,79,,,41.3175,-75.7885,4
18641,Pittston,Pennsylvania,PA,Luzerne,79,,,41.3361,-75.7304,4
18642,Duryea,Pennsylvania,PA,Luzerne,79,,,41.3486,-75.7611,4
18643,Pittston,Pennsylvania,PA,Luzerne,79,,,41.3665,-75.8362,4
18644,Wyoming,Pennsylvania,PA,Luzerne,79,,,41.3197,-75.8541,4
18651,Plymouth,Pennsylvania,PA,Luzerne,79,,,41.2458,-75.9481,4
18654,Shawanese,Pennsylvania,PA,Luzerne,79,,,41.3501,-76.0319,4
18655,Shickshinny,Pennsylvania,PA,Luzerne,79,,,41.1513,-76.1081,4
18656,Sweet Valley,Pennsylvania,PA,Luzerne,79,,,41.3066,-76.1339,4
18660,Wapwallopen,Pennsylvania,PA,Luzerne,79,,,41.068,-76.0857,4
18661,White Haven,Pennsylvania,PA,Luzerne,79,,,41.079,-75.7715,4
18690,Dallas,Pennsylvania,PA,Luzerne,79,,,41.3362,-75.9633,4
18701,Wilkes Barre,Pennsylvania,PA,Luzerne,79,,,41.2436,-75.885,4
18702,Wilkes Barre,Pennsylvania,PA,Luzerne,79,,,41.2208,-75.7736,4
18703,Wilkes Barre,Pennsylvania,PA,Luzerne,79,,,41.2421,-75.8857,4
18704,Kingston,Pennsylvania,PA,Luzerne,79,,,41.2742,-75.8903,4
18705,Wilkes Barre,Pennsylvania,PA,Luzerne,79,,,41.2689,-75.8453,4
18706,Wilkes Barre,Pennsylvania,PA,Luzerne,79,,,41.2044,-75.9113,4
18707,Mountain Top,Pennsylvania,PA,Luzerne,79,,,41.135,-75.9376,4
18708,Shavertown,Pennsylvania,PA,Luzerne,79,,,41.2998,-75.9711,4
18709,Luzerne,Pennsylvania,PA,Luzerne,79,,,41.2843,-75.8935,4
18710,Wilkes Barre,Pennsylvania,PA,Luzerne,79,,,41.2722,-75.8801,4
18711,Wilkes Barre,Pennsylvania,PA,Luzerne,79,,,41.2722,-75.8801,4
18762,Wilkes Barre,Pennsylvania,PA,Luzerne,79,,,41.2722,-75.8801,4
18764,Wilkes Barre,Pennsylvania,PA,Luzerne,79,,,41.2722,-75.8801,4
18765,Wilkes Barre,Pennsylvania,PA,Luzerne,79,,,41.2722,-75.8801,4
18766,Wilkes Barre,Pennsylvania,PA,Luzerne,79,,,41.2448,-75.8896,4
18767,Wilkes Barre,Pennsylvania,PA,Luzerne,79,,,41.2722,-75.8801,4
18769,Wilkes Barre,Pennsylvania,PA,Luzerne,79,,,41.2722,-75.8801,4
18773,Wilkes Barre,Pennsylvania,PA,Luzerne,79,,,41.2722,-75.8801,4
17701,Williamsport,Pennsylvania,PA,Lycoming,81,,,41.2412,-77.0011,4
17702,Williamsport,Pennsylvania,PA,Lycoming,81,,,41.1943,-77.0547,4
17703,Williamsport,Pennsylvania,PA,Lycoming,81,,,41.2412,-77.0011,4
17705,Williamsport,Pennsylvania,PA,Lycoming,81,,,41.3327,-77.0236,4
17720,Antes Fort,Pennsylvania,PA,Lycoming,81,,,41.1865,-77.2184,4
17723,Jersey Shore,Pennsylvania,PA,Lycoming,81,,,41.432,-77.4562,4
17727,Cedar Run,Pennsylvania,PA,Lycoming,81,,,41.5299,-77.4917,4
17728,Cogan Station,Pennsylvania,PA,Lycoming,81,,,41.3152,-77.069,1
17737,Hughesville,Pennsylvania,PA,Lycoming,81,,,41.256,-76.7141,4
17739,Jersey Mills,Pennsylvania,PA,Lycoming,81,,,41.3573,-77.4066,4
17740,Jersey Shore,Pennsylvania,PA,Lycoming,81,,,41.247,-77.2706,4
17742,Lairdsville,Pennsylvania,PA,Lycoming,81,,,41.2359,-76.605,4
17744,Linden,Pennsylvania,PA,Lycoming,81,,,41.2472,-77.1527,4
17752,Montgomery,Pennsylvania,PA,Lycoming,81,,,41.1788,-76.8839,4
17754,Montoursville,Pennsylvania,PA,Lycoming,81,,,41.2663,-76.903,4
17756,Muncy,Pennsylvania,PA,Lycoming,81,,,41.2137,-76.7633,4
17762,Picture Rocks,Pennsylvania,PA,Lycoming,81,,,41.2798,-76.713,4
17763,Ralston,Pennsylvania,PA,Lycoming,81,,,41.5038,-76.9583,4
17769,Slate Run,Pennsylvania,PA,Lycoming,81,,,41.4728,-77.5016,4
17771,Trout Run,Pennsylvania,PA,Lycoming,81,,,41.4125,-77.0098,4
17774,Unityville,Pennsylvania,PA,Lycoming,81,,,41.2436,-76.5183,4
17776,Waterville,Pennsylvania,PA,Lycoming,81,,,41.3114,-77.3604,4
16333,Ludlow,Pennsylvania,PA,McKean,83,,,41.7284,-78.9434,4
16701,Bradford,Pennsylvania,PA,McKean,83,,,41.9547,-78.654,4
16724,Crosby,Pennsylvania,PA,McKean,83,,,41.7451,-78.3903,4
16725,Custer City,Pennsylvania,PA,McKean,83,,,41.9059,-78.6517,4
16726,Cyclone,Pennsylvania,PA,McKean,83,,,41.8186,-78.5957,4
16727,Derrick City,Pennsylvania,PA,McKean,83,,,41.9726,-78.5626,4
16729,Duke Center,Pennsylvania,PA,McKean,83,,,41.954,-78.4923,4
16730,East Smethport,Pennsylvania,PA,McKean,83,,,41.8087,-78.4195,4
16731,Eldred,Pennsylvania,PA,McKean,83,,,41.9489,-78.3884,4
16732,Gifford,Pennsylvania,PA,McKean,83,,,41.8581,-78.5964,4
16733,Hazel Hurst,Pennsylvania,PA,McKean,83,,,41.7059,-78.5825,4
16735,Kane,Pennsylvania,PA,McKean,83,,,41.6619,-78.7978,4
16738,Lewis Run,Pennsylvania,PA,McKean,83,,,41.8211,-78.6805,4
16740,Mount Jewett,Pennsylvania,PA,McKean,83,,,41.7247,-78.6446,4
16743,Port Allegany,Pennsylvania,PA,McKean,83,,,41.8169,-78.2799,4
16744,Rew,Pennsylvania,PA,McKean,83,,,41.9015,-78.5392,4
16745,Rixford,Pennsylvania,PA,McKean,83,,,41.9262,-78.4942,4
16749,Smethport,Pennsylvania,PA,McKean,83,,,41.8021,-78.4702,4
16750,Turtlepoint,Pennsylvania,PA,McKean,83,,,41.8847,-78.3308,4
16113,Clark,Pennsylvania,PA,Mercer,85,,,41.2866,-80.4237,4
16114,Clarks Mills,Pennsylvania,PA,Mercer,85,,,41.3931,-80.1837,4
16121,Farrell,Pennsylvania,PA,Mercer,85,,,41.211,-80.4944,4
16124,Fredonia,Pennsylvania,PA,Mercer,85,,,41.3241,-80.2699,4
16125,Greenville,Pennsylvania,PA,Mercer,85,,,41.4057,-80.3739,4
16127,Grove City,Pennsylvania,PA,Mercer,85,,,41.1607,-80.0841,4
16130,Hadley,Pennsylvania,PA,Mercer,85,,,41.4432,-80.2153,4
16133,Jackson Center,Pennsylvania,PA,Mercer,85,,,41.2801,-80.1037,4
16134,Jamestown,Pennsylvania,PA,Mercer,85,,,41.4566,-80.4492,4
16137,Mercer,Pennsylvania,PA,Mercer,85,,,41.2325,-80.234,4
16145,Sandy Lake,Pennsylvania,PA,Mercer,85,,,41.3383,-80.0497,4
16146,Sharon,Pennsylvania,PA,Mercer,85,,,41.2316,-80.4993,4
16148,Hermitage,Pennsylvania,PA,Mercer,85,,,41.2326,-80.453,4
16150,Sharpsville,Pennsylvania,PA,Mercer,85,,,41.2676,-80.4656,4
16151,Sheakleyville,Pennsylvania,PA,Mercer,85,,,41.4435,-80.2055,4
16153,Stoneboro,Pennsylvania,PA,Mercer,85,,,41.3439,-80.0976,4
16154,Transfer,Pennsylvania,PA,Mercer,85,,,41.3244,-80.4197,4
16159,West Middlesex,Pennsylvania,PA,Mercer,85,,,41.1741,-80.4528,4
16161,Wheatland,Pennsylvania,PA,Mercer,85,,,41.2009,-80.4978,4
16311,Carlton,Pennsylvania,PA,Mercer,85,,,41.4815,-80.0203,4
17002,Allensville,Pennsylvania,PA,Mifflin,87,,,40.5075,-77.8392,4
17004,Belleville,Pennsylvania,PA,Mifflin,87,,,40.6016,-77.7358,4
17009,Burnham,Pennsylvania,PA,Mifflin,87,,,40.6361,-77.5625,4
17029,Granville,Pennsylvania,PA,Mifflin,87,,,40.5537,-77.6255,4
17044,Lewistown,Pennsylvania,PA,Mifflin,87,,,40.5994,-77.5756,4
17051,Mc Veytown,Pennsylvania,PA,Mifflin,87,,,40.5046,-77.7186,1
17054,Mattawana,Pennsylvania,PA,Mifflin,87,,,40.496,-77.7237,4
17063,Milroy,Pennsylvania,PA,Mifflin,87,,,40.7203,-77.5567,4
17075,Newton Hamilton,Pennsylvania,PA,Mifflin,87,,,40.3931,-77.8316,4
17084,Reedsville,Pennsylvania,PA,Mifflin,87,,,40.6722,-77.6116,4
17099,Yeagertown,Pennsylvania,PA,Mifflin,87,,,40.6431,-77.5805,4
18058,Kunkletown,Pennsylvania,PA,Monroe,89,,,40.8999,-75.476,4
18301,East Stroudsburg,Pennsylvania,PA,Monroe,89,,,41.0367,-75.1735,4
18320,Analomink,Pennsylvania,PA,Monroe,89,,,41.0712,-75.2364,4
18321,Bartonsville,Pennsylvania,PA,Monroe,89,,,41.008,-75.2967,4
18322,Brodheadsville,Pennsylvania,PA,Monroe,89,,,40.9309,-75.4104,4
18323,Buck Hill Falls,Pennsylvania,PA,Monroe,89,,,41.1879,-75.2657,4
18325,Canadensis,Pennsylvania,PA,Monroe,89,,,41.2338,-75.2573,4
18326,Cresco,Pennsylvania,PA,Monroe,89,,,41.154,-75.2805,4
18327,Delaware Water Gap,Pennsylvania,PA,Monroe,89,,,40.9793,-75.143,4
18330,Effort,Pennsylvania,PA,Monroe,89,,,40.9669,-75.4523,4
18331,Gilbert,Pennsylvania,PA,Monroe,89,,,40.9089,-75.4314,4
18332,Henryville,Pennsylvania,PA,Monroe,89,,,41.0889,-75.2798,4
18333,Kresgeville,Pennsylvania,PA,Monroe,89,,,40.8982,-75.5074,4
18334,Long Pond,Pennsylvania,PA,Monroe,89,,,41.0677,-75.4482,4
18335,Marshalls Creek,Pennsylvania,PA,Monroe,89,,,41.0508,-75.2083,4
18341,Minisink Hills,Pennsylvania,PA,Monroe,89,,,41.0004,-75.1371,4
18342,Mountainhome,Pennsylvania,PA,Monroe,89,,,41.1737,-75.271,4
18344,Mount Pocono,Pennsylvania,PA,Monroe,89,,,41.1216,-75.3529,4
18346,Pocono Summit,Pennsylvania,PA,Monroe,89,,,41.1353,-75.4079,4
18347,Pocono Lake,Pennsylvania,PA,Monroe,89,,,41.1187,-75.5559,4
18348,Pocono Lake Preserve,Pennsylvania,PA,Monroe,89,,,41.0338,-75.308,1
18349,Pocono Manor,Pennsylvania,PA,Monroe,89,,,41.1001,-75.3588,4
18350,Pocono Pines,Pennsylvania,PA,Monroe,89,,,41.1054,-75.476,4
18352,Reeders,Pennsylvania,PA,Monroe,89,,,41.019,-75.336,4
18353,Saylorsburg,Pennsylvania,PA,Monroe,89,,,40.8965,-75.367,4
18354,Sciota,Pennsylvania,PA,Monroe,89,,,40.9257,-75.325,4
18355,Scotrun,Pennsylvania,PA,Monroe,89,,,41.0751,-75.3265,4
18356,Shawnee On Delaware,Pennsylvania,PA,Monroe,89,,,41.0123,-75.1107,4
18357,Skytop,Pennsylvania,PA,Monroe,89,,,41.2336,-75.2389,4
18360,Stroudsburg,Pennsylvania,PA,Monroe,89,,,40.9877,-75.2485,4
18370,Swiftwater,Pennsylvania,PA,Monroe,89,,,41.0879,-75.3483,4
18372,Tannersville,Pennsylvania,PA,Monroe,89,,,41.0472,-75.3244,4
18466,Tobyhanna,Pennsylvania,PA,Monroe,89,,,41.1836,-75.3918,4
18610,Blakeslee,Pennsylvania,PA,Monroe,89,,,41.0485,-75.5343,4
18041,East Greenville,Pennsylvania,PA,Montgomery,91,,,40.4119,-75.5056,4
18054,Green Lane,Pennsylvania,PA,Montgomery,91,,,40.3534,-75.4351,4
18070,Palm,Pennsylvania,PA,Montgomery,91,,,40.4317,-75.5331,4
18073,Pennsburg,Pennsylvania,PA,Montgomery,91,,,40.3911,-75.4866,4
18074,Perkiomenville,Pennsylvania,PA,Montgomery,91,,,40.3157,-75.5022,4
18076,Red Hill,Pennsylvania,PA,Montgomery,91,,,40.3758,-75.4846,4
18084,Sumneytown,Pennsylvania,PA,Montgomery,91,,,40.3278,-75.454,4
18915,Colmar,Pennsylvania,PA,Montgomery,91,,,40.2728,-75.2563,4
18918,Earlington,Pennsylvania,PA,Montgomery,91,,,40.32,-75.3742,4
18924,Franconia,Pennsylvania,PA,Montgomery,91,,,40.3081,-75.3586,4
18936,Montgomeryville,Pennsylvania,PA,Montgomery,91,,,40.2241,-75.231,4
18957,Salford,Pennsylvania,PA,Montgomery,91,,,40.3029,-75.4486,4
18958,Salfordville,Pennsylvania,PA,Montgomery,91,,,40.2904,-75.4355,4
18964,Souderton,Pennsylvania,PA,Montgomery,91,,,40.2884,-75.341,4
18969,Telford,Pennsylvania,PA,Montgomery,91,,,40.3205,-75.352,4
18971,Tylersport,Pennsylvania,PA,Montgomery,91,,,40.347,-75.377,4
18979,Woxall,Pennsylvania,PA,Montgomery,91,,,40.3107,-75.4488,4
19001,Abington,Pennsylvania,PA,Montgomery,91,,,40.1238,-75.1148,4
19002,Ambler,Pennsylvania,PA,Montgomery,91,,,40.1809,-75.2156,4
19004,Bala Cynwyd,Pennsylvania,PA,Montgomery,91,,,40.0118,-75.2342,4
19006,Huntingdon Valley,Pennsylvania,PA,Montgomery,91,,,40.1284,-75.0607,4
19009,Bryn Athyn,Pennsylvania,PA,Montgomery,91,,,40.135,-75.0623,4
19012,Cheltenham,Pennsylvania,PA,Montgomery,91,,,40.0603,-75.1048,4
19025,Dresher,Pennsylvania,PA,Montgomery,91,,,40.1431,-75.1624,4
19027,Elkins Park,Pennsylvania,PA,Montgomery,91,,,40.075,-75.1315,4
19031,Flourtown,Pennsylvania,PA,Montgomery,91,,,40.1068,-75.2115,4
19034,Fort Washington,Pennsylvania,PA,Montgomery,91,,,40.1386,-75.2022,4
19035,Gladwyne,Pennsylvania,PA,Montgomery,91,,,40.0451,-75.2821,4
19038,Glenside,Pennsylvania,PA,Montgomery,91,,,40.1096,-75.155,4
19040,Hatboro,Pennsylvania,PA,Montgomery,91,,,40.1785,-75.1072,4
19044,Horsham,Pennsylvania,PA,Montgomery,91,,,40.1821,-75.1479,4
19046,Jenkintown,Pennsylvania,PA,Montgomery,91,,,40.098,-75.1078,4
19066,Merion Station,Pennsylvania,PA,Montgomery,91,,,40.003,-75.2503,1
19072,Narberth,Pennsylvania,PA,Montgomery,91,,,40.0177,-75.2594,4
19075,Oreland,Pennsylvania,PA,Montgomery,91,,,40.1132,-75.1869,4
19090,Willow Grove,Pennsylvania,PA,Montgomery,91,,,40.1567,-75.1269,4
19095,Wyncote,Pennsylvania,PA,Montgomery,91,,,40.0867,-75.1524,4
19096,Wynnewood,Pennsylvania,PA,Montgomery,91,,,40,-75.276,4
19126,Philadelphia,Pennsylvania,PA,Montgomery,91,,,40.0568,-75.1379,4
19401,Norristown,Pennsylvania,PA,Montgomery,91,,,40.1245,-75.3304,4
19403,Norristown,Pennsylvania,PA,Montgomery,91,,,40.1496,-75.3796,4
19404,Norristown,Pennsylvania,PA,Montgomery,91,,,40.2119,-75.3559,4
19405,Bridgeport,Pennsylvania,PA,Montgomery,91,,,40.103,-75.3402,4
19406,King Of Prussia,Pennsylvania,PA,Montgomery,91,,,40.0956,-75.3737,4
19407,Audubon,Pennsylvania,PA,Montgomery,91,,,40.2119,-75.3559,4
19408,Eagleville,Pennsylvania,PA,Montgomery,91,,,40.1566,-75.4131,4
19409,Fairview Village,Pennsylvania,PA,Montgomery,91,,,40.1579,-75.3871,4
19415,Eagleville,Pennsylvania,PA,Montgomery,91,,,40.1572,-75.406,4
19422,Blue Bell,Pennsylvania,PA,Montgomery,91,,,40.1576,-75.2799,4
19423,Cedars,Pennsylvania,PA,Montgomery,91,,,40.2174,-75.365,4
19424,Blue Bell,Pennsylvania,PA,Montgomery,91,,,40.1523,-75.2663,4
19426,Collegeville,Pennsylvania,PA,Montgomery,91,,,40.1913,-75.4373,4
19428,Conshohocken,Pennsylvania,PA,Montgomery,91,,,40.0825,-75.3044,4
19429,Conshohocken,Pennsylvania,PA,Montgomery,91,,,40.0793,-75.3016,4
19430,Creamery,Pennsylvania,PA,Montgomery,91,,,40.1851,-75.42,4
19435,Frederick,Pennsylvania,PA,Montgomery,91,,,40.3275,-75.5692,4
19436,Gwynedd,Pennsylvania,PA,Montgomery,91,,,40.2021,-75.2507,4
19437,Gwynedd Valley,Pennsylvania,PA,Montgomery,91,,,40.1811,-75.2579,4
19438,Harleysville,Pennsylvania,PA,Montgomery,91,,,40.2659,-75.3883,4
19440,Hatfield,Pennsylvania,PA,Montgomery,91,,,40.2778,-75.2975,4
19441,Harleysville,Pennsylvania,PA,Montgomery,91,,,40.2795,-75.3871,4
19443,Kulpsville,Pennsylvania,PA,Montgomery,91,,,40.241,-75.3439,4
19444,Lafayette Hill,Pennsylvania,PA,Montgomery,91,,,40.0896,-75.2601,1
19446,Lansdale,Pennsylvania,PA,Montgomery,91,,,40.2378,-75.2955,4
19450,Lederach,Pennsylvania,PA,Montgomery,91,,,40.2119,-75.3559,4
19451,Mainland,Pennsylvania,PA,Montgomery,91,,,40.2119,-75.3559,4
19453,Mont Clare,Pennsylvania,PA,Montgomery,91,,,40.1364,-75.4999,4
19454,North Wales,Pennsylvania,PA,Montgomery,91,,,40.2166,-75.2565,4
19455,North Wales,Pennsylvania,PA,Montgomery,91,,,40.2109,-75.2782,4
19456,Oaks,Pennsylvania,PA,Montgomery,91,,,40.1318,-75.4596,4
19462,Plymouth Meeting,Pennsylvania,PA,Montgomery,91,,,40.1077,-75.2796,4
19464,Pottstown,Pennsylvania,PA,Montgomery,91,,,40.2635,-75.6172,4
19468,Royersford,Pennsylvania,PA,Montgomery,91,,,40.2075,-75.5329,4
19472,Sassamansville,Pennsylvania,PA,Montgomery,91,,,40.3448,-75.5775,4
19473,Schwenksville,Pennsylvania,PA,Montgomery,91,,,40.2471,-75.4602,4
19474,Skippack,Pennsylvania,PA,Montgomery,91,,,40.2251,-75.4031,4
19477,Spring House,Pennsylvania,PA,Montgomery,91,,,40.1839,-75.2327,4
19478,Spring Mount,Pennsylvania,PA,Montgomery,91,,,40.2759,-75.4618,4
19484,Valley Forge,Pennsylvania,PA,Montgomery,91,,,40.2119,-75.3559,1
19486,West Point,Pennsylvania,PA,Montgomery,91,,,40.2033,-75.3019,4
19490,Worcester,Pennsylvania,PA,Montgomery,91,,,40.1929,-75.3576,4
19492,Zieglerville,Pennsylvania,PA,Montgomery,91,,,40.2901,-75.503,1
19525,Gilbertsville,Pennsylvania,PA,Montgomery,91,,,40.3059,-75.5953,4
17821,Danville,Pennsylvania,PA,Montour,93,,,40.9799,-76.6229,4
17822,Danville,Pennsylvania,PA,Montour,93,,,40.9674,-76.6049,4
17884,Washingtonville,Pennsylvania,PA,Montour,93,,,41.0518,-76.6747,4
18001,Lehigh Valley,Pennsylvania,PA,Northampton,95,,,40.6934,-75.4712,1
18002,Lehigh Valley,Pennsylvania,PA,Northampton,95,,,40.6656,-75.4262,1
18003,Lehigh Valley,Pennsylvania,PA,Northampton,95,,,40.6934,-75.4712,1
18013,Bangor,Pennsylvania,PA,Northampton,95,,,40.853,-75.1718,4
18014,Bath,Pennsylvania,PA,Northampton,95,,,40.7551,-75.4086,4
18015,Bethlehem,Pennsylvania,PA,Northampton,95,,,40.6002,-75.3805,4
18016,Bethlehem,Pennsylvania,PA,Northampton,95,,,40.6934,-75.4712,4
18017,Bethlehem,Pennsylvania,PA,Northampton,95,,,40.6622,-75.3903,4
18018,Bethlehem,Pennsylvania,PA,Northampton,95,,,40.6278,-75.3928,4
18020,Bethlehem,Pennsylvania,PA,Northampton,95,,,40.6693,-75.3349,4
18035,Cherryville,Pennsylvania,PA,Northampton,95,,,40.751,-75.5394,4
18038,Danielsville,Pennsylvania,PA,Northampton,95,,,40.7866,-75.5186,4
18040,Easton,Pennsylvania,PA,Northampton,95,,,40.7449,-75.2217,4
18042,Easton,Pennsylvania,PA,Northampton,95,,,40.6516,-75.224,4
18043,Easton,Pennsylvania,PA,Northampton,95,,,40.6884,-75.2207,4
18044,Easton,Pennsylvania,PA,Northampton,95,,,40.6884,-75.2207,4
18045,Easton,Pennsylvania,PA,Northampton,95,,,40.6957,-75.2865,4
18055,Hellertown,Pennsylvania,PA,Northampton,95,,,40.5817,-75.3255,4
18063,Martins Creek,Pennsylvania,PA,Northampton,95,,,40.7825,-75.1735,4
18064,Nazareth,Pennsylvania,PA,Northampton,95,,,40.745,-75.3199,4
18067,Northampton,Pennsylvania,PA,Northampton,95,,,40.6998,-75.4874,4
18072,Pen Argyl,Pennsylvania,PA,Northampton,95,,,40.8518,-75.2701,4
18083,Stockertown,Pennsylvania,PA,Northampton,95,,,40.754,-75.2621,4
18085,Tatamy,Pennsylvania,PA,Northampton,95,,,40.7406,-75.2549,4
18086,Treichlers,Pennsylvania,PA,Northampton,95,,,40.7361,-75.5449,4
18088,Walnutport,Pennsylvania,PA,Northampton,95,,,40.7615,-75.5657,4
18091,Wind Gap,Pennsylvania,PA,Northampton,95,,,40.8169,-75.3264,4
18343,Mount Bethel,Pennsylvania,PA,Northampton,95,,,40.9008,-75.1115,4
18351,Portland,Pennsylvania,PA,Northampton,95,,,40.9214,-75.097,4
17017,Dalmatia,Pennsylvania,PA,Northumberland,97,,,40.6483,-76.8797,4
17730,Dewart,Pennsylvania,PA,Northumberland,97,,,41.1092,-76.8766,4
17749,Mc Ewensville,Pennsylvania,PA,Northumberland,97,,,41.072,-76.8184,1
17772,Turbotville,Pennsylvania,PA,Northumberland,97,,,41.1119,-76.7425,4
17777,Watsontown,Pennsylvania,PA,Northumberland,97,,,41.102,-76.8532,4
17801,Sunbury,Pennsylvania,PA,Northumberland,97,,,40.8551,-76.7776,4
17823,Dornsife,Pennsylvania,PA,Northumberland,97,,,40.7571,-76.7626,4
17824,Elysburg,Pennsylvania,PA,Northumberland,97,,,40.8639,-76.5569,4
17830,Herndon,Pennsylvania,PA,Northumberland,97,,,40.6918,-76.8008,4
17832,Marion Heights,Pennsylvania,PA,Northumberland,97,,,40.8046,-76.4651,4
17834,Kulpmont,Pennsylvania,PA,Northumberland,97,,,40.7933,-76.4744,4
17836,Leck Kill,Pennsylvania,PA,Northumberland,97,,,40.7101,-76.6271,4
17840,Locust Gap,Pennsylvania,PA,Northumberland,97,,,40.7727,-76.4383,4
17847,Milton,Pennsylvania,PA,Northumberland,97,,,41.0168,-76.8398,4
17850,Montandon,Pennsylvania,PA,Northumberland,97,,,40.9661,-76.8575,4
17851,Mount Carmel,Pennsylvania,PA,Northumberland,97,,,40.7955,-76.4195,4
17857,Northumberland,Pennsylvania,PA,Northumberland,97,,,40.9044,-76.7908,4
17860,Paxinos,Pennsylvania,PA,Northumberland,97,,,40.8448,-76.635,4
17865,Potts Grove,Pennsylvania,PA,Northumberland,97,,,40.9937,-76.7891,4
17866,Coal Township,Pennsylvania,PA,Northumberland,97,,,40.7917,-76.5519,1
17867,Rebuck,Pennsylvania,PA,Northumberland,97,,,40.7141,-76.6886,4
17868,Riverside,Pennsylvania,PA,Northumberland,97,,,40.9529,-76.6311,4
17872,Shamokin,Pennsylvania,PA,Northumberland,97,,,40.789,-76.5588,4
17877,Snydertown,Pennsylvania,PA,Northumberland,97,,,40.879,-76.6673,4
17881,Trevorton,Pennsylvania,PA,Northumberland,97,,,40.7819,-76.6702,4
17006,Blain,Pennsylvania,PA,Perry,99,,,40.3293,-77.5117,4
17020,Duncannon,Pennsylvania,PA,Perry,99,,,40.4087,-77.0473,4
17024,Elliottsburg,Pennsylvania,PA,Perry,99,,,40.4096,-77.3121,4
17037,Ickesburg,Pennsylvania,PA,Perry,99,,,40.4363,-77.397,4
17040,Landisburg,Pennsylvania,PA,Perry,99,,,40.3326,-77.3191,4
17045,Liverpool,Pennsylvania,PA,Perry,99,,,40.5753,-77.0083,4
17047,Loysville,Pennsylvania,PA,Perry,99,,,40.3658,-77.4138,4
17053,Marysville,Pennsylvania,PA,Perry,99,,,40.3351,-76.9722,4
17062,Millerstown,Pennsylvania,PA,Perry,99,,,40.5505,-77.1298,4
17068,New Bloomfield,Pennsylvania,PA,Perry,99,,,40.4193,-77.1938,4
17069,New Buffalo,Pennsylvania,PA,Perry,99,,,40.4543,-76.9697,4
17071,New Germantown,Pennsylvania,PA,Perry,99,,,40.309,-77.5697,4
17074,Newport,Pennsylvania,PA,Perry,99,,,40.4827,-77.1659,4
17090,Shermans Dale,Pennsylvania,PA,Perry,99,,,40.3299,-77.1809,4
19019,Philadelphia,Pennsylvania,PA,Philadelphia,101,,,40.0018,-75.1179,4
19092,Philadelphia,Pennsylvania,PA,Philadelphia,101,,,40.0018,-75.1179,4
19093,Philadelphia,Pennsylvania,PA,Philadelphia,101,,,40.0018,-75.1179,4
19099,Philadelphia,Pennsylvania,PA,Philadelphia,101,,,39.9523,-75.1638,4
19101,Philadelphia,Pennsylvania,PA,Philadelphia,101,,,40.0018,-75.1179,4
19102,Philadelphia,Pennsylvania,PA,Philadelphia,101,,,39.9489,-75.1661,4
19103,Philadelphia,Pennsylvania,PA,Philadelphia,101,,,39.9513,-75.1741,4
19104,Philadelphia,Pennsylvania,PA,Philadelphia,101,,,39.9597,-75.2024,4
19105,Philadelphia,Pennsylvania,PA,Philadelphia,101,,,39.9523,-75.1638,4
19106,Philadelphia,Pennsylvania,PA,Philadelphia,101,,,39.9474,-75.1473,4
19107,Philadelphia,Pennsylvania,PA,Philadelphia,101,,,39.9487,-75.1593,4
19108,Philadelphia,Pennsylvania,PA,Philadelphia,101,,,39.9598,-75.1616,4
19109,Philadelphia,Pennsylvania,PA,Philadelphia,101,,,39.9496,-75.1637,4
19110,Philadelphia,Pennsylvania,PA,Philadelphia,101,,,39.9502,-75.1636,4
19111,Philadelphia,Pennsylvania,PA,Philadelphia,101,,,40.0596,-75.0818,4
19112,Philadelphia,Pennsylvania,PA,Philadelphia,101,,,39.8893,-75.1782,4
19114,Philadelphia,Pennsylvania,PA,Philadelphia,101,,,40.0634,-74.999,4
19115,Philadelphia,Pennsylvania,PA,Philadelphia,101,,,40.0903,-75.041,4
19116,Philadelphia,Pennsylvania,PA,Philadelphia,101,,,40.1166,-75.0198,4
19118,Philadelphia,Pennsylvania,PA,Philadelphia,101,,,40.0723,-75.2034,4
19119,Philadelphia,Pennsylvania,PA,Philadelphia,101,,,40.0547,-75.1866,4
19120,Philadelphia,Pennsylvania,PA,Philadelphia,101,,,40.0343,-75.1213,4
19121,Philadelphia,Pennsylvania,PA,Philadelphia,101,,,39.9811,-75.174,4
19122,Philadelphia,Pennsylvania,PA,Philadelphia,101,,,39.978,-75.1459,4
19123,Philadelphia,Pennsylvania,PA,Philadelphia,101,,,39.966,-75.151,4
19124,Philadelphia,Pennsylvania,PA,Philadelphia,101,,,40.0178,-75.0895,4
19125,Philadelphia,Pennsylvania,PA,Philadelphia,101,,,39.9788,-75.1262,4
19127,Philadelphia,Pennsylvania,PA,Philadelphia,101,,,40.0275,-75.2242,4
19128,Philadelphia,Pennsylvania,PA,Philadelphia,101,,,40.0402,-75.2231,4
19129,Philadelphia,Pennsylvania,PA,Philadelphia,101,,,40.0118,-75.1861,4
19130,Philadelphia,Pennsylvania,PA,Philadelphia,101,,,39.9677,-75.1735,4
19131,Philadelphia,Pennsylvania,PA,Philadelphia,101,,,39.9845,-75.2282,4
19132,Philadelphia,Pennsylvania,PA,Philadelphia,101,,,39.9954,-75.1698,4
19133,Philadelphia,Pennsylvania,PA,Philadelphia,101,,,39.9925,-75.1415,4
19134,Philadelphia,Pennsylvania,PA,Philadelphia,101,,,39.9925,-75.1133,4
19135,Philadelphia,Pennsylvania,PA,Philadelphia,101,,,40.0247,-75.0518,4
19136,Philadelphia,Pennsylvania,PA,Philadelphia,101,,,40.0422,-75.0244,4
19137,Philadelphia,Pennsylvania,PA,Philadelphia,101,,,40.0008,-75.0727,4
19138,Philadelphia,Pennsylvania,PA,Philadelphia,101,,,40.0568,-75.1569,4
19139,Philadelphia,Pennsylvania,PA,Philadelphia,101,,,39.9612,-75.2303,4
19140,Philadelphia,Pennsylvania,PA,Philadelphia,101,,,40.0118,-75.1456,4
19141,Philadelphia,Pennsylvania,PA,Philadelphia,101,,,40.0365,-75.1451,4
19142,Philadelphia,Pennsylvania,PA,Philadelphia,101,,,39.9223,-75.2338,4
19143,Philadelphia,Pennsylvania,PA,Philadelphia,101,,,39.9448,-75.2288,4
19144,Philadelphia,Pennsylvania,PA,Philadelphia,101,,,40.0338,-75.1731,4
19145,Philadelphia,Pennsylvania,PA,Philadelphia,101,,,39.9227,-75.1812,4
19146,Philadelphia,Pennsylvania,PA,Philadelphia,101,,,39.9379,-75.1794,4
19147,Philadelphia,Pennsylvania,PA,Philadelphia,101,,,39.9362,-75.1563,4
19148,Philadelphia,Pennsylvania,PA,Philadelphia,101,,,39.9207,-75.1595,4
19149,Philadelphia,Pennsylvania,PA,Philadelphia,101,,,40.0369,-75.0664,4
19150,Philadelphia,Pennsylvania,PA,Philadelphia,101,,,40.0726,-75.1706,4
19151,Philadelphia,Pennsylvania,PA,Philadelphia,101,,,39.9772,-75.2545,4
19152,Philadelphia,Pennsylvania,PA,Philadelphia,101,,,40.0606,-75.0471,4
19153,Philadelphia,Pennsylvania,PA,Philadelphia,101,,,39.9055,-75.2444,4
19154,Philadelphia,Pennsylvania,PA,Philadelphia,101,,,40.0897,-74.9781,4
19155,Philadelphia,Pennsylvania,PA,Philadelphia,101,,,40.0018,-75.1179,4
19160,Philadelphia,Pennsylvania,PA,Philadelphia,101,,,40.0018,-75.1179,4
19161,Philadelphia,Pennsylvania,PA,Philadelphia,101,,,40.0018,-75.1179,4
19162,Philadelphia,Pennsylvania,PA,Philadelphia,101,,,40.0018,-75.1179,4
19170,Philadelphia,Pennsylvania,PA,Philadelphia,101,,,40.0018,-75.1179,4
19171,Philadelphia,Pennsylvania,PA,Philadelphia,101,,,39.9523,-75.1638,4
19172,Philadelphia,Pennsylvania,PA,Philadelphia,101,,,39.9473,-75.15,4
19173,Philadelphia,Pennsylvania,PA,Philadelphia,101,,,39.9523,-75.1638,4
19175,Philadelphia,Pennsylvania,PA,Philadelphia,101,,,39.9906,-75.1296,4
19176,Philadelphia,Pennsylvania,PA,Philadelphia,101,,,39.9522,-75.1642,4
19177,Philadelphia,Pennsylvania,PA,Philadelphia,101,,,40.0018,-75.1179,4
19178,Philadelphia,Pennsylvania,PA,Philadelphia,101,,,40.0018,-75.1179,4
19179,Philadelphia,Pennsylvania,PA,Philadelphia,101,,,40.0018,-75.1179,4
19181,Philadelphia,Pennsylvania,PA,Philadelphia,101,,,40.0018,-75.1179,4
19182,Philadelphia,Pennsylvania,PA,Philadelphia,101,,,40.0018,-75.1179,4
19183,Philadelphia,Pennsylvania,PA,Philadelphia,101,,,39.9523,-75.1638,4
19184,Philadelphia,Pennsylvania,PA,Philadelphia,101,,,40.0018,-75.1179,4
19185,Philadelphia,Pennsylvania,PA,Philadelphia,101,,,40.0018,-75.1179,4
19187,Philadelphia,Pennsylvania,PA,Philadelphia,101,,,39.9523,-75.1638,4
19188,Philadelphia,Pennsylvania,PA,Philadelphia,101,,,40.0018,-75.1179,4
19190,Philadelphia,Pennsylvania,PA,Philadelphia,101,,,39.9484,-75.1442,4
19191,Philadelphia,Pennsylvania,PA,Philadelphia,101,,,39.9523,-75.1638,4
19192,Philadelphia,Pennsylvania,PA,Philadelphia,101,,,39.9511,-75.1676,4
19193,Philadelphia,Pennsylvania,PA,Philadelphia,101,,,40.0018,-75.1179,4
19194,Philadelphia,Pennsylvania,PA,Philadelphia,101,,,40.0018,-75.1179,4
19195,Philadelphia,Pennsylvania,PA,Philadelphia,101,,,39.9525,-75.1645,4
19196,Philadelphia,Pennsylvania,PA,Philadelphia,101,,,40.0018,-75.1179,4
19197,Philadelphia,Pennsylvania,PA,Philadelphia,101,,,40.0018,-75.1179,4
19244,Philadelphia,Pennsylvania,PA,Philadelphia,101,,,40.0018,-75.1179,4
19255,Philadelphia,Pennsylvania,PA,Philadelphia,101,,,40.0018,-75.1179,4
18302,East Stroudsburg,Pennsylvania,PA,Pike,103,,,41.0936,-75.1187,4
18324,Bushkill,Pennsylvania,PA,Pike,103,,,41.1285,-75.0132,4
18328,Dingmans Ferry,Pennsylvania,PA,Pike,103,,,41.24,-74.938,4
18336,Matamoras,Pennsylvania,PA,Pike,103,,,41.3674,-74.7154,4
18337,Milford,Pennsylvania,PA,Pike,103,,,41.3228,-74.8824,4
18340,Millrift,Pennsylvania,PA,Pike,103,,,41.4093,-74.7432,4
18371,Tamiment,Pennsylvania,PA,Pike,103,,,41.1423,-75.0271,4
18425,Greeley,Pennsylvania,PA,Pike,103,,,41.4372,-75.0125,4
18426,Greentown,Pennsylvania,PA,Pike,103,,,41.3321,-75.2819,4
18435,Lackawaxen,Pennsylvania,PA,Pike,103,,,41.482,-74.986,4
18451,Paupack,Pennsylvania,PA,Pike,103,,,41.3962,-75.1963,4
18457,Rowland,Pennsylvania,PA,Pike,103,,,41.4719,-75.0485,4
18458,Shohola,Pennsylvania,PA,Pike,103,,,41.4182,-74.918,4
18464,Tafton,Pennsylvania,PA,Pike,103,,,41.4045,-75.183,4
16720,Austin,Pennsylvania,PA,Potter,105,,,41.6296,-78.0908,4
16746,Roulette,Pennsylvania,PA,Potter,105,,,41.7738,-78.1538,4
16748,Shinglehouse,Pennsylvania,PA,Potter,105,,,41.9572,-78.1906,4
16915,Coudersport,Pennsylvania,PA,Potter,105,,,41.7762,-77.9567,4
16922,Galeton,Pennsylvania,PA,Potter,105,,,41.723,-77.6548,4
16923,Genesee,Pennsylvania,PA,Potter,105,,,41.9401,-77.8725,4
16927,Harrison Valley,Pennsylvania,PA,Potter,105,,,41.9587,-77.6587,4
16937,Mills,Pennsylvania,PA,Potter,105,,,41.9656,-77.7111,4
16941,Genesee,Pennsylvania,PA,Potter,105,,,41.9883,-77.758,4
16948,Ulysses,Pennsylvania,PA,Potter,105,,,41.8459,-77.7126,4
17729,Cross Fork,Pennsylvania,PA,Potter,105,,,41.4737,-77.8095,4
17901,Pottsville,Pennsylvania,PA,Schuylkill,107,,,40.684,-76.2123,4
17921,Ashland,Pennsylvania,PA,Schuylkill,107,,,40.7732,-76.343,4
17922,Auburn,Pennsylvania,PA,Schuylkill,107,,,40.5962,-76.1344,4
17923,Branchdale,Pennsylvania,PA,Schuylkill,107,,,40.6643,-76.3328,4
17925,Brockton,Pennsylvania,PA,Schuylkill,107,,,40.7508,-76.0629,4
17929,Cressona,Pennsylvania,PA,Schuylkill,107,,,40.6284,-76.195,4
17930,Cumbola,Pennsylvania,PA,Schuylkill,107,,,40.7114,-76.1392,4
17931,Frackville,Pennsylvania,PA,Schuylkill,107,,,40.7825,-76.2311,4
17932,Frackville,Pennsylvania,PA,Schuylkill,107,,,40.784,-76.2302,4
17933,Friedensburg,Pennsylvania,PA,Schuylkill,107,,,40.6026,-76.2408,4
17934,Gilberton,Pennsylvania,PA,Schuylkill,107,,,40.7986,-76.2155,4
17935,Girardville,Pennsylvania,PA,Schuylkill,107,,,40.7922,-76.2858,4
17936,Gordon,Pennsylvania,PA,Schuylkill,107,,,40.7489,-76.3355,4
17938,Hegins,Pennsylvania,PA,Schuylkill,107,,,40.6669,-76.4732,4
17941,Klingerstown,Pennsylvania,PA,Schuylkill,107,,,40.6676,-76.6507,4
17943,Lavelle,Pennsylvania,PA,Schuylkill,107,,,40.7634,-76.3827,4
17944,Llewellyn,Pennsylvania,PA,Schuylkill,107,,,40.6729,-76.2791,4
17945,Locustdale,Pennsylvania,PA,Schuylkill,107,,,40.7773,-76.3761,4
17946,Lost Creek,Pennsylvania,PA,Schuylkill,107,,,40.8081,-76.2407,4
17948,Mahanoy City,Pennsylvania,PA,Schuylkill,107,,,40.8123,-76.1396,4
17949,Mahanoy Plane,Pennsylvania,PA,Schuylkill,107,,,40.794,-76.2433,4
17951,Mar Lin,Pennsylvania,PA,Schuylkill,107,,,40.683,-76.2387,4
17952,Mary D,Pennsylvania,PA,Schuylkill,107,,,40.7473,-76.0628,1
17953,Middleport,Pennsylvania,PA,Schuylkill,107,,,40.7331,-76.0858,4
17954,Minersville,Pennsylvania,PA,Schuylkill,107,,,40.6904,-76.2597,4
17957,Muir,Pennsylvania,PA,Schuylkill,107,,,40.5926,-76.5161,4
17959,New Philadelphia,Pennsylvania,PA,Schuylkill,107,,,40.7195,-76.1158,4
17960,New Ringgold,Pennsylvania,PA,Schuylkill,107,,,40.7149,-75.9484,4
17961,Orwigsburg,Pennsylvania,PA,Schuylkill,107,,,40.6431,-76.084,4
17963,Pine Grove,Pennsylvania,PA,Schuylkill,107,,,40.5671,-76.3269,4
17964,Pitman,Pennsylvania,PA,Schuylkill,107,,,40.7049,-76.5233,4
17965,Port Carbon,Pennsylvania,PA,Schuylkill,107,,,40.6977,-76.166,4
17966,Ravine,Pennsylvania,PA,Schuylkill,107,,,40.5745,-76.4038,4
17967,Ringtown,Pennsylvania,PA,Schuylkill,107,,,40.8559,-76.2349,4
17968,Sacramento,Pennsylvania,PA,Schuylkill,107,,,40.6352,-76.6128,4
17970,Saint Clair,Pennsylvania,PA,Schuylkill,107,,,40.7193,-76.1924,4
17972,Schuylkill Haven,Pennsylvania,PA,Schuylkill,107,,,40.6306,-76.17,4
17974,Seltzer,Pennsylvania,PA,Schuylkill,107,,,40.6954,-76.2338,4
17976,Shenandoah,Pennsylvania,PA,Schuylkill,107,,,40.8167,-76.2035,4
17978,Spring Glen,Pennsylvania,PA,Schuylkill,107,,,40.6258,-76.6218,4
17979,Summit Station,Pennsylvania,PA,Schuylkill,107,,,40.5545,-76.2038,4
17980,Tower City,Pennsylvania,PA,Schuylkill,107,,,40.5845,-76.55,4
17981,Tremont,Pennsylvania,PA,Schuylkill,107,,,40.6343,-76.3905,4
17982,Tuscarora,Pennsylvania,PA,Schuylkill,107,,,40.7815,-76.0134,4
17983,Valley View,Pennsylvania,PA,Schuylkill,107,,,40.6445,-76.5448,4
17985,Zion Grove,Pennsylvania,PA,Schuylkill,107,,,40.9141,-76.1931,4
18211,Andreas,Pennsylvania,PA,Schuylkill,107,,,40.7465,-75.8342,4
18214,Barnesville,Pennsylvania,PA,Schuylkill,107,,,40.8138,-76.0611,4
18218,Coaldale,Pennsylvania,PA,Schuylkill,107,,,40.8219,-75.9104,4
18220,Delano,Pennsylvania,PA,Schuylkill,107,,,40.8389,-76.0694,4
18231,Kelayres,Pennsylvania,PA,Schuylkill,107,,,40.9002,-76.0054,4
18237,Mcadoo,Pennsylvania,PA,Schuylkill,107,,,40.8979,-75.9971,4
18241,Nuremberg,Pennsylvania,PA,Schuylkill,107,,,40.9395,-76.1716,4
18242,Oneida,Pennsylvania,PA,Schuylkill,107,,,40.911,-76.1223,4
18245,Quakake,Pennsylvania,PA,Schuylkill,107,,,40.8518,-76.036,4
18248,Sheppton,Pennsylvania,PA,Schuylkill,107,,,40.902,-76.1188,4
18252,Tamaqua,Pennsylvania,PA,Schuylkill,107,,,40.7983,-75.9735,4
19549,Port Clinton,Pennsylvania,PA,Schuylkill,107,,,40.5818,-76.0267,4
17812,Beaver Springs,Pennsylvania,PA,Snyder,109,,,40.7528,-77.2318,4
17813,Beavertown,Pennsylvania,PA,Snyder,109,,,40.7774,-77.1691,4
17827,Freeburg,Pennsylvania,PA,Snyder,109,,,40.765,-76.9395,4
17831,Hummels Wharf,Pennsylvania,PA,Snyder,109,,,40.8344,-76.8354,4
17833,Kreamer,Pennsylvania,PA,Snyder,109,,,40.8031,-76.9639,4
17841,Mc Clure,Pennsylvania,PA,Snyder,109,,,40.6991,-77.3758,1
17842,Middleburg,Pennsylvania,PA,Snyder,109,,,40.7977,-77.0468,4
17843,Beaver Springs,Pennsylvania,PA,Snyder,109,,,40.7462,-77.2094,4
17853,Mount Pleasant Mills,Pennsylvania,PA,Snyder,109,,,40.7237,-77.0135,4
17861,Paxtonville,Pennsylvania,PA,Snyder,109,,,40.7725,-77.0833,4
17862,Penns Creek,Pennsylvania,PA,Snyder,109,,,40.8598,-77.0553,4
17864,Port Trevorton,Pennsylvania,PA,Snyder,109,,,40.6996,-76.9082,4
17870,Selinsgrove,Pennsylvania,PA,Snyder,109,,,40.8224,-76.8683,4
17876,Shamokin Dam,Pennsylvania,PA,Snyder,109,,,40.8459,-76.8224,4
17882,Troxelville,Pennsylvania,PA,Snyder,109,,,40.8031,-77.2053,4
15411,Addison,Pennsylvania,PA,Somerset,111,,,39.7476,-79.3454,4
15424,Confluence,Pennsylvania,PA,Somerset,111,,,39.8129,-79.3567,4
15485,Ursina,Pennsylvania,PA,Somerset,111,,,39.8173,-79.3306,4
15501,Somerset,Pennsylvania,PA,Somerset,111,,,40.0248,-79.0808,4
15502,Hidden Valley,Pennsylvania,PA,Somerset,111,,,40.046,-79.2585,1
15510,Somerset,Pennsylvania,PA,Somerset,111,,,39.9633,-79.0409,4
15520,Acosta,Pennsylvania,PA,Somerset,111,,,40.1104,-79.0689,4
15530,Berlin,Pennsylvania,PA,Somerset,111,,,39.9188,-78.9637,4
15531,Boswell,Pennsylvania,PA,Somerset,111,,,40.1918,-79.0362,4
15532,Boynton,Pennsylvania,PA,Somerset,111,,,39.7673,-79.062,4
15538,Fairhope,Pennsylvania,PA,Somerset,111,,,39.868,-78.8362,4
15540,Fort Hill,Pennsylvania,PA,Somerset,111,,,39.7961,-79.2472,4
15541,Friedens,Pennsylvania,PA,Somerset,111,,,40.011,-78.9033,4
15542,Garrett,Pennsylvania,PA,Somerset,111,,,39.8646,-79.0616,4
15544,Gray,Pennsylvania,PA,Somerset,111,,,40.1377,-79.0926,4
15546,Jenners,Pennsylvania,PA,Somerset,111,,,40.1431,-79.0428,4
15547,Jennerstown,Pennsylvania,PA,Somerset,111,,,40.1595,-79.0616,4
15548,Kantner,Pennsylvania,PA,Somerset,111,,,40.1011,-78.9387,4
15549,Listie,Pennsylvania,PA,Somerset,111,,,40.0208,-79.0123,4
15551,Markleton,Pennsylvania,PA,Somerset,111,,,39.8691,-79.2879,4
15552,Meyersdale,Pennsylvania,PA,Somerset,111,,,39.7905,-79.0261,4
15553,New Baltimore,Pennsylvania,PA,Somerset,111,,,39.9828,-78.7719,4
15555,Quecreek,Pennsylvania,PA,Somerset,111,,,40.0914,-79.0872,4
15557,Rockwood,Pennsylvania,PA,Somerset,111,,,39.9373,-79.1865,4
15558,Salisbury,Pennsylvania,PA,Somerset,111,,,39.7531,-79.0835,4
15560,Shanksville,Pennsylvania,PA,Somerset,111,,,40.0171,-78.9077,4
15561,Sipesville,Pennsylvania,PA,Somerset,111,,,40.0964,-79.0902,4
15562,Springs,Pennsylvania,PA,Somerset,111,,,39.748,-79.1237,4
15563,Stoystown,Pennsylvania,PA,Somerset,111,,,40.0948,-78.9658,4
15564,Wellersburg,Pennsylvania,PA,Somerset,111,,,39.7299,-78.8441,4
15565,West Salisbury,Pennsylvania,PA,Somerset,111,,,39.7542,-79.095,4
15924,Cairnbrook,Pennsylvania,PA,Somerset,111,,,40.1149,-78.7851,4
15926,Central City,Pennsylvania,PA,Somerset,111,,,40.0913,-78.8448,4
15928,Davidsville,Pennsylvania,PA,Somerset,111,,,40.2245,-78.9363,4
15935,Hollsopple,Pennsylvania,PA,Somerset,111,,,40.2343,-78.9515,4
15936,Hooversville,Pennsylvania,PA,Somerset,111,,,40.1488,-78.9141,4
15937,Jerome,Pennsylvania,PA,Somerset,111,,,40.2084,-78.9873,4
15953,Seanor,Pennsylvania,PA,Somerset,111,,,40.212,-78.8984,4
15959,Tire Hill,Pennsylvania,PA,Somerset,111,,,40.268,-78.9156,4
15963,Windber,Pennsylvania,PA,Somerset,111,,,40.2287,-78.8303,4
17731,Eagles Mere,Pennsylvania,PA,Sullivan,113,,,41.4109,-76.5819,4
17758,Muncy Valley,Pennsylvania,PA,Sullivan,113,,,41.3426,-76.5852,4
17768,Shunk,Pennsylvania,PA,Sullivan,113,,,41.5536,-76.7455,4
18614,Dushore,Pennsylvania,PA,Sullivan,113,,,41.5232,-76.4021,4
18616,Forksville,Pennsylvania,PA,Sullivan,113,,,41.5269,-76.6008,4
18619,Hillsgrove,Pennsylvania,PA,Sullivan,113,,,41.4482,-76.6979,4
18626,Laporte,Pennsylvania,PA,Sullivan,113,,,41.4329,-76.5169,4
18628,Lopez,Pennsylvania,PA,Sullivan,113,,,41.418,-76.3002,4
18632,Mildred,Pennsylvania,PA,Sullivan,113,,,41.4792,-76.3831,4
18413,Clifford,Pennsylvania,PA,Susquehanna,115,,,41.649,-75.5988,4
18421,Forest City,Pennsylvania,PA,Susquehanna,115,,,41.6515,-75.4666,4
18430,Herrick Center,Pennsylvania,PA,Susquehanna,115,,,41.742,-75.4894,4
18441,Lenoxville,Pennsylvania,PA,Susquehanna,115,,,41.6595,-75.6282,4
18465,Thompson,Pennsylvania,PA,Susquehanna,115,,,41.834,-75.5342,4
18470,Union Dale,Pennsylvania,PA,Susquehanna,115,,,41.7079,-75.5465,4
18801,Montrose,Pennsylvania,PA,Susquehanna,115,,,41.8396,-75.8821,4
18812,Brackney,Pennsylvania,PA,Susquehanna,115,,,41.9666,-75.9375,4
18813,Brooklyn,Pennsylvania,PA,Susquehanna,115,,,41.7512,-75.8069,4
18816,Dimock,Pennsylvania,PA,Susquehanna,115,,,41.7465,-75.8983,4
18818,Friendsville,Pennsylvania,PA,Susquehanna,115,,,41.9164,-76.0257,4
18820,Gibson,Pennsylvania,PA,Susquehanna,115,,,41.8034,-75.6441,4
18821,Great Bend,Pennsylvania,PA,Susquehanna,115,,,41.9717,-75.7432,4
18822,Hallstead,Pennsylvania,PA,Susquehanna,115,,,41.9598,-75.7826,4
18823,Harford,Pennsylvania,PA,Susquehanna,115,,,41.7761,-75.6935,4
18824,Hop Bottom,Pennsylvania,PA,Susquehanna,115,,,41.6932,-75.7897,4
18825,Jackson,Pennsylvania,PA,Susquehanna,115,,,41.8203,-75.8046,4
18826,Kingsley,Pennsylvania,PA,Susquehanna,115,,,41.7659,-75.7831,4
18827,Lanesboro,Pennsylvania,PA,Susquehanna,115,,,41.957,-75.5849,4
18828,Lawton,Pennsylvania,PA,Susquehanna,115,,,41.7573,-76.0912,4
18830,Little Meadows,Pennsylvania,PA,Susquehanna,115,,,41.9766,-76.1185,4
18834,New Milford,Pennsylvania,PA,Susquehanna,115,,,41.8664,-75.7171,4
18842,South Gibson,Pennsylvania,PA,Susquehanna,115,,,41.7342,-75.6302,4
18843,South Montrose,Pennsylvania,PA,Susquehanna,115,,,41.7973,-75.8913,4
18844,Springville,Pennsylvania,PA,Susquehanna,115,,,41.7147,-75.9025,4
18847,Susquehanna,Pennsylvania,PA,Susquehanna,115,,,41.9487,-75.5862,4
16901,Wellsboro,Pennsylvania,PA,Tioga,117,,,41.7373,-77.308,4
16911,Arnot,Pennsylvania,PA,Tioga,117,,,41.6626,-77.123,4
16912,Blossburg,Pennsylvania,PA,Tioga,117,,,41.6698,-77.0797,4
16917,Covington,Pennsylvania,PA,Tioga,117,,,41.7448,-77.0772,4
16920,Elkland,Pennsylvania,PA,Tioga,117,,,41.9882,-77.3134,4
16921,Gaines,Pennsylvania,PA,Tioga,117,,,41.7471,-77.568,4
16928,Knoxville,Pennsylvania,PA,Tioga,117,,,41.9596,-77.4357,4
16929,Lawrenceville,Pennsylvania,PA,Tioga,117,,,41.9783,-77.1136,4
16930,Liberty,Pennsylvania,PA,Tioga,117,,,41.5656,-77.1195,4
16932,Mainesburg,Pennsylvania,PA,Tioga,117,,,41.784,-76.9983,4
16933,Mansfield,Pennsylvania,PA,Tioga,117,,,41.8123,-77.0716,4
16935,Middlebury Center,Pennsylvania,PA,Tioga,117,,,41.8664,-77.3128,4
16936,Millerton,Pennsylvania,PA,Tioga,117,,,41.9625,-76.9748,4
16938,Morris,Pennsylvania,PA,Tioga,117,,,41.5475,-77.292,4
16939,Morris Run,Pennsylvania,PA,Tioga,117,,,41.6775,-77.0152,4
16940,Nelson,Pennsylvania,PA,Tioga,117,,,41.9787,-77.2419,4
16942,Osceola,Pennsylvania,PA,Tioga,117,,,41.9848,-77.354,4
16943,Sabinsville,Pennsylvania,PA,Tioga,117,,,41.8408,-77.6155,4
16946,Tioga,Pennsylvania,PA,Tioga,117,,,41.9125,-77.1393,4
16950,Westfield,Pennsylvania,PA,Tioga,117,,,41.9193,-77.523,4
17765,Roaring Branch,Pennsylvania,PA,Tioga,117,,,41.5692,-76.9421,4
17810,Allenwood,Pennsylvania,PA,Union,119,,,41.1264,-76.9724,4
17829,Hartleton,Pennsylvania,PA,Union,119,,,40.9005,-77.1558,4
17835,Laurelton,Pennsylvania,PA,Union,119,,,40.8831,-77.1986,4
17837,Lewisburg,Pennsylvania,PA,Union,119,,,40.9702,-76.9099,4
17844,Mifflinburg,Pennsylvania,PA,Union,119,,,40.9218,-77.0505,4
17845,Millmont,Pennsylvania,PA,Union,119,,,40.8803,-77.1941,4
17855,New Berlin,Pennsylvania,PA,Union,119,,,40.8802,-76.9861,4
17856,New Columbia,Pennsylvania,PA,Union,119,,,41.0541,-76.9019,4
17880,Swengel,Pennsylvania,PA,Union,119,,,40.8923,-77.1266,4
17883,Vicksburg,Pennsylvania,PA,Union,119,,,40.9387,-76.988,4
17885,Weikert,Pennsylvania,PA,Union,119,,,40.8584,-77.2953,4
17886,West Milton,Pennsylvania,PA,Union,119,,,41.0179,-76.8708,4
17887,White Deer,Pennsylvania,PA,Union,119,,,41.0759,-76.8747,4
17889,Winfield,Pennsylvania,PA,Union,119,,,40.8908,-76.8718,4
16301,Oil City,Pennsylvania,PA,Venango,121,,,41.4319,-79.6916,4
16317,Cooperstown,Pennsylvania,PA,Venango,121,,,41.498,-79.8757,4
16319,Cranberry,Pennsylvania,PA,Venango,121,,,41.3197,-79.6317,4
16323,Franklin,Pennsylvania,PA,Venango,121,,,41.4048,-79.8309,4
16341,Pleasantville,Pennsylvania,PA,Venango,121,,,41.5867,-79.5685,4
16342,Polk,Pennsylvania,PA,Venango,121,,,41.3583,-79.9346,4
16343,Reno,Pennsylvania,PA,Venango,121,,,41.411,-79.7493,4
16344,Rouseville,Pennsylvania,PA,Venango,121,,,41.4717,-79.6881,4
16346,Seneca,Pennsylvania,PA,Venango,121,,,41.3744,-79.6759,4
16362,Utica,Pennsylvania,PA,Venango,121,,,41.4798,-79.9403,4
16364,Venus,Pennsylvania,PA,Venango,121,,,41.3761,-79.5048,4
16372,Clintonville,Pennsylvania,PA,Venango,121,,,41.2002,-79.8734,4
16373,Emlenton,Pennsylvania,PA,Venango,121,,,41.2028,-79.747,4
16374,Kennerdell,Pennsylvania,PA,Venango,121,,,41.2848,-79.7393,4
16312,Chandlers Valley,Pennsylvania,PA,Warren,123,,,41.9358,-79.3097,4
16313,Clarendon,Pennsylvania,PA,Warren,123,,,41.7302,-79.1719,4
16329,Irvine,Pennsylvania,PA,Warren,123,,,41.8117,-79.2643,4
16340,Pittsfield,Pennsylvania,PA,Warren,123,,,41.8366,-79.4196,4
16345,Russell,Pennsylvania,PA,Warren,123,,,41.9461,-79.1271,4
16347,Sheffield,Pennsylvania,PA,Warren,123,,,41.7005,-79.0348,4
16350,Sugar Grove,Pennsylvania,PA,Warren,123,,,41.9475,-79.3186,4
16351,Tidioute,Pennsylvania,PA,Warren,123,,,41.703,-79.3752,4
16352,Tiona,Pennsylvania,PA,Warren,123,,,41.7434,-79.0528,4
16365,Warren,Pennsylvania,PA,Warren,123,,,41.8436,-79.1726,4
16366,Warren,Pennsylvania,PA,Warren,123,,,41.8439,-79.145,4
16367,Warren,Pennsylvania,PA,Warren,123,,,41.8439,-79.145,4
16368,Irvine,Pennsylvania,PA,Warren,123,,,41.8117,-79.2643,4
16369,Irvine,Pennsylvania,PA,Warren,123,,,41.8117,-79.2643,4
16371,Youngsville,Pennsylvania,PA,Warren,123,,,41.8537,-79.3187,4
16402,Bear Lake,Pennsylvania,PA,Warren,123,,,41.9701,-79.4614,4
16405,Columbus,Pennsylvania,PA,Warren,123,,,41.9382,-79.5731,4
16416,Garland,Pennsylvania,PA,Warren,123,,,41.8188,-79.4463,4
16420,Grand Valley,Pennsylvania,PA,Warren,123,,,41.6963,-79.5473,4
16436,Spring Creek,Pennsylvania,PA,Warren,123,,,41.92,-79.4482,4
15004,Atlasburg,Pennsylvania,PA,Washington,125,,,40.3413,-80.3822,4
15019,Bulger,Pennsylvania,PA,Washington,125,,,40.4051,-80.3622,4
15021,Burgettstown,Pennsylvania,PA,Washington,125,,,40.3821,-80.4044,4
15022,Charleroi,Pennsylvania,PA,Washington,125,,,40.1404,-79.92,4
15033,Donora,Pennsylvania,PA,Washington,125,,,40.1768,-79.8619,4
15038,Elrama,Pennsylvania,PA,Washington,125,,,40.2521,-79.9252,4
15053,Joffre,Pennsylvania,PA,Washington,125,,,40.38,-80.3605,4
15054,Langeloth,Pennsylvania,PA,Washington,125,,,40.3625,-80.4086,4
15055,Lawrence,Pennsylvania,PA,Washington,125,,,40.3058,-80.1219,4
15057,Mc Donald,Pennsylvania,PA,Washington,125,,,40.3697,-80.2562,1
15060,Midway,Pennsylvania,PA,Washington,125,,,40.368,-80.2921,4
15063,Monongahela,Pennsylvania,PA,Washington,125,,,40.1937,-79.9241,4
15067,New Eagle,Pennsylvania,PA,Washington,125,,,40.2066,-79.9534,4
15078,Slovan,Pennsylvania,PA,Washington,125,,,40.3584,-80.3879,4
15301,Washington,Pennsylvania,PA,Washington,125,,,40.1717,-80.256,4
15311,Amity,Pennsylvania,PA,Washington,125,,,40.0498,-80.1681,4
15312,Avella,Pennsylvania,PA,Washington,125,,,40.2734,-80.4565,4
15313,Beallsville,Pennsylvania,PA,Washington,125,,,40.0655,-80.0221,4
15314,Bentleyville,Pennsylvania,PA,Washington,125,,,40.1187,-80.007,4
15317,Canonsburg,Pennsylvania,PA,Washington,125,,,40.2706,-80.1668,4
15321,Cecil,Pennsylvania,PA,Washington,125,,,40.3234,-80.1879,4
15323,Claysville,Pennsylvania,PA,Washington,125,,,40.1179,-80.4103,4
15324,Cokeburg,Pennsylvania,PA,Washington,125,,,40.1008,-80.0652,4
15329,Prosperity,Pennsylvania,PA,Washington,125,,,40.0224,-80.2613,4
15330,Eighty Four,Pennsylvania,PA,Washington,125,,,40.1868,-80.0627,4
15331,Ellsworth,Pennsylvania,PA,Washington,125,,,40.1073,-80.0204,4
15332,Finleyville,Pennsylvania,PA,Washington,125,,,40.2593,-79.9753,4
15333,Fredericktown,Pennsylvania,PA,Washington,125,,,40.0026,-79.9981,4
15336,Gastonville,Pennsylvania,PA,Washington,125,,,40.2601,-79.9927,4
15339,Hendersonville,Pennsylvania,PA,Washington,125,,,40.3018,-80.1543,4
15340,Hickory,Pennsylvania,PA,Washington,125,,,40.2925,-80.3025,4
15342,Houston,Pennsylvania,PA,Washington,125,,,40.2425,-80.2209,4
15345,Marianna,Pennsylvania,PA,Washington,125,,,40.0331,-80.1145,4
15347,Meadow Lands,Pennsylvania,PA,Washington,125,,,40.2174,-80.2269,4
15348,Millsboro,Pennsylvania,PA,Washington,125,,,39.9867,-79.9937,4
15350,Muse,Pennsylvania,PA,Washington,125,,,40.2928,-80.2003,4
15358,Richeyville,Pennsylvania,PA,Washington,125,,,40.0563,-79.9926,4
15360,Scenery Hill,Pennsylvania,PA,Washington,125,,,40.0859,-80.0703,4
15361,Southview,Pennsylvania,PA,Washington,125,,,40.3282,-80.2563,4
15363,Strabane,Pennsylvania,PA,Washington,125,,,40.2505,-80.1984,4
15365,Taylorstown,Pennsylvania,PA,Washington,125,,,40.1611,-80.3781,4
15366,Van Voorhis,Pennsylvania,PA,Washington,125,,,40.1562,-79.9742,4
15367,Venetia,Pennsylvania,PA,Washington,125,,,40.2755,-80.0598,4
15368,Vestaburg,Pennsylvania,PA,Washington,125,,,40.0144,-79.9889,4
15376,West Alexander,Pennsylvania,PA,Washington,125,,,40.1065,-80.4978,4
15377,West Finley,Pennsylvania,PA,Washington,125,,,39.9914,-80.4408,4
15378,Westland,Pennsylvania,PA,Washington,125,,,40.2775,-80.2731,4
15379,West Middletown,Pennsylvania,PA,Washington,125,,,40.2417,-80.4242,4
15412,Allenport,Pennsylvania,PA,Washington,125,,,40.0959,-79.8499,4
15419,California,Pennsylvania,PA,Washington,125,,,40.0625,-79.8953,4
15423,Coal Center,Pennsylvania,PA,Washington,125,,,40.0973,-79.8839,4
15427,Daisytown,Pennsylvania,PA,Washington,125,,,40.0743,-79.967,4
15429,Denbo,Pennsylvania,PA,Washington,125,,,40.0081,-79.9392,4
15432,Dunlevy,Pennsylvania,PA,Washington,125,,,40.1151,-79.8627,4
15434,Elco,Pennsylvania,PA,Washington,125,,,40.0797,-79.8758,4
15477,Roscoe,Pennsylvania,PA,Washington,125,,,40.0787,-79.8656,4
15483,Stockdale,Pennsylvania,PA,Washington,125,,,40.0826,-79.8501,4
18405,Beach Lake,Pennsylvania,PA,Wayne,127,,,41.6034,-75.1165,4
18415,Damascus,Pennsylvania,PA,Wayne,127,,,41.7366,-75.1312,4
18417,Equinunk,Pennsylvania,PA,Wayne,127,,,41.8117,-75.1891,4
18424,Gouldsboro,Pennsylvania,PA,Wayne,127,,,41.2448,-75.5037,4
18427,Hamlin,Pennsylvania,PA,Wayne,127,,,41.4047,-75.4069,4
18428,Hawley,Pennsylvania,PA,Wayne,127,,,41.4787,-75.1978,4
18431,Honesdale,Pennsylvania,PA,Wayne,127,,,41.5792,-75.2528,4
18436,Lake Ariel,Pennsylvania,PA,Wayne,127,,,41.4395,-75.4313,4
18437,Lake Como,Pennsylvania,PA,Wayne,127,,,41.8666,-75.3231,4
18438,Lakeville,Pennsylvania,PA,Wayne,127,,,41.4223,-75.2607,4
18439,Lakewood,Pennsylvania,PA,Wayne,127,,,41.8171,-75.3838,4
18443,Milanville,Pennsylvania,PA,Wayne,127,,,41.667,-75.1185,4
18445,Newfoundland,Pennsylvania,PA,Wayne,127,,,41.3041,-75.3384,4
18449,Orson,Pennsylvania,PA,Wayne,127,,,41.8137,-75.448,4
18453,Pleasant Mount,Pennsylvania,PA,Wayne,127,,,41.7322,-75.3989,4
18454,Poyntelle,Pennsylvania,PA,Wayne,127,,,41.8206,-75.4199,4
18455,Preston Park,Pennsylvania,PA,Wayne,127,,,41.8867,-75.356,4
18456,Prompton,Pennsylvania,PA,Wayne,127,,,41.582,-75.3207,4
18459,South Canaan,Pennsylvania,PA,Wayne,127,,,41.616,-75.2747,4
18460,South Sterling,Pennsylvania,PA,Wayne,127,,,41.2643,-75.348,4
18461,Starlight,Pennsylvania,PA,Wayne,127,,,41.9251,-75.3212,4
18462,Starrucca,Pennsylvania,PA,Wayne,127,,,41.8907,-75.449,4
18463,Sterling,Pennsylvania,PA,Wayne,127,,,41.3412,-75.3899,4
18469,Tyler Hill,Pennsylvania,PA,Wayne,127,,,41.7011,-75.1422,4
18472,Waymart,Pennsylvania,PA,Wayne,127,,,41.5703,-75.4065,4
18473,White Mills,Pennsylvania,PA,Wayne,127,,,41.5262,-75.2035,4
15062,Monessen,Pennsylvania,PA,Westmoreland,129,,,40.1524,-79.8835,4
15068,New Kensington,Pennsylvania,PA,Westmoreland,129,,,40.5616,-79.7129,4
15069,New Kensington,Pennsylvania,PA,Westmoreland,129,,,40.5698,-79.7648,4
15072,Pricedale,Pennsylvania,PA,Westmoreland,129,,,40.1393,-79.8562,4
15083,Sutersville,Pennsylvania,PA,Westmoreland,129,,,40.2382,-79.7922,4
15085,Trafford,Pennsylvania,PA,Westmoreland,129,,,40.3857,-79.7223,4
15087,Webster,Pennsylvania,PA,Westmoreland,129,,,40.1851,-79.8487,4
15089,West Newton,Pennsylvania,PA,Westmoreland,129,,,40.2075,-79.758,4
15448,Jacobs Creek,Pennsylvania,PA,Westmoreland,129,,,40.1331,-79.7417,4
15479,Smithton,Pennsylvania,PA,Westmoreland,129,,,40.1553,-79.7381,4
15601,Greensburg,Pennsylvania,PA,Westmoreland,129,,,40.3074,-79.5424,4
15605,Greensburg,Pennsylvania,PA,Westmoreland,129,,,40.3602,-79.4398,4
15606,Greensburg,Pennsylvania,PA,Westmoreland,129,,,40.3015,-79.5389,4
15610,Acme,Pennsylvania,PA,Westmoreland,129,,,40.1201,-79.4051,4
15611,Adamsburg,Pennsylvania,PA,Westmoreland,129,,,40.3126,-79.6565,4
15612,Alverton,Pennsylvania,PA,Westmoreland,129,,,40.1373,-79.5997,4
15613,Apollo,Pennsylvania,PA,Westmoreland,129,,,40.5565,-79.5772,4
15615,Ardara,Pennsylvania,PA,Westmoreland,129,,,40.3578,-79.735,4
15616,Armbrust,Pennsylvania,PA,Westmoreland,129,,,40.2237,-79.5512,4
15617,Arona,Pennsylvania,PA,Westmoreland,129,,,40.268,-79.6591,4
15618,Avonmore,Pennsylvania,PA,Westmoreland,129,,,40.5221,-79.4853,4
15619,Bovard,Pennsylvania,PA,Westmoreland,129,,,40.3198,-79.5034,4
15620,Bradenville,Pennsylvania,PA,Westmoreland,129,,,40.3238,-79.3434,4
15621,Calumet,Pennsylvania,PA,Westmoreland,129,,,40.2109,-79.4853,4
15622,Champion,Pennsylvania,PA,Westmoreland,129,,,40.044,-79.3247,4
15623,Claridge,Pennsylvania,PA,Westmoreland,129,,,40.3692,-79.619,4
15624,Crabtree,Pennsylvania,PA,Westmoreland,129,,,40.3623,-79.4706,4
15625,Darragh,Pennsylvania,PA,Westmoreland,129,,,40.2665,-79.6787,4
15626,Delmont,Pennsylvania,PA,Westmoreland,129,,,40.4139,-79.5764,4
15627,Derry,Pennsylvania,PA,Westmoreland,129,,,40.3349,-79.3326,4
15628,Donegal,Pennsylvania,PA,Westmoreland,129,,,40.0996,-79.381,4
15629,East Vandergrift,Pennsylvania,PA,Westmoreland,129,,,40.598,-79.5624,4
15632,Export,Pennsylvania,PA,Westmoreland,129,,,40.4252,-79.611,4
15633,Forbes Road,Pennsylvania,PA,Westmoreland,129,,,40.354,-79.5217,4
15634,Grapeville,Pennsylvania,PA,Westmoreland,129,,,40.3239,-79.6049,4
15635,Hannastown,Pennsylvania,PA,Westmoreland,129,,,40.352,-79.4979,4
15636,Harrison City,Pennsylvania,PA,Westmoreland,129,,,40.366,-79.6565,4
15637,Herminie,Pennsylvania,PA,Westmoreland,129,,,40.2455,-79.7172,4
15638,Hostetter,Pennsylvania,PA,Westmoreland,129,,,40.2662,-79.3984,4
15639,Hunker,Pennsylvania,PA,Westmoreland,129,,,40.2149,-79.5824,4
15640,Hutchinson,Pennsylvania,PA,Westmoreland,129,,,40.2251,-79.7328,4
15641,Hyde Park,Pennsylvania,PA,Westmoreland,129,,,40.6311,-79.5899,4
15642,Irwin,Pennsylvania,PA,Westmoreland,129,,,40.3191,-79.7205,4
15644,Jeannette,Pennsylvania,PA,Westmoreland,129,,,40.3295,-79.6144,4
15646,Jones Mills,Pennsylvania,PA,Westmoreland,129,,,40.0889,-79.3427,4
15647,Larimer,Pennsylvania,PA,Westmoreland,129,,,40.3453,-79.7264,4
15650,Latrobe,Pennsylvania,PA,Westmoreland,129,,,40.2926,-79.4103,4
15655,Laughlintown,Pennsylvania,PA,Westmoreland,129,,,40.212,-79.1978,4
15658,Ligonier,Pennsylvania,PA,Westmoreland,129,,,40.2431,-79.2375,4
15660,Lowber,Pennsylvania,PA,Westmoreland,129,,,40.2459,-79.7709,4
15661,Loyalhanna,Pennsylvania,PA,Westmoreland,129,,,40.3222,-79.3601,4
15662,Luxor,Pennsylvania,PA,Westmoreland,129,,,40.3342,-79.4781,4
15663,Madison,Pennsylvania,PA,Westmoreland,129,,,40.2467,-79.676,4
15664,Mammoth,Pennsylvania,PA,Westmoreland,129,,,40.3108,-79.6172,4
15665,Manor,Pennsylvania,PA,Westmoreland,129,,,40.334,-79.67,4
15666,Mount Pleasant,Pennsylvania,PA,Westmoreland,129,,,40.1742,-79.5134,4
15668,Murrysville,Pennsylvania,PA,Westmoreland,129,,,40.4467,-79.6842,4
15670,New Alexandria,Pennsylvania,PA,Westmoreland,129,,,40.3987,-79.422,4
15671,New Derry,Pennsylvania,PA,Westmoreland,129,,,40.3494,-79.3225,4
15672,New Stanton,Pennsylvania,PA,Westmoreland,129,,,40.2192,-79.6095,4
15674,Norvelt,Pennsylvania,PA,Westmoreland,129,,,40.216,-79.4872,4
15675,Penn,Pennsylvania,PA,Westmoreland,129,,,40.3301,-79.6413,4
15676,Pleasant Unity,Pennsylvania,PA,Westmoreland,129,,,40.2424,-79.4542,4
15677,Rector,Pennsylvania,PA,Westmoreland,129,,,40.1864,-79.2473,4
15678,Rillton,Pennsylvania,PA,Westmoreland,129,,,40.2872,-79.7262,4
15679,Ruffs Dale,Pennsylvania,PA,Westmoreland,129,,,40.1585,-79.6277,4
15680,Salina,Pennsylvania,PA,Westmoreland,129,,,40.5189,-79.4959,4
15683,Scottdale,Pennsylvania,PA,Westmoreland,129,,,40.1029,-79.593,4
15684,Slickville,Pennsylvania,PA,Westmoreland,129,,,40.4653,-79.5067,4
15685,Southwest,Pennsylvania,PA,Westmoreland,129,,,40.3602,-79.4398,4
15687,Stahlstown,Pennsylvania,PA,Westmoreland,129,,,40.1386,-79.3445,4
15688,Tarrs,Pennsylvania,PA,Westmoreland,129,,,40.1686,-79.5848,4
15689,United,Pennsylvania,PA,Westmoreland,129,,,40.2184,-79.4878,4
15690,Vandergrift,Pennsylvania,PA,Westmoreland,129,,,40.6418,-79.5399,4
15691,Wendel,Pennsylvania,PA,Westmoreland,129,,,40.294,-79.6866,4
15692,Westmoreland City,Pennsylvania,PA,Westmoreland,129,,,40.3294,-79.6806,4
15693,Whitney,Pennsylvania,PA,Westmoreland,129,,,40.2534,-79.4103,4
15695,Wyano,Pennsylvania,PA,Westmoreland,129,,,40.1962,-79.6942,4
15696,Youngstown,Pennsylvania,PA,Westmoreland,129,,,40.2793,-79.3661,4
15697,Youngwood,Pennsylvania,PA,Westmoreland,129,,,40.2395,-79.5823,4
15698,Yukon,Pennsylvania,PA,Westmoreland,129,,,40.2155,-79.6849,4
15779,Torrance,Pennsylvania,PA,Westmoreland,129,,,40.3992,-79.2177,4
15923,Bolivar,Pennsylvania,PA,Westmoreland,129,,,40.3673,-79.1605,4
15944,New Florence,Pennsylvania,PA,Westmoreland,129,,,40.3823,-79.0968,4
15954,Seward,Pennsylvania,PA,Westmoreland,129,,,40.4099,-79.0232,4
18419,Factoryville,Pennsylvania,PA,Wyoming,131,,,41.5762,-75.7652,4
18446,Nicholson,Pennsylvania,PA,Wyoming,131,,,41.6412,-75.7641,4
18615,Falls,Pennsylvania,PA,Wyoming,131,,,41.4667,-75.856,4
18623,Laceyville,Pennsylvania,PA,Wyoming,131,,,41.6662,-76.1426,4
18625,Lake Winola,Pennsylvania,PA,Wyoming,131,,,41.5096,-75.8508,4
18629,Mehoopany,Pennsylvania,PA,Wyoming,131,,,41.5587,-76.1035,4
18630,Meshoppen,Pennsylvania,PA,Wyoming,131,,,41.6392,-76.0155,4
18636,Noxen,Pennsylvania,PA,Wyoming,131,,,41.4181,-76.046,4
18657,Tunkhannock,Pennsylvania,PA,Wyoming,131,,,41.5387,-75.9466,4
17019,Dillsburg,Pennsylvania,PA,York,133,,,40.0964,-77.0339,4
17302,Airville,Pennsylvania,PA,York,133,,,39.821,-76.4012,4
17309,Brogue,Pennsylvania,PA,York,133,,,39.8608,-76.4673,4
17311,Codorus,Pennsylvania,PA,York,133,,,39.8718,-76.7599,4
17312,Craley,Pennsylvania,PA,York,133,,,39.9467,-76.5066,4
17313,Dallastown,Pennsylvania,PA,York,133,,,39.9124,-76.6535,4
17314,Delta,Pennsylvania,PA,York,133,,,39.7518,-76.3441,4
17315,Dover,Pennsylvania,PA,York,133,,,40.0062,-76.8555,4
17317,East Prospect,Pennsylvania,PA,York,133,,,39.9701,-76.5217,4
17318,Emigsville,Pennsylvania,PA,York,133,,,40.0215,-76.7266,4
17319,Etters,Pennsylvania,PA,York,133,,,40.1545,-76.8019,4
17321,Fawn Grove,Pennsylvania,PA,York,133,,,39.751,-76.4392,4
17322,Felton,Pennsylvania,PA,York,133,,,39.836,-76.5937,4
17323,Franklintown,Pennsylvania,PA,York,133,,,40.075,-77.0279,4
17327,Glen Rock,Pennsylvania,PA,York,133,,,39.7813,-76.7477,4
17329,Glenville,Pennsylvania,PA,York,133,,,39.757,-76.8153,4
17331,Hanover,Pennsylvania,PA,York,133,,,39.7943,-76.9812,4
17332,Hanover,Pennsylvania,PA,York,133,,,39.8007,-76.983,4
17333,Hanover,Pennsylvania,PA,York,133,,,39.8007,-76.983,4
17334,Hanover,Pennsylvania,PA,York,133,,,39.805,-76.9736,4
17335,Hanover,Pennsylvania,PA,York,133,,,39.8144,-76.9837,
17339,Lewisberry,Pennsylvania,PA,York,133,,,40.1463,-76.87,4
17342,Loganville,Pennsylvania,PA,York,133,,,39.8536,-76.708,4
17345,Manchester,Pennsylvania,PA,York,133,,,40.0695,-76.7332,4
17347,Mount Wolf,Pennsylvania,PA,York,133,,,40.0711,-76.6966,4
17349,New Freedom,Pennsylvania,PA,York,133,,,39.7423,-76.6841,4
17352,New Park,Pennsylvania,PA,York,133,,,39.76,-76.5042,4
17354,Porters Sideling,Pennsylvania,PA,York,133,,,39.8246,-76.8993,4
17355,Railroad,Pennsylvania,PA,York,133,,,39.7573,-76.6994,4
17356,Red Lion,Pennsylvania,PA,York,133,,,39.9026,-76.6081,4
17358,Rossville,Pennsylvania,PA,York,133,,,39.973,-76.6878,1
17360,Seven Valleys,Pennsylvania,PA,York,133,,,39.8556,-76.7383,4
17361,Shrewsbury,Pennsylvania,PA,York,133,,,39.7601,-76.6748,4
17362,Spring Grove,Pennsylvania,PA,York,133,,,39.8572,-76.8774,4
17363,Stewartstown,Pennsylvania,PA,York,133,,,39.772,-76.597,4
17364,Thomasville,Pennsylvania,PA,York,133,,,39.9346,-76.8822,4
17365,Wellsville,Pennsylvania,PA,York,133,,,40.0557,-76.9443,4
17366,Windsor,Pennsylvania,PA,York,133,,,39.9233,-76.5591,4
17368,Wrightsville,Pennsylvania,PA,York,133,,,39.9966,-76.527,4
17370,York Haven,Pennsylvania,PA,York,133,,,40.1222,-76.7737,4
17371,York New Salem,Pennsylvania,PA,York,133,,,39.9006,-76.7896,4
17401,York,Pennsylvania,PA,York,133,,,39.9635,-76.7269,4
17402,York,Pennsylvania,PA,York,133,,,39.959,-76.6592,4
17403,York,Pennsylvania,PA,York,133,,,39.9494,-76.713,4
17404,York,Pennsylvania,PA,York,133,,,40.0023,-76.7712,4
17405,York,Pennsylvania,PA,York,133,,,40.0086,-76.5972,4
17406,York,Pennsylvania,PA,York,133,,,40.0046,-76.5947,4
17407,York,Pennsylvania,PA,York,133,,,39.8833,-76.712,4
17408,York,Pennsylvania,PA,York,133,,,39.9492,-76.8018,4